{"type":"FeatureCollection","properties":{"source":"DataMeet Community Maps Project - Districts/Census_2011","state":"Andaman and Nicobar Islands","stateSlug":"andaman-and-nicobar-islands"},"features":[{"type":"Feature","properties":{"DISTRICT":"Nicobar","ST_NM":"Andaman and Nicobar Islands","ST_CEN_CD":35,"DT_CEN_CD":1,"censuscode":638},"geometry":{"type":"MultiPolygon","coordinates":[[[[93.84861,7.24051],[93.84682,7.21799],[93.88261,7.20371],[93.88722,7.08706],[93.91442,7.0552],[93.91664,7.02572],[93.94795,7.00231],[93.92485,7.01181],[93.91374,7.00019],[93.94562,6.95618],[93.92349,6.95202],[93.91648,6.91393],[93.89695,6.90324],[93.90277,6.81473],[93.88214,6.79466],[93.86927,6.81619],[93.85185,6.81518],[93.8284,6.75595],[93.80512,6.76628],[93.81599,6.81718],[93.78743,6.83078],[93.79525,6.85154],[93.77207,6.87677],[93.78155,6.89183],[93.74279,6.92394],[93.74677,6.96187],[93.69411,7.01552],[93.66351,7.0055],[93.67425,7.02332],[93.6578,7.09879],[93.67475,7.11359],[93.65613,7.12599],[93.67645,7.14081],[93.68645,7.18943],[93.7289,7.18447],[93.76037,7.21441],[93.80471,7.20305],[93.80609,7.23253],[93.84861,7.2411],[93.84861,7.24051]]],[[[93.38998,8.01991],[93.40905,8.00637],[93.39684,7.96869],[93.43207,7.96639],[93.46287,7.93444],[93.47492,7.89313],[93.46157,7.87304],[93.42479,7.90732],[93.37922,7.88349],[93.35781,7.88947],[93.34283,7.91895],[93.35734,7.94186],[93.33126,7.92447],[93.31954,7.93233],[93.31103,7.96207],[93.33035,8.00618],[93.38982,8.01995],[93.38998,8.01991]]],[[[93.71289,7.44324],[93.72301,7.39987],[93.75648,7.3745],[93.75705,7.35792],[93.7242,7.3082],[93.69972,7.3028],[93.64717,7.24387],[93.62121,7.30926],[93.63654,7.32111],[93.63288,7.37103],[93.67433,7.37319],[93.70876,7.39441],[93.7129,7.44367],[93.71289,7.44324]]],[[[93.52498,8.23205],[93.54347,8.22475],[93.54521,8.20064],[93.50316,8.14793],[93.5478,8.0889],[93.5498,8.03613],[93.53051,8.04943],[93.52608,8.03322],[93.5083,8.03418],[93.50147,7.99794],[93.48579,8.04447],[93.50877,8.03743],[93.50395,8.05663],[93.51201,8.06806],[93.51389,8.04886],[93.52562,8.05284],[93.53085,8.07916],[93.51433,8.08436],[93.48554,8.05204],[93.48992,8.09088],[93.46614,8.10878],[93.4538,8.16857],[93.49093,8.19955],[93.49426,8.22272],[93.52439,8.2328],[93.52498,8.23205]]],[[[92.78947,9.24276],[92.82014,9.21082],[92.82969,9.13795],[92.7989,9.11902],[92.73014,9.12455],[92.72335,9.21735],[92.76633,9.2154],[92.77462,9.25619],[92.7883,9.24402],[92.78947,9.24276]]],[[[93.12734,8.35559],[93.143,8.34313],[93.12619,8.27598],[93.20324,8.21681],[93.19968,8.19569],[93.12078,8.22406],[93.08719,8.27103],[93.09552,8.33947],[93.12703,8.35557],[93.12734,8.35559]]],[[[93.54775,8.02614],[93.56348,8.02482],[93.58242,7.99217],[93.57735,7.9294],[93.50812,7.98491],[93.53179,8.02499],[93.55129,7.99601],[93.54743,8.02644],[93.54775,8.02614]]],[[[93.58842,8.10736],[93.59391,8.03861],[93.56223,8.11917],[93.57918,8.12493],[93.58834,8.10837],[93.58842,8.10736]]],[[[93.61446,8.57525],[93.64239,8.46827],[93.62694,8.46773],[93.62294,8.42323],[93.61428,8.57531],[93.61446,8.57525]]],[[[93.235,8.26449],[93.25121,8.23058],[93.23951,8.22188],[93.22023,8.24567],[93.23455,8.26449],[93.235,8.26449]]],[[[93.04425,8.47121],[93.05747,8.44053],[93.03655,8.4497],[93.04368,8.47121],[93.04425,8.47121]]],[[[93.71976,7.20707],[93.70922,7.23036],[93.71984,7.20774],[93.71976,7.20707]]],[[[93.68927,7.39598],[93.68866,7.40936],[93.68985,7.39624],[93.68927,7.39598]]],[[[93.54521,7.51124],[93.54246,7.52446],[93.54553,7.51156],[93.54521,7.51124]]]]}},{"type":"Feature","properties":{"DISTRICT":"North & Middle Andaman","ST_NM":"Andaman and Nicobar Islands","ST_CEN_CD":35,"DT_CEN_CD":2,"censuscode":639},"geometry":{"type":"MultiPolygon","coordinates":[[[[92.89905,12.91512],[92.92215,12.91304],[92.90446,12.88625],[92.92816,12.88397],[92.9539,12.8074],[92.93391,12.77366],[92.94974,12.77035],[92.9801,12.71014],[92.96468,12.70459],[92.94877,12.62881],[92.97552,12.54294],[92.96823,12.49703],[92.95919,12.48694],[92.94658,12.49954],[92.93031,12.48006],[92.92276,12.46517],[92.95867,12.47311],[92.91511,12.44382],[92.91479,12.40631],[92.85619,12.45678],[92.8993,12.4164],[92.80753,12.43718],[92.83087,12.42766],[92.82654,12.40935],[92.84058,12.40746],[92.85871,12.36362],[92.89613,12.33651],[92.88161,12.34492],[92.86783,12.33156],[92.89518,12.3202],[92.83211,12.30254],[92.77146,12.31964],[92.75484,12.29601],[92.72013,12.30022],[92.6989,12.32782],[92.70877,12.49339],[92.69419,12.5154],[92.70752,12.59519],[92.68455,12.60888],[92.70393,12.6068],[92.71491,12.64329],[92.7241,12.62589],[92.7522,12.67118],[92.77485,12.66975],[92.78135,12.63528],[92.78908,12.67505],[92.78568,12.69816],[92.76763,12.67153],[92.7328,12.67436],[92.74602,12.72277],[92.72088,12.7881],[92.7235,12.82686],[92.73175,12.83533],[92.73835,12.81061],[92.74011,12.8366],[92.74338,12.82422],[92.76011,12.8594],[92.77014,12.84588],[92.77049,12.86364],[92.79378,12.86295],[92.80295,12.89724],[92.85876,12.87782],[92.89605,12.89862],[92.89789,12.92745],[92.89898,12.91588],[92.89905,12.91512]]],[[[93.03027,13.57038],[93.04315,13.50459],[93.03322,13.46571],[93.016,13.46465],[93.0345,13.43578],[93.01624,13.4325],[93.04097,13.42781],[93.04696,13.40515],[93.06171,13.42116],[93.05993,13.39805],[93.0704,13.40626],[93.04849,13.37488],[93.0255,13.37298],[93.05551,13.38213],[93.09005,13.33601],[93.06522,13.30428],[93.0606,13.32877],[93.04007,13.32211],[93.0417,13.36769],[93.03221,13.3453],[93.00303,13.35406],[92.98709,13.32915],[92.97054,13.36042],[92.95013,13.34354],[92.95938,13.32581],[92.99834,13.31476],[92.9919,13.2925],[93.00903,13.32095],[93.02241,13.29412],[93.01077,13.29668],[93.01181,13.27684],[93.04633,13.28181],[93.04502,13.25879],[93.06566,13.27228],[93.03181,13.17866],[93.03463,13.08257],[93.00292,13.02863],[92.96526,13.03655],[92.9716,13.0132],[92.9347,13.04272],[92.93617,13.08715],[92.92353,13.05658],[92.90424,13.07991],[92.91103,13.06126],[92.88772,13.04494],[92.91614,13.05455],[92.90155,13.02208],[92.93851,12.97172],[92.91253,12.9468],[92.90733,12.98591],[92.89697,12.99565],[92.88126,12.98218],[92.87708,12.94434],[92.8545,12.93977],[92.85837,12.90335],[92.87577,12.90865],[92.87347,12.88347],[92.84203,12.87652],[92.84221,12.89222],[92.82963,12.88647],[92.79442,12.91403],[92.79486,12.9873],[92.81847,12.98615],[92.80848,12.99788],[92.82544,13.01347],[92.78782,13.01964],[92.79693,13.0898],[92.80999,13.07418],[92.80747,13.09952],[92.82231,13.09574],[92.82547,13.1154],[92.80975,13.12667],[92.84244,13.12723],[92.84775,13.14055],[92.80967,13.15295],[92.81529,13.17479],[92.83535,13.17358],[92.81896,13.18433],[92.82773,13.23713],[92.85387,13.23632],[92.85127,13.26262],[92.82203,13.27914],[92.84182,13.30091],[92.82168,13.31055],[92.83971,13.37544],[92.86677,13.38158],[92.8422,13.39955],[92.84914,13.41162],[92.86808,13.40255],[92.8839,13.42956],[92.87205,13.47201],[92.92974,13.50186],[92.91495,13.53386],[92.95415,13.54362],[92.99002,13.52723],[92.9882,13.57333],[93.00956,13.54247],[93.01667,13.57121],[93.03019,13.57113],[93.03027,13.57038]]],[[[92.82877,12.30178],[92.86657,12.30612],[92.88707,12.28676],[92.88818,12.25912],[92.85917,12.24513],[92.88209,12.19808],[92.84578,12.19989],[92.85079,12.15746],[92.82262,12.16572],[92.80259,12.13024],[92.81272,12.10796],[92.78775,12.10266],[92.79265,12.08061],[92.76488,12.06372],[92.7419,12.07788],[92.73946,12.09925],[92.77076,12.23122],[92.74788,12.23498],[92.74338,12.25101],[92.75077,12.27475],[92.76478,12.26424],[92.78183,12.28511],[92.77144,12.31315],[92.82801,12.30213],[92.82877,12.30178]]],[[[92.69658,12.99113],[92.72032,12.97889],[92.71962,12.87433],[92.7001,12.84008],[92.67622,12.83591],[92.68928,12.81728],[92.66822,12.7827],[92.64806,12.86169],[92.67968,12.94261],[92.66949,12.96305],[92.69625,12.99151],[92.69658,12.99113]]],[[[92.73146,12.24232],[92.73286,12.21055],[92.73992,12.2364],[92.7626,12.22971],[92.76354,12.18169],[92.72081,12.19058],[92.73116,12.24254],[92.73146,12.24232]]],[[[93.01667,13.67517],[93.02569,13.62718],[92.97692,13.65496],[93.01657,13.67535],[93.01667,13.67517]]],[[[92.95579,12.42993],[92.93093,12.3585],[92.91732,12.36899],[92.92606,12.40479],[92.95602,12.4308],[92.95579,12.42993]]],[[[92.93437,12.30818],[92.9423,12.27568],[92.92319,12.23068],[92.9209,12.26634],[92.90061,12.27193],[92.90173,12.28787],[92.92792,12.28087],[92.93428,12.30952],[92.93437,12.30818]]],[[[92.71039,12.82908],[92.71836,12.71924],[92.6946,12.79605],[92.71,12.82955],[92.71039,12.82908]]],[[[93.00633,12.99708],[92.98024,12.96666],[92.98119,12.93293],[92.95208,12.94093],[92.97376,12.94649],[92.95387,12.96273],[92.95945,12.98892],[92.97234,12.9698],[93.00693,12.99758],[93.00633,12.99708]]],[[[92.89032,12.40016],[92.88275,12.37408],[92.8433,12.40153],[92.89024,12.40026],[92.89032,12.40016]]],[[[92.71123,12.29678],[92.72385,12.29113],[92.71076,12.23015],[92.69993,12.27569],[92.71042,12.29691],[92.71123,12.29678]]],[[[92.90081,12.25515],[92.91234,12.22218],[92.89131,12.23404],[92.87815,12.21],[92.87129,12.24574],[92.88373,12.23805],[92.90149,12.25582],[92.90081,12.25515]]],[[[94.25984,13.43572],[94.24639,13.44278],[94.25972,13.46678],[94.27576,13.46858],[94.27111,13.44311],[94.25984,13.43572]]],[[[92.9266,13.02367],[92.93996,13.02511],[92.94191,12.99552],[92.92086,13.00052],[92.92648,13.02378],[92.9266,13.02367]]],[[[92.84352,13.44008],[92.82213,13.42146],[92.82174,13.43599],[92.84333,13.44037],[92.84352,13.44008]]],[[[92.7297,12.86373],[92.70959,12.83371],[92.72942,12.864],[92.7297,12.86373]]],[[[92.79372,12.91242],[92.79326,12.89214],[92.77423,12.90639],[92.79372,12.91264],[92.79372,12.91242]]],[[[92.87681,12.93142],[92.88617,12.92397],[92.86528,12.91669],[92.85975,12.93275],[92.87663,12.93243],[92.87681,12.93142]]],[[[92.71679,13.09793],[92.70184,13.07096],[92.6961,13.09536],[92.71678,13.09802],[92.71679,13.09793]]],[[[92.76551,12.28776],[92.76464,12.2655],[92.75302,12.27802],[92.76483,12.28851],[92.76551,12.28776]]],[[[92.74932,12.28863],[92.73449,12.2479],[92.74902,12.2888],[92.74932,12.28863]]],[[[93.0637,13.65377],[93.04668,13.62115],[93.0431,13.63757],[93.06357,13.65389],[93.0637,13.65377]]],[[[92.93524,12.22464],[92.9328,12.19609],[92.9343,12.22506],[92.93524,12.22464]]],[[[92.90323,13.59993],[92.88501,13.57462],[92.90275,13.6003],[92.90323,13.59993]]],[[[92.67461,12.54206],[92.67868,12.52237],[92.67439,12.54214],[92.67461,12.54206]]],[[[93.0253,13.3263],[93.02154,13.30125],[93.02548,13.327],[93.0253,13.3263]]],[[[92.84293,12.42014],[92.82925,12.42549],[92.84249,12.42073],[92.84293,12.42014]]],[[[92.72107,12.78143],[92.7249,12.7618],[92.72107,12.78204],[92.72107,12.78143]]],[[[92.91536,12.3555],[92.91067,12.33789],[92.91505,12.35559],[92.91536,12.3555]]],[[[92.75728,12.90135],[92.7501,12.89074],[92.75417,12.91382],[92.75733,12.90177],[92.75728,12.90135]]],[[[92.78939,12.89323],[92.7843,12.88237],[92.78881,12.89339],[92.78939,12.89323]]],[[[92.86681,12.23593],[92.86505,12.25099],[92.86684,12.23613],[92.86681,12.23593]]],[[[92.77436,12.93132],[92.77272,12.91768],[92.77408,12.93143],[92.77436,12.93132]]],[[[92.7663,12.86981],[92.76612,12.85486],[92.76646,12.87004],[92.7663,12.86981]]],[[[92.81607,13.41749],[92.8145,13.40349],[92.81574,13.41769],[92.81607,13.41749]]],[[[93.07094,13.41302],[93.07249,13.4312],[93.07141,13.41327],[93.07094,13.41302]]],[[[92.92057,13.51563],[92.91453,13.50685],[92.92015,13.51572],[92.92057,13.51563]]],[[[92.72411,12.73687],[92.72797,12.72692],[92.72351,12.73729],[92.72411,12.73687]]],[[[92.73797,12.29243],[92.73562,12.28131],[92.73797,12.29269],[92.73797,12.29243]]]]}},{"type":"Feature","properties":{"DISTRICT":"South Andaman","ST_NM":"Andaman and Nicobar Islands","ST_CEN_CD":35,"DT_CEN_CD":3,"censuscode":640},"geometry":{"type":"MultiPolygon","coordinates":[[[[92.69758,12.23961],[92.71289,12.19072],[92.70388,12.1643],[92.72059,12.18246],[92.75791,12.17731],[92.73511,12.07418],[92.78346,12.04649],[92.77888,12.02487],[92.76231,12.02127],[92.73837,12.04161],[92.73626,12.01596],[92.75297,12.00258],[92.76677,12.01171],[92.76893,11.99922],[92.7432,11.99476],[92.75756,11.98896],[92.7488,11.97811],[92.72842,11.99516],[92.73306,11.96904],[92.71816,11.96374],[92.71448,11.93325],[92.72567,11.92702],[92.72469,11.85091],[92.70718,11.81648],[92.67818,11.82019],[92.69347,11.81241],[92.68059,11.79935],[92.71926,11.82671],[92.7463,11.93225],[92.78382,11.93688],[92.78824,11.91904],[92.75542,11.70217],[92.7429,11.71334],[92.73934,11.69067],[92.70184,11.70788],[92.7093,11.67057],[92.66526,11.65358],[92.6745,11.6247],[92.68771,11.64105],[92.6956,11.62163],[92.69472,11.65349],[92.71159,11.64391],[92.73008,11.65935],[92.71638,11.66515],[92.72236,11.68955],[92.75685,11.66491],[92.71172,11.47764],[92.69963,11.5072],[92.66669,11.50421],[92.64599,11.52362],[92.64705,11.57247],[92.63307,11.58033],[92.61763,11.56264],[92.60862,11.62097],[92.63576,11.61577],[92.64455,11.63674],[92.63164,11.65196],[92.6319,11.62877],[92.60795,11.63409],[92.58898,11.72466],[92.56216,11.69402],[92.54669,11.83548],[92.52151,11.82681],[92.5136,11.8487],[92.56251,11.94687],[92.58728,11.88716],[92.60213,11.89683],[92.60628,11.85794],[92.62258,12.09611],[92.66157,12.21575],[92.65479,12.18163],[92.69743,12.23991],[92.69758,12.23961]]],[[[92.5184,10.89749],[92.55823,10.86297],[92.56311,10.80415],[92.58709,10.78763],[92.59705,10.68032],[92.57807,10.67417],[92.58181,10.65765],[92.53993,10.61465],[92.56825,10.57622],[92.51323,10.51184],[92.43308,10.54839],[92.38624,10.53169],[92.42086,10.61563],[92.38258,10.66787],[92.37702,10.78297],[92.40852,10.78422],[92.42708,10.82323],[92.45751,10.83886],[92.45711,10.86152],[92.51782,10.89764],[92.5184,10.89749]]],[[[92.64131,11.51029],[92.66911,11.48988],[92.68571,11.43621],[92.64864,11.40714],[92.69351,11.38773],[92.69085,11.37082],[92.63821,11.34719],[92.59823,11.34777],[92.5815,11.36778],[92.58717,11.40091],[92.62452,11.40856],[92.6115,11.45963],[92.62076,11.49787],[92.64085,11.51037],[92.64131,11.51029]]],[[[92.98375,12.04174],[93.00579,12.02468],[93.04644,11.92425],[93.04502,11.88448],[93.02572,11.88941],[93.00221,11.94862],[92.97381,11.94943],[92.96,11.98181],[92.92537,11.99793],[92.96308,12.04285],[92.9829,12.0424],[92.98375,12.04174]]],[[[93.07447,12.21041],[93.09505,12.14243],[93.09042,12.09837],[93.07408,12.0838],[93.03678,12.13331],[93.07415,12.2105],[93.07447,12.21041]]],[[[92.21649,11.59478],[92.2703,11.58484],[92.26989,11.5231],[92.2146,11.52975],[92.21604,11.59474],[92.21649,11.59478]]],[[[93.02913,12.16558],[93.03413,12.10033],[93.05408,12.07598],[93.0453,12.04573],[93.00778,12.07563],[93.00023,12.10795],[93.00724,12.14706],[93.02885,12.16588],[93.02913,12.16558]]],[[[92.9915,12.109],[93.00576,12.10038],[92.99449,12.04435],[92.96055,12.07884],[92.97154,12.08817],[92.95988,12.10767],[92.99116,12.10928],[92.9915,12.109]]],[[[92.96373,12.15076],[92.99215,12.14408],[92.99783,12.11445],[92.9653,12.12062],[92.96195,12.15084],[92.96373,12.15076]]],[[[93.10333,12.26077],[93.10065,12.2044],[93.09273,12.22523],[93.06289,12.23104],[93.07253,12.25971],[93.08849,12.2373],[93.10308,12.26087],[93.10333,12.26077]]],[[[93.03154,11.83685],[93.07157,11.83502],[93.05021,11.81321],[93.01529,11.8286],[93.01307,11.85],[93.03107,11.83719],[93.03154,11.83685]]],[[[92.54096,11.60343],[92.56953,11.58841],[92.53035,11.55468],[92.54077,11.60349],[92.54096,11.60343]]],[[[93.8676,12.29398],[93.87626,12.27316],[93.85485,12.26575],[93.84909,12.28871],[93.86713,12.2943],[93.8676,12.29398]]],[[[92.75568,11.9673],[92.7672,11.95472],[92.74571,11.94539],[92.73929,11.96175],[92.75459,11.96763],[92.75568,11.9673]]],[[[92.60094,11.97075],[92.59874,11.92786],[92.58866,11.97598],[92.60044,11.97146],[92.60094,11.97075]]],[[[92.70645,11.28863],[92.68823,11.24243],[92.70643,11.28875],[92.70645,11.28863]]],[[[92.59706,11.54189],[92.58365,11.53518],[92.59259,11.57786],[92.59707,11.54224],[92.59706,11.54189]]],[[[92.61189,11.58808],[92.61493,11.56226],[92.60034,11.57055],[92.61172,11.58825],[92.61189,11.58808]]],[[[92.61006,11.55852],[92.6204,11.55524],[92.61047,11.53139],[92.60985,11.55873],[92.61006,11.55852]]],[[[92.56037,11.53766],[92.5664,11.51772],[92.56032,11.53807],[92.56037,11.53766]]],[[[92.72419,11.33204],[92.7103,11.30189],[92.69845,11.30909],[92.72378,11.33305],[92.72419,11.33204]]],[[[93.1204,12.14828],[93.11526,12.13017],[93.12036,12.14858],[93.1204,12.14828]]],[[[92.95648,12.09566],[92.95136,12.08458],[92.94806,12.11632],[92.9569,12.09642],[92.95648,12.09566]]],[[[92.22716,10.98194],[92.21509,10.97788],[92.22706,10.98196],[92.22716,10.98194]]],[[[92.7317,11.95408],[92.72599,11.94171],[92.73253,11.95482],[92.7317,11.95408]]],[[[92.61608,10.93483],[92.60639,10.9376],[92.61604,10.93484],[92.61608,10.93483]]],[[[92.66527,10.99284],[92.66112,10.98299],[92.66491,10.99286],[92.66527,10.99284]]],[[[92.60443,11.53506],[92.60623,11.52178],[92.60422,11.53535],[92.60443,11.53506]]],[[[92.60207,11.91731],[92.59563,11.9056],[92.60207,11.91768],[92.60207,11.91731]]],[[[93.08551,11.78956],[93.07836,11.77983],[93.08535,11.78972],[93.08551,11.78956]]],[[[92.75879,12.18154],[92.75918,12.16653],[92.75854,12.18169],[92.75879,12.18154]]]]}}]}
