{"type":"FeatureCollection","properties":{"source":"DataMeet Community Maps Project - Districts/Census_2011","state":"Andhra Pradesh","stateSlug":"andhra-pradesh"},"features":[{"type":"Feature","properties":{"DISTRICT":"Anantapur","ST_NM":"Andhra Pradesh","ST_CEN_CD":28,"DT_CEN_CD":22,"censuscode":553},"geometry":{"type":"Polygon","coordinates":[[[78.14427,14.9453],[78.11887,14.92724],[78.09971,14.87281],[78.11689,14.85593],[78.11137,14.82594],[78.08678,14.82643],[78.05627,14.7768],[78.08545,14.75551],[78.07428,14.72087],[78.14028,14.69405],[78.13401,14.6284],[78.09755,14.62539],[78.04715,14.5386],[77.98749,14.54054],[77.96672,14.58352],[77.94729,14.56673],[78.03761,14.46392],[78.24599,14.31526],[78.42575,14.27934],[78.41005,14.2077],[78.43383,14.1984],[78.42835,14.15502],[78.46512,14.11299],[78.44791,14.08962],[78.44257,14.02889],[78.47106,14.01082],[78.46565,13.99392],[78.38756,13.94069],[78.37208,13.95453],[78.33887,13.93604],[78.29723,13.89317],[78.27554,13.89529],[78.26535,13.8587],[78.24425,13.84676],[78.26248,13.79721],[78.22972,13.7802],[78.12728,13.78562],[78.11495,13.86214],[78.08375,13.86346],[78.04985,13.89515],[78.04658,13.86132],[77.99378,13.87003],[77.97442,13.82853],[77.95318,13.8283],[77.95096,13.88849],[77.98658,13.90165],[77.98707,13.95589],[77.97487,13.95877],[77.92001,13.90542],[77.89528,13.93927],[77.8264,13.94284],[77.81448,13.91661],[77.83597,13.86868],[77.78421,13.8439],[77.78669,13.82092],[77.72093,13.79844],[77.71691,13.74071],[77.7036,13.76935],[77.67171,13.76013],[77.67821,13.78535],[77.65702,13.78366],[77.61834,13.76321],[77.64471,13.74308],[77.62919,13.73522],[77.60344,13.75134],[77.56386,13.72417],[77.54719,13.75138],[77.52731,13.75146],[77.52926,13.69555],[77.49495,13.71439],[77.48411,13.68521],[77.4573,13.68335],[77.45233,13.70329],[77.47011,13.75109],[77.46485,13.80449],[77.44791,13.80971],[77.436,13.79541],[77.41592,13.8066],[77.43177,13.84248],[77.37997,13.83855],[77.36653,13.85288],[77.32698,13.83292],[77.31381,13.86435],[77.25719,13.8465],[77.24047,13.90187],[77.21813,13.86836],[77.2115,13.88806],[77.20346,13.86645],[77.18532,13.86672],[77.18345,13.92423],[77.16234,13.90661],[77.16896,13.86384],[77.13028,13.85619],[77.16879,13.82763],[77.17322,13.76163],[77.10167,13.76772],[77.087,13.74422],[77.06637,13.74565],[77.03256,13.77815],[77.01762,13.73943],[76.99873,13.74922],[76.98975,13.81079],[76.97437,13.82096],[77.01201,13.85669],[77.02326,13.89994],[77.04733,13.90401],[77.04185,13.93217],[76.99482,13.96315],[77.00017,13.98794],[76.93665,14.02903],[76.9435,14.05389],[76.97715,14.05873],[76.98063,14.0716],[76.95181,14.09152],[76.93236,14.13339],[76.88894,14.13714],[76.89667,14.1651],[76.94235,14.17205],[76.947,14.19546],[77.02544,14.17899],[77.01399,14.10448],[77.02974,14.08976],[77.02949,14.05969],[77.12719,14.04878],[77.15358,13.99831],[77.17767,14.01532],[77.24906,14.01315],[77.27806,14.03498],[77.28509,14.0138],[77.32016,14.03177],[77.3371,13.99737],[77.36061,13.98938],[77.35059,13.95797],[77.36952,13.94942],[77.34952,13.91936],[77.35528,13.90368],[77.39748,13.90491],[77.40417,13.88778],[77.43277,13.90932],[77.41475,13.94331],[77.43579,13.95058],[77.4377,13.97599],[77.38259,13.97623],[77.39026,14.01445],[77.3329,14.02991],[77.34466,14.06079],[77.40223,14.11044],[77.39649,14.12555],[77.35121,14.10294],[77.35436,14.13124],[77.38337,14.13654],[77.39639,14.17219],[77.41644,14.17668],[77.50744,14.15809],[77.51734,14.17915],[77.49694,14.23466],[77.50621,14.26753],[77.48611,14.29172],[77.45028,14.28444],[77.44897,14.3166],[77.43412,14.31169],[77.43242,14.32762],[77.39211,14.33161],[77.38146,14.30194],[77.42237,14.21888],[77.39041,14.19871],[77.3619,14.23684],[77.3657,14.27609],[77.28582,14.2827],[77.2873,14.33767],[77.23801,14.31757],[77.15792,14.34408],[77.13764,14.3369],[77.11765,14.29385],[77.11089,14.21967],[77.08107,14.21569],[77.05523,14.24581],[76.94311,14.2462],[76.93004,14.27822],[76.95535,14.30009],[76.90402,14.32519],[76.88405,14.35228],[76.88804,14.39614],[76.91807,14.41942],[76.94665,14.40546],[76.94883,14.45098],[76.96943,14.45765],[76.97848,14.48418],[76.91138,14.48994],[76.87497,14.47419],[76.83215,14.52868],[76.80421,14.53331],[76.78062,14.5958],[76.76519,14.60173],[76.7755,14.67922],[76.80229,14.73995],[76.78447,14.78454],[76.83805,14.79027],[76.85305,14.80938],[76.84797,14.89168],[76.86454,14.89646],[76.86968,14.94283],[76.86863,14.96922],[76.83197,14.95617],[76.76762,14.97492],[76.76081,14.988],[76.78843,15.0217],[76.77798,15.07635],[76.80077,15.09571],[76.86462,15.06181],[76.88083,15.03383],[76.98624,15.01568],[77.00518,15.03493],[77.05151,15.0346],[77.04565,15.0109],[77.08357,15.00549],[77.08682,15.02775],[77.12088,15.04559],[77.16126,15.14528],[77.19749,15.15847],[77.29382,15.13037],[77.32082,15.1754],[77.35197,15.17579],[77.36586,15.22129],[77.42568,15.22234],[77.45287,15.20473],[77.4527,15.21995],[77.48419,15.20804],[77.5267,15.22287],[77.61249,15.18154],[77.61679,15.20385],[77.66938,15.23139],[77.69924,15.20348],[77.69617,15.18249],[77.73191,15.16895],[77.75105,15.12785],[77.78969,15.1049],[77.81873,15.14029],[77.87618,15.13396],[77.89484,15.17653],[77.92116,15.17012],[77.92634,15.1488],[77.9086,15.12323],[77.93528,15.11071],[77.96525,15.10275],[77.97677,15.13744],[77.99813,15.13538],[78.02559,15.10267],[78.01506,15.07666],[77.99477,15.07516],[77.99606,15.04648],[78.01383,15.05768],[78.03557,15.00757],[78.14451,14.94812],[78.14427,14.9453]]]}},{"type":"Feature","properties":{"DISTRICT":"Chittoor","ST_NM":"Andhra Pradesh","ST_CEN_CD":28,"DT_CEN_CD":23,"censuscode":554},"geometry":{"type":"Polygon","coordinates":[[[80.01818,13.49927],[79.9744,13.46421],[79.97582,13.4309],[79.94505,13.41731],[79.96623,13.38713],[79.9382,13.34896],[79.92333,13.35668],[79.86383,13.31634],[79.81289,13.31712],[79.79242,13.29486],[79.76661,13.31549],[79.75873,13.29272],[79.73385,13.28491],[79.79763,13.23636],[79.75711,13.20775],[79.73547,13.2346],[79.70138,13.2201],[79.70864,13.24656],[79.68591,13.24212],[79.69687,13.2693],[79.68102,13.29448],[79.63323,13.27143],[79.61357,13.28017],[79.5927,13.25778],[79.56109,13.27943],[79.54806,13.3233],[79.44099,13.33554],[79.38668,13.31492],[79.43723,13.29337],[79.42312,13.22425],[79.44839,13.24194],[79.45782,13.22894],[79.43393,13.22065],[79.43613,13.19961],[79.39065,13.19449],[79.37351,13.16809],[79.36004,13.17504],[79.36693,13.14185],[79.32904,13.13137],[79.32027,13.10893],[79.27961,13.15307],[79.25939,13.1599],[79.24889,13.13857],[79.23044,13.14732],[79.23047,13.11574],[79.2011,13.09639],[79.18163,13.06478],[79.18538,13.03109],[79.16498,13.01908],[79.11654,13.03588],[79.08118,13.02574],[79.06532,13.04953],[78.99145,13.08783],[78.92616,13.07896],[78.90525,13.04628],[78.93652,13.02992],[78.89373,13.03096],[78.88771,13.09725],[78.87004,13.08214],[78.81966,13.08888],[78.75755,13.05627],[78.71387,13.06691],[78.70525,13.01518],[78.6625,13.02861],[78.62505,12.98954],[78.65828,12.92981],[78.63722,12.92992],[78.59364,12.78159],[78.55723,12.75467],[78.55947,12.69643],[78.53613,12.69047],[78.53813,12.71199],[78.49593,12.74542],[78.5215,12.70951],[78.50505,12.71415],[78.50028,12.67406],[78.46933,12.67291],[78.46654,12.62272],[78.37991,12.62234],[78.30178,12.66321],[78.27563,12.70205],[78.24378,12.70388],[78.23924,12.68399],[78.20091,12.69136],[78.23996,12.7303],[78.23028,12.75708],[78.25197,12.85741],[78.31411,12.85733],[78.31505,12.87587],[78.33849,12.88419],[78.3219,12.88394],[78.32444,12.89873],[78.33816,12.89936],[78.35638,12.9382],[78.38942,12.90543],[78.44701,12.91102],[78.46554,12.86361],[78.46737,12.90316],[78.4281,12.9305],[78.41874,12.91838],[78.41214,12.94301],[78.43842,12.96081],[78.43368,12.97886],[78.46903,12.97357],[78.46256,13.04178],[78.51563,13.0631],[78.51292,13.09195],[78.53898,13.1077],[78.51971,13.12986],[78.54643,13.14105],[78.54973,13.16187],[78.58007,13.16683],[78.55185,13.19751],[78.57959,13.21455],[78.56974,13.23738],[78.5883,13.2723],[78.5664,13.30959],[78.56137,13.2862],[78.53947,13.28599],[78.53153,13.26573],[78.48314,13.30112],[78.48231,13.31789],[78.44648,13.30826],[78.4349,13.32897],[78.40166,13.31351],[78.37733,13.32979],[78.40773,13.34212],[78.36539,13.36474],[78.38148,13.40067],[78.37266,13.46165],[78.4007,13.58759],[78.25933,13.58351],[78.23728,13.59637],[78.19281,13.56548],[78.20341,13.62521],[78.16993,13.63241],[78.16509,13.65764],[78.08992,13.64414],[78.06743,13.6757],[78.07312,13.6969],[78.11455,13.6932],[78.11852,13.719],[78.09396,13.74219],[78.12728,13.78562],[78.22972,13.7802],[78.25738,13.79157],[78.24425,13.84676],[78.26535,13.8587],[78.27554,13.89529],[78.29723,13.89317],[78.37208,13.95453],[78.38756,13.94069],[78.46565,13.99392],[78.46984,13.95905],[78.49601,13.9387],[78.54597,13.99018],[78.58358,13.98298],[78.57212,13.96254],[78.5986,13.95806],[78.5884,13.91064],[78.65692,13.9061],[78.64504,13.868],[78.72414,13.88616],[78.77236,13.82775],[78.79964,13.87877],[78.88264,13.89701],[78.97385,13.88673],[79.00634,13.90717],[79.08722,13.87474],[79.10103,13.84818],[79.15058,13.85992],[79.21824,13.80975],[79.19196,13.79297],[79.22709,13.7566],[79.29508,13.75732],[79.31131,13.72339],[79.47236,13.79492],[79.43551,13.8688],[79.48121,13.90978],[79.58908,13.91859],[79.5963,13.88943],[79.62593,13.87591],[79.61561,13.84869],[79.67048,13.83448],[79.68188,13.92285],[79.73152,13.90133],[79.73335,13.85914],[79.77189,13.84948],[79.7903,13.91036],[79.81189,13.92415],[79.84272,13.85552],[79.86191,13.86961],[79.88312,13.85501],[79.87668,13.78363],[79.85295,13.7671],[79.87153,13.70753],[79.95867,13.70682],[79.97459,13.68795],[79.96854,13.65237],[80.00188,13.64309],[80.02428,13.57758],[80.04665,13.57543],[80.042,13.53656],[80.02016,13.54528],[80.00174,13.53189],[80.04952,13.51237],[80.0486,13.49752],[80.01841,13.50074],[80.01818,13.49927]]]}},{"type":"Feature","properties":{"DISTRICT":"East Godavari","ST_NM":"Andhra Pradesh","ST_CEN_CD":28,"DT_CEN_CD":14,"censuscode":545},"geometry":{"type":"Polygon","coordinates":[[[82.01023,17.96357],[82.03139,17.93686],[82.00329,17.8857],[82.0194,17.84195],[81.98812,17.8494],[81.86686,17.75216],[81.93665,17.73986],[81.97355,17.74604],[81.96422,17.75609],[81.98085,17.76658],[82.01748,17.75981],[82.03404,17.72223],[82.03075,17.68723],[82.00563,17.66125],[82.01551,17.61846],[82.10181,17.65393],[82.13683,17.64997],[82.17841,17.61073],[82.22877,17.63671],[82.34438,17.58452],[82.33236,17.51576],[82.35212,17.49825],[82.37003,17.5189],[82.37785,17.48501],[82.41161,17.47272],[82.45105,17.48253],[82.47066,17.53817],[82.4899,17.50662],[82.55728,17.52514],[82.60419,17.46271],[82.55853,17.40543],[82.56341,17.35339],[82.52353,17.30127],[82.54952,17.24805],[82.30586,17.0296],[82.26969,16.93342],[82.25285,16.93135],[82.25128,16.88711],[82.31851,16.83889],[82.35211,16.8493],[82.35843,16.81521],[82.36603,16.92804],[82.33459,16.98295],[82.37213,16.92262],[82.37565,16.84254],[82.35117,16.72353],[82.32022,16.7246],[82.34252,16.70981],[82.33993,16.68864],[82.36787,16.70177],[82.32377,16.65081],[82.33607,16.61667],[82.32836,16.57331],[82.31317,16.58587],[82.328,16.58392],[82.32246,16.62382],[82.30842,16.60423],[82.28978,16.62039],[82.30249,16.58062],[82.26365,16.55682],[82.31323,16.55478],[82.24884,16.54217],[82.14934,16.48717],[82.20002,16.5585],[82.18019,16.56108],[82.14323,16.51739],[82.14071,16.48439],[81.96753,16.39622],[81.96494,16.43737],[81.94514,16.39434],[81.85457,16.37051],[81.72579,16.30744],[81.73473,16.35653],[81.72023,16.32845],[81.71253,16.45897],[81.7577,16.43668],[81.85322,16.52473],[81.86761,16.61604],[81.79932,16.7059],[81.79102,16.75823],[81.7487,16.81333],[81.75398,16.86621],[81.72863,16.93732],[81.73857,17.03464],[81.67285,17.14509],[81.65204,17.21598],[81.65888,17.32167],[81.61759,17.35861],[81.61298,17.42536],[81.51509,17.48081],[81.50823,17.53993],[81.53264,17.58096],[81.51166,17.59816],[81.57984,17.69606],[81.58527,17.73421],[81.6317,17.77091],[81.69343,17.77875],[81.73204,17.82337],[81.80301,17.85235],[81.76686,17.90141],[81.80959,17.9441],[81.9816,18.01379],[82.00863,17.97248],[82.01023,17.96357]],[[82.20632,16.74747],[82.18864,16.72732],[82.26302,16.7009],[82.29474,16.70865],[82.31236,16.73403],[82.30324,16.75417],[82.29025,16.7339],[82.22997,16.72939],[82.21956,16.7423],[82.23135,16.76135],[82.21676,16.75471],[82.20632,16.74747]]]}},{"type":"Feature","properties":{"DISTRICT":"Guntur","ST_NM":"Andhra Pradesh","ST_CEN_CD":28,"DT_CEN_CD":17,"censuscode":548},"geometry":{"type":"Polygon","coordinates":[[[80.81934,15.74265],[80.80774,15.8355],[80.74396,15.88455],[80.6407,15.8784],[80.5342,15.85011],[80.55579,15.8653],[80.49823,15.85712],[80.52123,15.84594],[80.43917,15.80629],[80.43428,15.85538],[80.48156,15.89764],[80.44522,15.91268],[80.40624,15.8932],[80.39871,15.90442],[80.37867,15.98603],[80.40332,15.99833],[80.42547,15.98946],[80.42198,16.00088],[80.35533,16.02733],[80.33986,16.01514],[80.30608,16.05358],[80.24379,16.05159],[80.23341,16.03141],[80.19924,16.03724],[80.18725,16.02498],[80.14641,16.04416],[80.14222,16.01741],[80.10188,16.00898],[80.07066,16.09106],[80.04331,16.08946],[80.05055,16.12543],[80.02242,16.11263],[79.99992,16.13875],[79.8985,16.16477],[79.87531,16.16182],[79.86621,16.13969],[79.92155,16.06997],[79.89181,16.05759],[79.86983,16.01545],[79.90522,16.00659],[79.91946,15.9524],[79.8801,15.91885],[79.80242,15.93901],[79.76029,15.86269],[79.78398,15.84287],[79.78044,15.82734],[79.75009,15.8282],[79.72378,15.84139],[79.72918,15.86023],[79.70082,15.88081],[79.7046,15.89866],[79.6633,15.92027],[79.64063,15.91036],[79.61715,15.9378],[79.56929,15.94688],[79.56072,16.00607],[79.58518,16.02662],[79.5556,16.15136],[79.57508,16.19662],[79.54712,16.31261],[79.49832,16.30142],[79.46381,16.31072],[79.36845,16.24293],[79.32848,16.24213],[79.2255,16.18119],[79.22154,16.22236],[79.19996,16.22984],[79.23303,16.25721],[79.23574,16.34381],[79.21931,16.36975],[79.22685,16.44499],[79.24399,16.46536],[79.23817,16.52599],[79.27384,16.56817],[79.43452,16.58943],[79.50516,16.63746],[79.56203,16.64162],[79.60799,16.67032],[79.65618,16.66914],[79.78312,16.73674],[79.81856,16.69783],[79.87019,16.70563],[79.91053,16.64543],[79.95106,16.64029],[80.0564,16.75279],[80.07813,16.82115],[80.11088,16.83397],[80.14817,16.75557],[80.14623,16.66341],[80.22778,16.6236],[80.36461,16.62048],[80.38888,16.60261],[80.50868,16.58525],[80.64536,16.49924],[80.8096,16.28479],[80.86923,16.14245],[80.90541,16.00025],[80.9062,15.92342],[80.83864,15.76822],[80.81934,15.74265]]]}},{"type":"Feature","properties":{"DISTRICT":"Krishna","ST_NM":"Andhra Pradesh","ST_CEN_CD":28,"DT_CEN_CD":16,"censuscode":547},"geometry":{"type":"MultiPolygon","coordinates":[[[[80.60374,17.12738],[80.66537,17.09573],[80.64832,17.06312],[80.7345,17.07273],[80.84136,17.03406],[80.88061,17.06692],[80.94305,17.06444],[80.96033,17.04809],[80.93649,16.95644],[81.03898,16.7977],[81.00011,16.72186],[80.98331,16.71678],[81.01627,16.65054],[81,16.64005],[80.9704,16.66894],[80.95513,16.6643],[81.00425,16.59761],[81.01078,16.56126],[81.08693,16.58693],[81.0925,16.61191],[81.15032,16.59749],[81.1806,16.62327],[81.23651,16.57795],[81.26913,16.60988],[81.28539,16.66693],[81.31558,16.69132],[81.33387,16.678],[81.32491,16.62395],[81.35257,16.60538],[81.35493,16.56688],[81.33079,16.51952],[81.37139,16.50914],[81.37204,16.47346],[81.40805,16.43238],[81.47817,16.40651],[81.49192,16.38569],[81.52898,16.39331],[81.55441,16.37457],[81.55337,16.35875],[81.52863,16.35076],[81.40463,16.33678],[81.39074,16.35248],[81.4093,16.35604],[81.40459,16.38066],[81.36808,16.35599],[81.31276,16.36022],[81.30282,16.34348],[81.32123,16.34236],[81.25475,16.31612],[81.24563,16.30142],[81.26597,16.28589],[81.24138,16.26065],[81.26712,16.27072],[81.21155,16.20487],[81.1849,16.08437],[81.14758,16.01918],[81.15285,15.97477],[81.10882,16.00512],[81.08375,16.00189],[81.14061,15.96217],[81.0453,15.89717],[81.00998,15.8492],[80.99604,15.82433],[81.00872,15.76373],[80.93999,15.80718],[80.98941,15.76417],[80.94867,15.72976],[80.90449,15.76034],[80.86292,15.82205],[80.91676,15.73082],[80.84623,15.70608],[80.80468,15.71489],[80.80483,15.75011],[80.81846,15.74169],[80.83864,15.76822],[80.9062,15.92342],[80.90541,16.00025],[80.86923,16.14245],[80.79462,16.30582],[80.64536,16.49924],[80.50868,16.58525],[80.38888,16.60261],[80.36461,16.62048],[80.22778,16.6236],[80.14623,16.66341],[80.14817,16.75557],[80.12031,16.82865],[80.07813,16.82115],[80.05026,16.83353],[80.0415,16.85986],[80.00002,16.87058],[80.05417,16.97254],[80.09259,16.97049],[80.09601,16.9947],[80.14224,16.9927],[80.19048,17.05224],[80.20967,17.02054],[80.27065,17.01812],[80.30992,16.96352],[80.32786,16.87877],[80.36733,16.86283],[80.38167,16.81913],[80.40843,16.85775],[80.46139,16.82344],[80.46522,16.79823],[80.57172,16.77124],[80.61303,16.7962],[80.56345,16.83308],[80.57378,16.87727],[80.59559,16.88219],[80.59296,16.93467],[80.54048,16.95819],[80.52943,16.94443],[80.5,16.95615],[80.49655,16.92545],[80.36683,16.97835],[80.39647,17.015],[80.37551,17.06414],[80.39863,17.08378],[80.42911,17.03258],[80.45485,17.02479],[80.46148,17.04478],[80.49081,17.05804],[80.50469,17.11555],[80.56878,17.14576],[80.58886,17.13872],[80.60374,17.12738]]],[[[81.39375,16.3338],[81.27134,16.27925],[81.27704,16.31639],[81.33045,16.32015],[81.31175,16.30766],[81.39391,16.3354],[81.39375,16.3338]]]]}},{"type":"Feature","properties":{"DISTRICT":"Kurnool","ST_NM":"Andhra Pradesh","ST_CEN_CD":28,"DT_CEN_CD":21,"censuscode":552},"geometry":{"type":"Polygon","coordinates":[[[78.92098,16.11569],[78.93327,16.06979],[78.92113,15.99992],[78.81269,15.87479],[78.7751,15.6788],[78.7737,15.40632],[78.74353,15.30542],[78.75,15.1824],[78.76961,15.18571],[78.76949,15.0648],[78.76278,15.03826],[78.71985,15.02126],[78.71872,14.96543],[78.69169,14.96323],[78.67127,14.92862],[78.63618,14.92349],[78.60897,14.94904],[78.55574,14.92593],[78.54748,14.96028],[78.48254,14.90032],[78.52609,15.00039],[78.52603,15.05843],[78.51094,15.06801],[78.4895,15.05811],[78.49523,15.03722],[78.43018,15.03392],[78.40709,14.96138],[78.34935,15.00035],[78.39513,15.05414],[78.29636,15.07279],[78.28723,15.03268],[78.24821,15.00029],[78.23722,14.95448],[78.17897,14.95922],[78.14427,14.9453],[78.03557,15.00757],[78.01383,15.05768],[77.99606,15.04648],[77.99477,15.07516],[78.01506,15.07666],[78.02559,15.10267],[77.99813,15.13538],[77.97677,15.13744],[77.96525,15.10275],[77.93528,15.11071],[77.9086,15.12323],[77.92634,15.1488],[77.92116,15.17012],[77.89484,15.17653],[77.87618,15.13396],[77.81873,15.14029],[77.78969,15.1049],[77.75105,15.12785],[77.73191,15.16895],[77.69617,15.18249],[77.69924,15.20348],[77.66938,15.23139],[77.61679,15.20385],[77.61249,15.18154],[77.5267,15.22287],[77.48419,15.20804],[77.4527,15.21995],[77.45287,15.20473],[77.42568,15.22234],[77.36586,15.22129],[77.35197,15.17579],[77.32082,15.1754],[77.29382,15.13037],[77.19749,15.15847],[77.18208,15.14232],[77.14012,15.14141],[77.16929,15.17388],[77.12808,15.23859],[77.16888,15.26438],[77.14981,15.27132],[77.15256,15.29092],[77.11996,15.29504],[77.11417,15.33242],[77.06594,15.32694],[77.04229,15.36378],[77.03154,15.44008],[76.97432,15.49567],[76.97581,15.51105],[77.03069,15.50481],[77.03324,15.6385],[77.08553,15.65755],[77.12041,15.6299],[77.12515,15.64198],[77.12918,15.66381],[77.07996,15.69554],[77.08029,15.72603],[77.04713,15.73904],[77.06778,15.82764],[77.02604,15.83619],[77.08063,15.91413],[77.14743,15.94505],[77.25317,15.9623],[77.38083,15.93801],[77.43115,15.94711],[77.6116,15.91685],[77.6643,15.88177],[77.72161,15.89189],[77.80489,15.87079],[77.89355,15.90148],[78.00804,15.86501],[78.02313,15.90091],[78.04248,15.90786],[78.06998,15.85047],[78.11601,15.83318],[78.13227,15.85493],[78.17119,15.85504],[78.18652,15.90645],[78.24455,15.93511],[78.2632,16.03723],[78.32287,16.03518],[78.42776,16.08896],[78.56621,16.06274],[78.62416,16.1053],[78.6939,16.04698],[78.7614,16.02774],[78.8291,16.06898],[78.84691,16.101],[78.84532,16.1634],[78.87046,16.1598],[78.88025,16.11696],[78.91811,16.11208],[78.92098,16.11569]]]}},{"type":"Feature","properties":{"DISTRICT":"Prakasam","ST_NM":"Andhra Pradesh","ST_CEN_CD":28,"DT_CEN_CD":18,"censuscode":549},"geometry":{"type":"Polygon","coordinates":[[[80.43917,15.80629],[80.35971,15.76377],[80.27745,15.68207],[80.22232,15.54501],[80.17549,15.57326],[80.13467,15.5571],[80.18555,15.5597],[80.21349,15.53121],[80.18396,15.49069],[80.21015,15.49509],[80.10271,15.33415],[80.08052,15.26703],[80.08376,15.1953],[80.03021,15.21078],[80.07366,15.18186],[80.05104,15.11268],[80.04883,15.01838],[80.02823,14.99382],[80.00017,14.98706],[79.98045,15.01591],[79.94719,15.01981],[79.90339,15.00015],[79.85805,14.95387],[79.78204,14.97572],[79.80069,15.01473],[79.78763,15.0255],[79.79896,15.05865],[79.75774,15.05147],[79.7439,15.03177],[79.72687,15.04888],[79.69264,15.03378],[79.56322,15.04305],[79.55228,15.02312],[79.46728,15.06367],[79.42132,15.05638],[79.41097,15.07727],[79.36046,15.08634],[79.3529,15.11102],[79.33232,15.08915],[79.3245,15.11698],[79.29904,15.09072],[79.25566,15.10835],[79.19889,15.08762],[79.12358,15.10312],[79.08937,15.08533],[79.07637,15.05472],[79.05775,15.14192],[79.06808,15.1763],[78.97061,15.17231],[78.94955,15.23713],[78.92322,15.19642],[78.823,15.20814],[78.75,15.1824],[78.74458,15.32088],[78.7737,15.40632],[78.77333,15.66335],[78.81269,15.87479],[78.92113,15.99992],[78.93327,16.06979],[78.91563,16.19776],[79.01784,16.24726],[79.21436,16.22881],[79.2255,16.18119],[79.32848,16.24213],[79.36845,16.24293],[79.46381,16.31072],[79.49832,16.30142],[79.5327,16.3181],[79.55579,16.30483],[79.57508,16.19662],[79.5556,16.15136],[79.58518,16.02662],[79.56072,16.00607],[79.56929,15.94688],[79.61715,15.9378],[79.64063,15.91036],[79.6633,15.92027],[79.7046,15.89866],[79.70082,15.88081],[79.72918,15.86023],[79.72378,15.84139],[79.78044,15.82734],[79.78398,15.84287],[79.76029,15.86269],[79.80242,15.93901],[79.8801,15.91885],[79.91946,15.9524],[79.90522,16.00659],[79.86983,16.01545],[79.89181,16.05759],[79.92155,16.06997],[79.87065,16.12363],[79.86784,16.15277],[79.88602,16.16569],[79.99992,16.13875],[80.02242,16.11263],[80.05055,16.12543],[80.04331,16.08946],[80.07066,16.09106],[80.10188,16.00898],[80.14222,16.01741],[80.14641,16.04416],[80.18725,16.02498],[80.19924,16.03724],[80.23341,16.03141],[80.24379,16.05159],[80.30608,16.05358],[80.33986,16.01514],[80.35533,16.02733],[80.42198,16.00088],[80.42547,15.98946],[80.40332,15.99833],[80.37867,15.98603],[80.39871,15.90442],[80.40624,15.8932],[80.44522,15.91268],[80.48156,15.89764],[80.43255,15.84863],[80.43917,15.80629]]]}},{"type":"Feature","properties":{"DISTRICT":"Sri Potti Sriramulu Nellore","ST_NM":"Andhra Pradesh","ST_CEN_CD":28,"DT_CEN_CD":19,"censuscode":550},"geometry":{"type":"Polygon","coordinates":[[[80.04883,15.01838],[80.09316,14.83322],[80.07455,14.81372],[80.13227,14.70918],[80.12137,14.6832],[80.14537,14.69123],[80.18388,14.58983],[80.09346,14.53439],[80.11557,14.52986],[80.14321,14.55554],[80.19465,14.56392],[80.17299,14.34655],[80.14588,14.25425],[80.12369,14.24245],[80.13749,14.2373],[80.12887,14.14905],[80.15369,14.02428],[80.14407,14.0175],[80.1694,13.99237],[80.24947,13.78839],[80.23676,13.65579],[80.26969,13.56315],[80.24181,13.46797],[80.21562,13.48748],[80.12625,13.50726],[80.08047,13.49111],[80.08527,13.54696],[80.042,13.53656],[80.04665,13.57543],[80.02428,13.57758],[80.00188,13.64309],[79.96854,13.65237],[79.97459,13.68795],[79.95867,13.70682],[79.87153,13.70753],[79.85295,13.7671],[79.87668,13.78363],[79.88312,13.85501],[79.86191,13.86961],[79.84272,13.85552],[79.81189,13.92415],[79.7903,13.91036],[79.77189,13.84948],[79.73335,13.85914],[79.73152,13.90133],[79.68188,13.92285],[79.67048,13.83448],[79.61561,13.84869],[79.62593,13.87591],[79.5963,13.88943],[79.58908,13.91859],[79.48121,13.90978],[79.44446,13.88893],[79.45929,13.94491],[79.43392,14.0185],[79.45279,14.10327],[79.41797,14.28628],[79.38777,14.34203],[79.36471,14.35514],[79.31745,14.46926],[79.29048,14.4849],[79.23624,14.58792],[79.18287,14.61436],[79.16882,14.6772],[79.17691,14.71385],[79.07166,14.97065],[79.08937,15.08533],[79.12358,15.10312],[79.19889,15.08762],[79.24419,15.1082],[79.29904,15.09072],[79.3245,15.11698],[79.33232,15.08915],[79.3529,15.11102],[79.36046,15.08634],[79.41097,15.07727],[79.42132,15.05638],[79.46728,15.06367],[79.55228,15.02312],[79.56322,15.04305],[79.69264,15.03378],[79.72687,15.04888],[79.7439,15.03177],[79.75774,15.05147],[79.79896,15.05865],[79.78763,15.0255],[79.80069,15.01473],[79.78204,14.97572],[79.85805,14.95387],[79.90339,15.00015],[79.94719,15.01981],[79.98045,15.01591],[80.00017,14.98706],[80.03309,14.99629],[80.04022,15.01566],[80.04883,15.01838]]]}},{"type":"Feature","properties":{"DISTRICT":"Srikakulam","ST_NM":"Andhra Pradesh","ST_CEN_CD":28,"DT_CEN_CD":11,"censuscode":542},"geometry":{"type":"Polygon","coordinates":[[[84.76858,19.08002],[84.75545,19.05477],[84.72797,19.05134],[84.72502,19.03002],[84.7427,19.04986],[84.7434,19.035],[84.59783,18.87469],[84.55749,18.87406],[84.58305,18.85711],[84.55359,18.78331],[84.44554,18.67358],[84.41114,18.66615],[84.44136,18.6549],[84.35724,18.56386],[84.34814,18.58308],[84.27291,18.51457],[84.34776,18.5552],[84.34241,18.54196],[84.13659,18.35065],[84.06108,18.33589],[83.99267,18.35827],[84.0586,18.32519],[84.11183,18.34061],[84.12726,18.33181],[84.11836,18.301],[84.05786,18.26342],[83.95427,18.21362],[83.92703,18.22496],[83.93269,18.20815],[83.86944,18.1709],[83.67464,18.08266],[83.61919,18.12689],[83.60463,18.15668],[83.61149,18.18976],[83.57967,18.19706],[83.57393,18.23076],[83.55009,18.23345],[83.55527,18.26135],[83.54379,18.2403],[83.52265,18.23957],[83.52135,18.26647],[83.53898,18.27397],[83.52547,18.28767],[83.49994,18.29823],[83.48687,18.28839],[83.43204,18.32373],[83.42641,18.37306],[83.44525,18.38538],[83.41419,18.41543],[83.4348,18.44256],[83.57293,18.43139],[83.56833,18.44984],[83.59246,18.46726],[83.55944,18.49772],[83.60949,18.51981],[83.60627,18.56206],[83.56129,18.56738],[83.5347,18.54692],[83.51959,18.55925],[83.52107,18.59329],[83.54147,18.62006],[83.54527,18.67061],[83.52587,18.69964],[83.53539,18.71815],[83.67221,18.80457],[83.74821,18.77483],[83.7704,18.8244],[83.82377,18.83287],[83.82188,18.85852],[83.7836,18.89897],[83.78484,18.9275],[83.74941,18.97535],[83.74876,18.99213],[83.7833,19.0172],[83.81831,18.9732],[83.82461,18.91789],[83.84795,18.91258],[83.85136,18.86003],[83.89458,18.81418],[83.90967,18.82569],[83.94746,18.80544],[84.03469,18.81112],[84.07341,18.76076],[84.13054,18.75739],[84.15894,18.78485],[84.18738,18.7781],[84.23451,18.79631],[84.25971,18.78167],[84.28605,18.79885],[84.31633,18.78766],[84.33968,18.80124],[84.35261,18.83593],[84.34344,18.87578],[84.36983,18.86019],[84.37898,18.87632],[84.35885,18.89225],[84.39502,18.88676],[84.37271,18.90529],[84.4052,18.8952],[84.43673,18.92273],[84.42294,18.94703],[84.44796,18.97588],[84.42244,19.02269],[84.47894,18.99017],[84.49666,19.02983],[84.57332,19.07389],[84.59488,19.02196],[84.61988,19.06374],[84.66165,19.06126],[84.67171,19.07522],[84.66129,19.0899],[84.62697,19.08538],[84.599,19.13259],[84.66828,19.13066],[84.68042,19.16563],[84.71229,19.15779],[84.7009,19.12836],[84.71892,19.10892],[84.76858,19.08002]]]}},{"type":"Feature","properties":{"DISTRICT":"Visakhapatnam","ST_NM":"Andhra Pradesh","ST_CEN_CD":28,"DT_CEN_CD":13,"censuscode":544},"geometry":{"type":"Polygon","coordinates":[[[83.07406,18.40189],[83.10147,18.41495],[83.07243,18.37403],[83.0793,18.31796],[83.10219,18.35896],[83.15502,18.34133],[83.17289,18.30945],[83.22709,18.33422],[83.21962,18.30376],[83.26846,18.27503],[83.27357,18.22106],[83.25389,18.22693],[83.24671,18.20147],[83.22243,18.21067],[83.20763,18.19141],[83.13785,18.26048],[83.16336,18.18385],[83.13138,18.17854],[83.12604,18.21414],[83.10403,18.22126],[83.10741,18.15626],[83.14137,18.167],[83.15245,18.15426],[83.10145,18.13312],[83.101,18.1017],[83.04257,18.06922],[83.00001,18.00008],[83.00928,17.96847],[83.1051,17.93163],[83.12415,17.87002],[83.13875,17.86966],[83.15595,17.83006],[83.20021,17.84466],[83.20766,17.87071],[83.23087,17.86892],[83.25528,17.91174],[83.23342,17.94541],[83.31047,17.98331],[83.32275,18.00114],[83.31452,18.02168],[83.36507,18.05623],[83.40525,18.04786],[83.41767,18.00634],[83.38421,17.91296],[83.40507,17.90408],[83.40595,17.92217],[83.43349,17.94157],[83.4906,17.91945],[83.446,17.92041],[83.45342,17.88015],[83.40367,17.8436],[83.41626,17.80735],[83.35579,17.75298],[83.34028,17.71417],[83.30079,17.69195],[83.28352,17.65626],[83.24135,17.62532],[83.21553,17.6466],[83.19985,17.63992],[83.1972,17.6267],[83.23106,17.61578],[83.23043,17.60354],[83.15553,17.55274],[83.10592,17.53889],[83.10311,17.54905],[83.01406,17.50052],[82.99287,17.47075],[82.73441,17.35706],[82.54952,17.24805],[82.52353,17.30127],[82.56341,17.35339],[82.55853,17.40543],[82.60419,17.46271],[82.55728,17.52514],[82.4899,17.50662],[82.47066,17.53817],[82.45637,17.48741],[82.41161,17.47272],[82.37214,17.48895],[82.37003,17.5189],[82.35212,17.49825],[82.33236,17.51576],[82.34438,17.58452],[82.26816,17.62273],[82.21729,17.63804],[82.17841,17.61073],[82.13683,17.64997],[82.10181,17.65393],[82.01551,17.61846],[82.00563,17.66125],[82.03075,17.68723],[82.03404,17.72223],[82.01748,17.75981],[81.98085,17.76658],[81.96422,17.75609],[81.97355,17.74604],[81.93665,17.73986],[81.86774,17.74973],[81.98812,17.8494],[82.0194,17.84195],[82.00329,17.8857],[82.03139,17.93686],[81.9816,18.01379],[82.01019,18.03179],[82.01515,18.05728],[82.03316,18.06597],[82.06824,18.05328],[82.08072,18.07378],[82.12178,18.06604],[82.14091,18.0439],[82.17228,18.04993],[82.18597,18.01896],[82.25028,17.9883],[82.27583,17.995],[82.27547,18.05671],[82.30642,18.0704],[82.32175,18.04329],[82.32583,18.05703],[82.34487,18.05579],[82.34185,18.15072],[82.36605,18.13351],[82.37363,18.14805],[82.31874,18.18284],[82.31453,18.20385],[82.34125,18.22397],[82.32973,18.23061],[82.34528,18.27432],[82.38028,18.28222],[82.40138,18.31451],[82.39273,18.32674],[82.35713,18.31418],[82.3428,18.32511],[82.39276,18.37706],[82.3696,18.41774],[82.48224,18.54455],[82.5074,18.50958],[82.53138,18.51178],[82.5244,18.46382],[82.53844,18.4423],[82.56205,18.44567],[82.54347,18.39765],[82.60882,18.37693],[82.61961,18.35473],[82.60484,18.34914],[82.61049,18.32558],[82.58479,18.31512],[82.5993,18.30031],[82.58912,18.2785],[82.63528,18.23728],[82.65369,18.24898],[82.66719,18.29506],[82.77538,18.33958],[82.80157,18.40338],[82.78448,18.42802],[82.80742,18.44772],[82.85317,18.4182],[82.89287,18.42123],[82.89318,18.38717],[82.91104,18.36452],[82.98471,18.36362],[83.0002,18.38368],[83.02542,18.3932],[83.04775,18.37883],[83.07472,18.401],[83.07406,18.40189]]]}},{"type":"Feature","properties":{"DISTRICT":"Vizianagaram","ST_NM":"Andhra Pradesh","ST_CEN_CD":28,"DT_CEN_CD":12,"censuscode":543},"geometry":{"type":"Polygon","coordinates":[[[83.6361,19.13934],[83.6571,19.12976],[83.66453,19.08293],[83.70472,19.02462],[83.73091,19.02008],[83.71342,18.99346],[83.73398,18.98382],[83.75353,18.92657],[83.81963,18.86195],[83.82377,18.83287],[83.7704,18.8244],[83.74821,18.77483],[83.67221,18.80457],[83.53539,18.71815],[83.52587,18.69964],[83.54527,18.67061],[83.54147,18.62006],[83.52107,18.59329],[83.51959,18.55925],[83.5347,18.54692],[83.56129,18.56738],[83.60951,18.56055],[83.60949,18.51981],[83.55944,18.49772],[83.59343,18.46202],[83.56833,18.44984],[83.57293,18.43139],[83.44941,18.44803],[83.41419,18.41543],[83.44525,18.38538],[83.42641,18.37306],[83.43204,18.32373],[83.48687,18.28839],[83.49994,18.29823],[83.52547,18.28767],[83.53898,18.27397],[83.52135,18.26647],[83.52265,18.23957],[83.54379,18.2403],[83.55527,18.26135],[83.5492,18.23459],[83.57393,18.23076],[83.57967,18.19706],[83.61149,18.18976],[83.60463,18.15668],[83.61919,18.12689],[83.66907,18.07367],[83.58269,18.01197],[83.55604,18.01939],[83.56098,17.97298],[83.51633,17.93481],[83.4906,17.91945],[83.47458,17.93604],[83.42869,17.94116],[83.40507,17.90408],[83.37883,17.92186],[83.41673,17.98704],[83.4083,18.04443],[83.35913,18.05628],[83.31452,18.02168],[83.32275,18.00114],[83.31047,17.98331],[83.23342,17.94541],[83.25528,17.91174],[83.23087,17.86892],[83.20766,17.87071],[83.20021,17.84466],[83.15595,17.83006],[83.13875,17.86966],[83.12415,17.87002],[83.1051,17.93163],[83.00928,17.96847],[83.00001,18.00008],[83.05784,18.0869],[83.101,18.1017],[83.10145,18.13312],[83.15245,18.15426],[83.14137,18.167],[83.10741,18.15626],[83.10403,18.22126],[83.12604,18.21414],[83.13138,18.17854],[83.16336,18.18385],[83.13785,18.26048],[83.21844,18.19034],[83.22243,18.21067],[83.24671,18.20147],[83.24941,18.2248],[83.27172,18.2167],[83.27108,18.2662],[83.22324,18.29788],[83.22163,18.3362],[83.17289,18.30945],[83.15502,18.34133],[83.10219,18.35896],[83.0793,18.31796],[83.07243,18.37403],[83.10147,18.41495],[83.07406,18.40189],[83.06803,18.43728],[83.04566,18.42759],[83.04551,18.44345],[83.02362,18.45299],[83.09746,18.54638],[83.05932,18.54334],[83.03359,18.57264],[83.06207,18.59479],[83.04921,18.60502],[83.05776,18.62215],[83.08767,18.61613],[83.09214,18.664],[83.14704,18.66905],[83.15494,18.70089],[83.17319,18.70092],[83.17185,18.72185],[83.21479,18.72572],[83.22738,18.77396],[83.27407,18.76522],[83.28745,18.79777],[83.33096,18.80647],[83.36679,18.84017],[83.38073,18.82941],[83.40661,18.84174],[83.4192,18.86751],[83.35446,18.93482],[83.38809,18.93129],[83.35361,18.96499],[83.34922,18.92637],[83.33688,18.92487],[83.32637,18.94153],[83.34031,18.95127],[83.31313,18.99746],[83.33702,18.99599],[83.35417,19.01768],[83.37015,19.00257],[83.41665,19.00407],[83.41659,18.98781],[83.46329,18.95363],[83.4563,19.00755],[83.48237,19.00826],[83.48574,19.02909],[83.46716,19.07746],[83.481,19.08555],[83.50139,19.06095],[83.51314,19.07262],[83.52143,19.03271],[83.50132,19.03472],[83.50317,19.01904],[83.53915,19.01342],[83.56003,19.05513],[83.55416,19.08171],[83.56538,19.05931],[83.5865,19.05775],[83.59214,19.08763],[83.61212,19.09609],[83.60199,19.12816],[83.63093,19.16142],[83.63785,19.1526],[83.6361,19.13934]]]}},{"type":"Feature","properties":{"DISTRICT":"West Godavari","ST_NM":"Andhra Pradesh","ST_CEN_CD":28,"DT_CEN_CD":15,"censuscode":546},"geometry":{"type":"Polygon","coordinates":[[[81.72023,16.32845],[81.70639,16.30288],[81.66078,16.33601],[81.57282,16.34803],[81.56509,16.35597],[81.58048,16.36018],[81.54953,16.39029],[81.49192,16.38569],[81.47817,16.40651],[81.40805,16.43238],[81.37204,16.47346],[81.37139,16.50914],[81.33079,16.51952],[81.35493,16.56688],[81.35257,16.60538],[81.32491,16.62395],[81.33387,16.678],[81.31558,16.69132],[81.28539,16.66693],[81.26913,16.60988],[81.23651,16.57795],[81.1806,16.62327],[81.15032,16.59749],[81.0925,16.61191],[81.08693,16.58693],[81.01078,16.56126],[81.00425,16.59761],[80.95513,16.6643],[80.9704,16.66894],[81,16.64005],[81.01627,16.65054],[80.98331,16.71678],[81.01261,16.74284],[81.03623,16.81616],[80.93649,16.95644],[80.96033,17.04809],[80.93784,17.06514],[80.86772,17.0592],[80.86386,17.11964],[80.8791,17.1545],[80.92213,17.1542],[80.91412,17.20942],[81.0001,17.18801],[81.03501,17.19502],[81.05538,17.22215],[81.07105,17.21247],[81.17166,17.24105],[81.18944,17.26306],[81.17944,17.30482],[81.19035,17.33055],[81.27602,17.32846],[81.33916,17.40051],[81.38066,17.36572],[81.42452,17.37023],[81.50225,17.45737],[81.50697,17.49847],[81.5253,17.46702],[81.61105,17.42739],[81.61759,17.35861],[81.65888,17.32167],[81.64908,17.22698],[81.67285,17.14509],[81.73633,17.04507],[81.72863,16.93732],[81.75398,16.86621],[81.7487,16.81333],[81.79102,16.75823],[81.79932,16.7059],[81.86761,16.61604],[81.85322,16.52473],[81.7577,16.43668],[81.71253,16.45897],[81.72329,16.36741],[81.72023,16.32845]]]}},{"type":"Feature","properties":{"DISTRICT":"Y.s.r.","ST_NM":"Andhra Pradesh","ST_CEN_CD":28,"DT_CEN_CD":20,"censuscode":551},"geometry":{"type":"Polygon","coordinates":[[[79.07637,15.05472],[79.07301,14.96175],[79.09352,14.89205],[79.13316,14.84604],[79.17691,14.71385],[79.17939,14.62178],[79.21457,14.58774],[79.23036,14.59476],[79.29048,14.4849],[79.31745,14.46926],[79.42908,14.24875],[79.45279,14.10327],[79.43392,14.0185],[79.45929,13.94491],[79.43551,13.8688],[79.47236,13.79492],[79.31131,13.72339],[79.29508,13.75732],[79.22709,13.7566],[79.19196,13.79297],[79.21824,13.80975],[79.15058,13.85992],[79.10103,13.84818],[79.08722,13.87474],[79.00634,13.90717],[78.97385,13.88673],[78.88264,13.89701],[78.79964,13.87877],[78.77236,13.82775],[78.72414,13.88616],[78.64504,13.868],[78.65692,13.9061],[78.5884,13.91064],[78.5986,13.95806],[78.57212,13.96254],[78.58358,13.98298],[78.54597,13.99018],[78.49167,13.93931],[78.46984,13.95905],[78.47106,14.01082],[78.44312,14.02285],[78.44791,14.08962],[78.46512,14.11299],[78.42835,14.15502],[78.43383,14.1984],[78.41005,14.2077],[78.42575,14.27934],[78.24599,14.31526],[78.03761,14.46392],[77.94729,14.56673],[77.96672,14.58352],[77.98749,14.54054],[78.04715,14.5386],[78.09755,14.62539],[78.13401,14.6284],[78.14028,14.69405],[78.07428,14.72087],[78.08545,14.75551],[78.05627,14.7768],[78.08678,14.82643],[78.11137,14.82594],[78.11689,14.85593],[78.09971,14.87281],[78.11887,14.92724],[78.16567,14.95713],[78.23722,14.95448],[78.24821,15.00029],[78.28723,15.03268],[78.29636,15.07279],[78.39513,15.05414],[78.34935,15.00035],[78.40709,14.96138],[78.43018,15.03392],[78.49523,15.03722],[78.4895,15.05811],[78.52226,15.06584],[78.52609,15.00039],[78.48254,14.90032],[78.54748,14.96028],[78.55574,14.92593],[78.60897,14.94904],[78.63618,14.92349],[78.67127,14.92862],[78.69169,14.96323],[78.71872,14.96543],[78.71985,15.02126],[78.76278,15.03826],[78.76949,15.0648],[78.76961,15.18571],[78.79682,15.20489],[78.92322,15.19642],[78.94955,15.23713],[78.97061,15.17231],[79.06808,15.1763],[79.05775,15.14192],[79.06882,15.08732],[79.07637,15.05472]]]}}]}
