{"type":"FeatureCollection","properties":{"source":"DataMeet Community Maps Project - Districts/Census_2011","state":"Arunachal Pradesh","stateSlug":"arunachal-pradesh"},"features":[{"type":"Feature","properties":{"DISTRICT":"Anjaw","ST_NM":"Arunachal Pradesh","ST_CEN_CD":12,"DT_CEN_CD":16,"censuscode":260},"geometry":{"type":"Polygon","coordinates":[[[96.90034,27.61545],[96.78631,27.64206],[96.77199,27.61573],[96.69608,27.66512],[96.63292,27.68423],[96.61992,27.70889],[96.64351,27.73746],[96.6163,27.77346],[96.63809,27.81463],[96.61757,27.85717],[96.58962,27.85286],[96.53244,27.90026],[96.4201,27.92285],[96.39545,27.97456],[96.27694,28.07991],[96.33085,28.13073],[96.33916,28.17177],[96.29908,28.24882],[96.34075,28.33915],[96.30765,28.37359],[96.31738,28.38304],[96.37296,28.38883],[96.38196,28.35851],[96.41458,28.34103],[96.46026,28.41361],[96.51221,28.41258],[96.58158,28.45733],[96.66649,28.45983],[96.75276,28.41545],[96.77596,28.36762],[96.85371,28.36171],[96.90015,28.37919],[96.92725,28.33813],[96.99772,28.30907],[97.09383,28.36245],[97.1531,28.32653],[97.17491,28.2914],[97.22522,28.29211],[97.24213,28.26722],[97.28293,28.26825],[97.40113,28.19193],[97.36415,28.18798],[97.33133,28.15447],[97.33945,28.11088],[97.30811,28.06841],[97.3738,28.06134],[97.37728,28.03009],[97.41529,28.01492],[97.37814,27.97698],[97.38888,27.88691],[97.32108,27.88022],[97.30873,27.92082],[97.25648,27.90049],[97.16028,27.81358],[97.10238,27.78448],[97.09626,27.74089],[97.06742,27.75078],[97.01564,27.73179],[96.99065,27.66209],[96.94859,27.66259],[96.91285,27.61861],[96.90034,27.61545]]]}},{"type":"Feature","properties":{"DISTRICT":"Changlang","ST_NM":"Arunachal Pradesh","ST_CEN_CD":12,"DT_CEN_CD":9,"censuscode":253},"geometry":{"type":"Polygon","coordinates":[[[96.90034,27.61545],[96.89891,27.58472],[96.9372,27.52089],[96.91126,27.45342],[96.96477,27.40579],[97.0024,27.32005],[97.0393,27.2978],[97.09286,27.2375],[97.09922,27.2045],[97.16574,27.14462],[97.17023,27.12589],[97.14488,27.09192],[97.10709,27.11051],[97.06121,27.10053],[96.98339,27.15646],[96.86515,27.18987],[96.86234,27.20948],[96.88899,27.22709],[96.8878,27.25388],[96.86079,27.26289],[96.8489,27.29678],[96.80167,27.34519],[96.712,27.37181],[96.69853,27.35664],[96.61998,27.36414],[96.52178,27.28538],[96.47029,27.30405],[96.34734,27.28026],[96.31052,27.29405],[96.27834,27.27141],[96.23406,27.27704],[96.09879,27.2238],[96.03618,27.18853],[95.94557,27.05216],[95.87673,27.01305],[95.80759,27.01317],[95.76048,26.95672],[95.75766,26.90755],[95.73031,26.88017],[95.68089,26.89781],[95.69761,26.91718],[95.68453,26.98449],[95.64636,26.99014],[95.63244,27.02636],[95.65335,27.06276],[95.64258,27.09958],[95.66721,27.12462],[95.67567,27.16776],[95.64414,27.1926],[95.63726,27.23046],[95.80647,27.28499],[95.81036,27.27414],[95.86061,27.28733],[95.87245,27.25996],[95.89814,27.25728],[95.90652,27.28489],[95.96329,27.30999],[95.99709,27.35641],[96.02104,27.36415],[95.97808,27.42864],[95.96829,27.41725],[95.95024,27.43824],[95.91721,27.43645],[95.89338,27.39932],[95.88907,27.43744],[95.8677,27.4105],[95.84977,27.42374],[95.89017,27.49966],[95.88199,27.54684],[96.00543,27.55627],[96.06506,27.60595],[96.12933,27.61918],[96.22837,27.56777],[96.29253,27.55504],[96.33128,27.57883],[96.37198,27.64201],[96.41652,27.65085],[96.52274,27.63622],[96.58568,27.65566],[96.64444,27.62748],[96.70361,27.66006],[96.77199,27.61573],[96.78631,27.64206],[96.88941,27.62116],[96.90034,27.61545]]]}},{"type":"Feature","properties":{"DISTRICT":"Dibang Valley","ST_NM":"Arunachal Pradesh","ST_CEN_CD":12,"DT_CEN_CD":13,"censuscode":257},"geometry":{"type":"Polygon","coordinates":[[[96.43499,28.5884],[96.30359,28.66189],[96.32598,28.78477],[96.25447,28.7812],[96.18614,28.80176],[96.11557,28.78172],[96.00856,28.69457],[95.85457,28.72087],[95.87332,28.62651],[95.77715,28.5735],[95.88119,28.5196],[95.82814,28.47435],[95.7323,28.53431],[95.66968,28.5335],[95.52008,28.5964],[95.47759,28.59844],[95.43486,28.64312],[95.39374,28.59261],[95.36875,28.62572],[95.3543,28.70408],[95.39274,28.74103],[95.35882,28.82289],[95.32759,28.84305],[95.33025,28.92339],[95.30318,28.95639],[95.25942,28.95087],[95.24707,29.00046],[95.29095,29.06034],[95.45886,29.03481],[95.49049,29.07413],[95.50109,29.13833],[95.55149,29.12656],[95.54263,29.21214],[95.59068,29.21607],[95.60372,29.26005],[95.64295,29.24794],[95.70691,29.29856],[95.73204,29.30058],[95.78273,29.35458],[95.8015,29.33444],[95.88595,29.38962],[95.9621,29.38067],[96.06071,29.45647],[96.0923,29.45962],[96.18,29.36213],[96.18767,29.30667],[96.24789,29.23222],[96.29728,29.23282],[96.36751,29.28268],[96.39706,29.25341],[96.35041,29.16777],[96.26431,29.15701],[96.22159,29.13497],[96.18962,29.09142],[96.11853,29.07447],[96.15431,29.04988],[96.18856,28.98462],[96.14887,28.93392],[96.17005,28.90225],[96.25183,28.9391],[96.29734,28.99506],[96.35039,29.0286],[96.43938,29.03378],[96.52883,29.07542],[96.48084,28.99002],[96.49089,28.96122],[96.52217,28.96682],[96.54055,28.87965],[96.61118,28.79322],[96.61824,28.75986],[96.58858,28.71656],[96.47539,28.68332],[96.49657,28.63311],[96.43748,28.59191],[96.43499,28.5884]]]}},{"type":"Feature","properties":{"DISTRICT":"East Kameng","ST_NM":"Arunachal Pradesh","ST_CEN_CD":12,"DT_CEN_CD":3,"censuscode":247},"geometry":{"type":"MultiPolygon","coordinates":[[[[92.78276,27.953],[92.8629,27.95596],[92.93388,27.91929],[92.93475,27.87465],[92.97506,27.82389],[93.07258,27.8285],[93.10313,27.81197],[93.17773,27.82087],[93.20006,27.84576],[93.23697,27.80785],[93.2063,27.72947],[93.22654,27.71575],[93.20431,27.6711],[93.23147,27.64776],[93.23764,27.60883],[93.33333,27.55415],[93.29782,27.52267],[93.32314,27.48897],[93.32368,27.44308],[93.37125,27.41608],[93.37596,27.3865],[93.37514,27.37094],[93.29271,27.32894],[93.29761,27.29012],[93.22961,27.2506],[93.2293,27.19918],[93.27614,27.21076],[93.3084,27.17397],[93.21924,27.1384],[93.21611,27.11622],[93.31572,27.07889],[93.34565,27.03618],[93.34293,27.00068],[93.3822,26.98215],[93.39287,26.95737],[93.26912,26.95351],[93.09426,26.91324],[93.02183,26.91463],[92.92042,26.96219],[92.91936,26.98263],[92.87521,27.00575],[92.77201,27.03122],[92.66197,27.03683],[92.64213,27.01686],[92.60089,27.05257],[92.59737,27.10422],[92.62035,27.14575],[92.7531,27.19491],[92.81931,27.17746],[92.90605,27.21337],[92.8933,27.28065],[92.8507,27.28904],[92.80325,27.34989],[92.8191,27.35807],[92.82563,27.4019],[92.80824,27.41866],[92.81829,27.51763],[92.79369,27.5536],[92.71988,27.55478],[92.66102,27.52494],[92.64682,27.55169],[92.61282,27.55484],[92.62328,27.58682],[92.61342,27.61866],[92.59781,27.63001],[92.54232,27.61906],[92.5192,27.73413],[92.46412,27.78169],[92.47167,27.81433],[92.49716,27.83593],[92.56526,27.82009],[92.60969,27.87659],[92.67382,27.89917],[92.73784,27.977],[92.76114,27.95666],[92.78276,27.953]]]]}},{"type":"Feature","properties":{"DISTRICT":"East Siang","ST_NM":"Arunachal Pradesh","ST_CEN_CD":12,"DT_CEN_CD":7,"censuscode":251},"geometry":{"type":"Polygon","coordinates":[[[95.38511,28.31044],[95.4385,28.31421],[95.46902,28.25888],[95.5389,28.28585],[95.56714,28.25455],[95.57096,28.07814],[95.56171,28.035],[95.50347,27.95146],[95.51766,27.87688],[95.3861,27.83729],[95.31844,27.86658],[95.03319,27.77058],[94.86797,27.74164],[94.86252,27.75706],[94.89908,27.80084],[94.9086,27.842],[94.93238,27.85662],[94.91253,27.85946],[94.90899,27.88],[94.92771,27.88904],[94.95884,27.96512],[94.95034,27.98661],[94.88378,27.99993],[94.93386,28.0475],[94.90343,28.07637],[94.95243,28.12856],[94.9116,28.1585],[94.91593,28.20069],[94.88453,28.23223],[94.93924,28.25087],[94.87948,28.40923],[94.76688,28.4233],[94.74523,28.49794],[94.76223,28.53362],[94.82311,28.56771],[94.90507,28.54845],[94.96133,28.57252],[94.99225,28.52876],[95.04174,28.51509],[95.08757,28.52626],[95.11401,28.50036],[95.10805,28.44394],[95.08518,28.4147],[95.08585,28.39484],[95.12095,28.37612],[95.10999,28.26298],[95.14252,28.22843],[95.14077,28.20312],[95.1817,28.19462],[95.21523,28.15399],[95.23926,28.15665],[95.28221,28.2017],[95.30659,28.20211],[95.3086,28.22347],[95.34548,28.24422],[95.34972,28.2836],[95.38142,28.30761],[95.38511,28.31044]]]}},{"type":"Feature","properties":{"DISTRICT":"Kurung Kumey","ST_NM":"Arunachal Pradesh","ST_CEN_CD":12,"DT_CEN_CD":12,"censuscode":256},"geometry":{"type":"Polygon","coordinates":[[[94.01886,27.95492],[93.9645,27.9226],[93.88598,27.90933],[93.93058,27.88465],[93.91451,27.82549],[93.9861,27.76329],[93.97139,27.73643],[93.81638,27.69134],[93.77841,27.66224],[93.7266,27.67266],[93.66539,27.64261],[93.6344,27.64676],[93.61516,27.66758],[93.51798,27.64978],[93.33253,27.66927],[93.24211,27.61447],[93.2022,27.67792],[93.22421,27.70748],[93.2063,27.72947],[93.24013,27.79631],[93.22123,27.8306],[93.20006,27.84576],[93.17773,27.82087],[93.09552,27.81155],[93.07258,27.8285],[92.97005,27.8257],[92.93475,27.87465],[92.93388,27.91929],[92.8629,27.95596],[92.76114,27.95666],[92.71438,28.03242],[92.66613,28.06692],[92.69205,28.12506],[92.80474,28.2015],[92.82126,28.20086],[92.83296,28.1707],[92.96959,28.26101],[93.00533,28.22993],[93.03878,28.26228],[93.027,28.29914],[93.1004,28.30623],[93.12983,28.32596],[93.19873,28.31712],[93.24895,28.36053],[93.28088,28.36621],[93.29746,28.34005],[93.34014,28.35303],[93.36369,28.34333],[93.38213,28.31118],[93.45628,28.27157],[93.48302,28.2811],[93.5748,28.2556],[93.61399,28.27161],[93.63365,28.30786],[93.6604,28.30418],[93.684,28.32134],[93.76892,28.26254],[93.84279,28.23881],[93.89591,28.12835],[93.85794,28.08091],[93.94103,28.0016],[93.94603,27.98068],[94.01438,27.95584],[94.01886,27.95492]]]}},{"type":"Feature","properties":{"DISTRICT":"Lohit","ST_NM":"Arunachal Pradesh","ST_CEN_CD":12,"DT_CEN_CD":15,"censuscode":259},"geometry":{"type":"Polygon","coordinates":[[[96.70361,27.66006],[96.64444,27.62748],[96.58568,27.65566],[96.52274,27.63622],[96.44333,27.65204],[96.37634,27.64456],[96.33128,27.57883],[96.29253,27.55504],[96.22837,27.56777],[96.12933,27.61918],[96.06506,27.60595],[96.00543,27.55627],[95.86767,27.54474],[95.788,27.61737],[95.80237,27.643],[95.77883,27.66034],[95.79416,27.68638],[95.77559,27.69085],[95.75936,27.72538],[95.78594,27.73401],[95.78171,27.75249],[95.82436,27.80354],[95.92987,27.88477],[95.95369,27.93614],[95.9948,27.9743],[95.99693,28.05198],[95.98347,28.07174],[96.02897,28.1296],[96.05528,28.19688],[96.14556,28.16956],[96.21908,28.23055],[96.27145,28.23859],[96.24181,28.29918],[96.30765,28.37359],[96.34075,28.33915],[96.29908,28.24882],[96.33916,28.17177],[96.33085,28.13073],[96.27694,28.07991],[96.39545,27.97456],[96.4201,27.92285],[96.53244,27.90026],[96.58962,27.85286],[96.61757,27.85717],[96.63832,27.80322],[96.61701,27.76562],[96.64351,27.73746],[96.62258,27.69826],[96.65241,27.67337],[96.69608,27.66512],[96.70361,27.66006]]]}},{"type":"Feature","properties":{"DISTRICT":"Lower Dibang Valley","ST_NM":"Arunachal Pradesh","ST_CEN_CD":12,"DT_CEN_CD":14,"censuscode":258},"geometry":{"type":"Polygon","coordinates":[[[96.18614,28.80176],[96.25447,28.7812],[96.32598,28.78477],[96.30359,28.66189],[96.43499,28.5884],[96.4034,28.5893],[96.40902,28.55893],[96.35705,28.55559],[96.32809,28.529],[96.3752,28.48179],[96.26594,28.40818],[96.30676,28.39941],[96.31738,28.38304],[96.24181,28.29918],[96.27145,28.23859],[96.21908,28.23055],[96.14556,28.16956],[96.05528,28.19688],[96.02897,28.1296],[95.98347,28.07174],[95.99724,28.0417],[95.98659,27.96636],[95.82747,27.97203],[95.60851,27.95283],[95.57299,27.93748],[95.51766,27.87688],[95.50347,27.95146],[95.56171,28.035],[95.57096,28.07814],[95.56714,28.25455],[95.5389,28.28585],[95.46902,28.25888],[95.4385,28.31421],[95.3887,28.30773],[95.37196,28.35631],[95.34139,28.36544],[95.34136,28.40564],[95.3235,28.42552],[95.3422,28.43863],[95.34004,28.47662],[95.39607,28.51193],[95.41305,28.54917],[95.38531,28.56998],[95.3793,28.60484],[95.4026,28.59385],[95.4227,28.63451],[95.44252,28.64098],[95.47759,28.59844],[95.52008,28.5964],[95.66968,28.5335],[95.7323,28.53431],[95.82814,28.47435],[95.88119,28.5196],[95.77715,28.5735],[95.87332,28.62651],[95.85457,28.72087],[96.00856,28.69457],[96.11557,28.78172],[96.18614,28.80176]]]}},{"type":"Feature","properties":{"DISTRICT":"Lower Subansiri","ST_NM":"Arunachal Pradesh","ST_CEN_CD":12,"DT_CEN_CD":11,"censuscode":255},"geometry":{"type":"Polygon","coordinates":[[[94.32046,27.77363],[94.31751,27.73868],[94.35879,27.71886],[94.27023,27.66544],[94.21359,27.60776],[94.22887,27.57247],[94.25882,27.5542],[94.26198,27.5202],[94.22394,27.50377],[94.20881,27.53077],[94.15389,27.53011],[94.12304,27.49692],[94.07186,27.482],[94.0486,27.49883],[93.94515,27.51086],[93.85591,27.46453],[93.85318,27.43979],[93.83067,27.42432],[93.83885,27.36303],[93.8098,27.37072],[93.78798,27.35005],[93.68863,27.33512],[93.61626,27.35679],[93.5819,27.43431],[93.56061,27.43755],[93.5712,27.47154],[93.61069,27.49325],[93.62099,27.53179],[93.51798,27.64978],[93.61516,27.66758],[93.6344,27.64676],[93.66539,27.64261],[93.7266,27.67266],[93.77841,27.66224],[93.81638,27.69134],[93.98211,27.74187],[93.9861,27.76329],[93.91451,27.82549],[93.93058,27.88465],[93.88687,27.90027],[93.89429,27.91589],[93.9645,27.9226],[93.98374,27.94221],[94.0418,27.95637],[94.0715,27.93877],[94.05097,27.91153],[94.07748,27.84897],[94.14941,27.86659],[94.16345,27.84342],[94.1952,27.83619],[94.19675,27.81105],[94.26082,27.8074],[94.30869,27.78327],[94.32046,27.77363]]]}},{"type":"Feature","properties":{"DISTRICT":"Papum Pare","ST_NM":"Arunachal Pradesh","ST_CEN_CD":12,"DT_CEN_CD":4,"censuscode":248},"geometry":{"type":"Polygon","coordinates":[[[93.51798,27.64978],[93.62099,27.53179],[93.61069,27.49325],[93.5712,27.47154],[93.56061,27.43755],[93.5819,27.43431],[93.60359,27.36713],[93.66916,27.33578],[93.78798,27.35005],[93.8098,27.37072],[93.83885,27.36303],[93.83067,27.42432],[93.85318,27.43979],[93.85591,27.46453],[93.94515,27.51086],[94.09728,27.4828],[94.15389,27.53011],[94.19428,27.53544],[94.22394,27.50377],[94.15947,27.47486],[94.06308,27.36036],[94.00217,27.33157],[93.81061,27.14868],[93.83862,27.07501],[93.83011,27.06577],[93.77558,27.05924],[93.77036,27.04017],[93.72082,27.01615],[93.67763,26.96801],[93.47013,26.93612],[93.39287,26.95737],[93.3822,26.98215],[93.34293,27.00068],[93.34565,27.03618],[93.31572,27.07889],[93.21611,27.11622],[93.21384,27.13058],[93.3084,27.17397],[93.27614,27.21076],[93.2293,27.19918],[93.22961,27.2506],[93.29761,27.29012],[93.29271,27.32894],[93.37514,27.37094],[93.37596,27.3865],[93.37125,27.41608],[93.32368,27.44308],[93.32314,27.48897],[93.29782,27.52267],[93.33333,27.55415],[93.23764,27.60883],[93.29457,27.65726],[93.33253,27.66927],[93.47332,27.65694],[93.51798,27.64978]]]}},{"type":"Feature","properties":{"DISTRICT":"Tawang","ST_NM":"Arunachal Pradesh","ST_CEN_CD":12,"DT_CEN_CD":1,"censuscode":245},"geometry":{"type":"Polygon","coordinates":[[[92.41858,27.8222],[92.44846,27.79991],[92.47553,27.80717],[92.46141,27.77739],[92.41595,27.75531],[92.41656,27.70861],[92.39657,27.67228],[92.24794,27.65054],[92.21253,27.57992],[92.15525,27.57701],[92.11536,27.52478],[92.05227,27.51624],[91.98355,27.46415],[91.85379,27.48184],[91.83313,27.46828],[91.72477,27.46972],[91.69493,27.50215],[91.65807,27.48239],[91.56712,27.58372],[91.58126,27.60783],[91.56293,27.63301],[91.60164,27.69212],[91.62901,27.70553],[91.64537,27.75757],[91.63359,27.80044],[91.60433,27.82049],[91.57099,27.81497],[91.55814,27.85826],[91.67483,27.85634],[91.69954,27.82173],[91.7516,27.80292],[91.82948,27.80988],[91.86561,27.73639],[91.92376,27.7145],[91.9889,27.7694],[92.06034,27.75848],[92.20528,27.85641],[92.26894,27.85723],[92.31214,27.77844],[92.38453,27.79419],[92.3877,27.81475],[92.41858,27.8222]]]}},{"type":"Feature","properties":{"DISTRICT":"Tirap","ST_NM":"Arunachal Pradesh","ST_CEN_CD":12,"DT_CEN_CD":10,"censuscode":254},"geometry":{"type":"Polygon","coordinates":[[[95.63726,27.23046],[95.64414,27.1926],[95.67567,27.16776],[95.66721,27.12462],[95.64258,27.09958],[95.65335,27.06276],[95.63457,27.01056],[95.64636,26.99014],[95.68453,26.98449],[95.69076,26.9032],[95.63636,26.87218],[95.61102,26.81407],[95.55435,26.8326],[95.53238,26.82428],[95.48867,26.75473],[95.42281,26.68982],[95.30214,26.64936],[95.27162,26.65626],[95.25618,26.68283],[95.23565,26.68178],[95.21593,26.72899],[95.24476,26.78102],[95.21503,26.79216],[95.19902,26.83381],[95.20859,26.84459],[95.18455,26.85877],[95.23389,26.88473],[95.21525,26.96442],[95.19545,26.98411],[95.19587,27.03716],[95.21414,27.02763],[95.23123,27.03984],[95.2485,27.02432],[95.34892,27.09873],[95.37726,27.09608],[95.45805,27.12942],[95.46011,27.20734],[95.51135,27.26017],[95.53524,27.26446],[95.59037,27.22316],[95.63441,27.23337],[95.63726,27.23046]]]}},{"type":"Feature","properties":{"DISTRICT":"Upper Siang","ST_NM":"Arunachal Pradesh","ST_CEN_CD":12,"DT_CEN_CD":8,"censuscode":252},"geometry":{"type":"Polygon","coordinates":[[[95.2723,29.04772],[95.27953,29.02857],[95.24849,28.98723],[95.25942,28.95087],[95.30318,28.95639],[95.33025,28.92339],[95.32759,28.84305],[95.35882,28.82289],[95.39274,28.74103],[95.3543,28.70408],[95.36875,28.62572],[95.38531,28.56998],[95.41305,28.54917],[95.39607,28.51193],[95.34004,28.47662],[95.3422,28.43863],[95.3235,28.42552],[95.34136,28.40564],[95.34139,28.36544],[95.37196,28.35631],[95.38511,28.31044],[95.34972,28.2836],[95.34548,28.24422],[95.3086,28.22347],[95.30659,28.20211],[95.27352,28.19701],[95.22743,28.15171],[95.19589,28.16413],[95.1817,28.19462],[95.14077,28.20312],[95.14252,28.22843],[95.10999,28.26298],[95.12095,28.37612],[95.08585,28.39484],[95.08518,28.4147],[95.10805,28.44394],[95.11401,28.50036],[95.08757,28.52626],[95.04174,28.51509],[94.99225,28.52876],[94.96133,28.57252],[94.90507,28.54845],[94.82311,28.56771],[94.76223,28.53362],[94.78095,28.55887],[94.76356,28.55964],[94.75005,28.58763],[94.74897,28.68606],[94.73327,28.70082],[94.63734,28.76636],[94.62356,28.7935],[94.52873,28.81127],[94.52044,28.83626],[94.34612,28.98359],[94.19107,29.03825],[94.29363,29.14762],[94.36278,29.152],[94.3782,29.18971],[94.43715,29.22632],[94.50036,29.21608],[94.56377,29.22828],[94.58375,29.28024],[94.62503,29.3123],[94.63429,29.34815],[94.71699,29.30373],[94.78308,29.24028],[94.8035,29.20907],[94.80346,29.16358],[94.87726,29.18323],[95.02797,29.12925],[94.99202,29.17231],[95.00282,29.17177],[95.10353,29.14236],[95.12682,29.11472],[95.25565,29.10816],[95.25493,29.06674],[95.27132,29.05578],[95.2723,29.04772]]]}},{"type":"Feature","properties":{"DISTRICT":"Upper Subansiri","ST_NM":"Arunachal Pradesh","ST_CEN_CD":12,"DT_CEN_CD":5,"censuscode":249},"geometry":{"type":"Polygon","coordinates":[[[94.32046,27.77363],[94.26082,27.8074],[94.19675,27.81105],[94.1952,27.83619],[94.16345,27.84342],[94.14941,27.86659],[94.07748,27.84897],[94.05097,27.91153],[94.0715,27.93877],[93.94932,27.97847],[93.85794,28.08091],[93.89591,28.12835],[93.84279,28.23881],[93.76892,28.26254],[93.684,28.32134],[93.6604,28.30418],[93.63365,28.30786],[93.61399,28.27161],[93.5748,28.2556],[93.4281,28.28234],[93.34014,28.35303],[93.29746,28.34005],[93.28609,28.36448],[93.26301,28.36672],[93.22624,28.33379],[93.23663,28.39988],[93.1879,28.43925],[93.28121,28.5041],[93.31068,28.5656],[93.30535,28.59894],[93.33313,28.60768],[93.34245,28.63957],[93.41735,28.65228],[93.45119,28.67542],[93.47965,28.65298],[93.49662,28.68332],[93.53923,28.65814],[93.62541,28.65694],[93.73685,28.68844],[93.78039,28.66761],[93.84925,28.70647],[93.92465,28.66933],[93.96542,28.71203],[94.02668,28.65094],[94.00474,28.57745],[94.10021,28.53575],[94.14249,28.44416],[94.23497,28.42786],[94.24514,28.44642],[94.29617,28.42843],[94.31186,28.4166],[94.31191,28.37522],[94.333,28.35751],[94.40471,28.33998],[94.37819,28.29465],[94.42036,28.25389],[94.38681,28.25767],[94.35984,28.19818],[94.39482,28.14156],[94.39518,28.08236],[94.51636,28.01507],[94.54592,27.92507],[94.59629,27.88971],[94.58054,27.85569],[94.45164,27.82484],[94.33587,27.75743],[94.32471,27.77029],[94.32046,27.77363]]]}},{"type":"Feature","properties":{"DISTRICT":"West Kameng","ST_NM":"Arunachal Pradesh","ST_CEN_CD":12,"DT_CEN_CD":2,"censuscode":246},"geometry":{"type":"Polygon","coordinates":[[[92.64213,27.01686],[92.64844,26.98574],[92.58822,26.96019],[92.4627,26.96178],[92.40289,26.92478],[92.35624,26.93413],[92.2796,26.90108],[92.25781,26.91087],[92.19814,26.88968],[92.11127,26.89259],[92.12088,26.95901],[92.10687,27.00658],[92.03748,27.06373],[92.02604,27.11388],[92.04034,27.13739],[92.02729,27.16132],[92.07361,27.22262],[92.04367,27.2657],[92.10564,27.26809],[92.12465,27.28655],[92.06296,27.32625],[92.05877,27.39922],[92.0236,27.44678],[92.02275,27.50168],[92.11536,27.52478],[92.15525,27.57701],[92.21253,27.57992],[92.24794,27.65054],[92.39657,27.67228],[92.41656,27.70861],[92.41595,27.75531],[92.46412,27.78169],[92.5192,27.73413],[92.54232,27.61906],[92.59781,27.63001],[92.61342,27.61866],[92.62328,27.58682],[92.61282,27.55484],[92.64682,27.55169],[92.66102,27.52494],[92.71988,27.55478],[92.79369,27.5536],[92.81829,27.51763],[92.80824,27.41866],[92.82563,27.4019],[92.8191,27.35807],[92.80325,27.34989],[92.8507,27.28904],[92.8933,27.28065],[92.90605,27.21337],[92.81931,27.17746],[92.7531,27.19491],[92.61115,27.13986],[92.59336,27.07865],[92.60089,27.05257],[92.63863,27.02355],[92.64213,27.01686]]]}},{"type":"Feature","properties":{"DISTRICT":"West Siang","ST_NM":"Arunachal Pradesh","ST_CEN_CD":12,"DT_CEN_CD":6,"censuscode":250},"geometry":{"type":"Polygon","coordinates":[[[94.76223,28.53362],[94.74523,28.49794],[94.76688,28.4233],[94.88234,28.40528],[94.93924,28.25087],[94.88453,28.23223],[94.91593,28.20069],[94.9116,28.1585],[94.95243,28.12856],[94.90343,28.07637],[94.93386,28.0475],[94.88378,27.99993],[94.96044,27.98046],[94.95689,27.9553],[94.92771,27.88904],[94.90899,27.88],[94.91253,27.85946],[94.93238,27.85662],[94.9086,27.842],[94.89908,27.80084],[94.86587,27.76357],[94.85081,27.7067],[94.74471,27.65955],[94.69151,27.66342],[94.68458,27.6458],[94.46185,27.55414],[94.43327,27.59963],[94.36973,27.57336],[94.30039,27.60104],[94.27841,27.59013],[94.25653,27.61055],[94.26963,27.62471],[94.25472,27.63782],[94.21359,27.60776],[94.27023,27.66544],[94.35879,27.71886],[94.31751,27.73868],[94.32046,27.77363],[94.33587,27.75743],[94.45164,27.82484],[94.59248,27.86128],[94.5979,27.88065],[94.54592,27.92507],[94.51636,28.01507],[94.39518,28.08236],[94.39482,28.14156],[94.35984,28.19818],[94.38681,28.25767],[94.42036,28.25389],[94.37819,28.29465],[94.40471,28.33998],[94.333,28.35751],[94.31191,28.37522],[94.31186,28.4166],[94.29617,28.42843],[94.24514,28.44642],[94.23497,28.42786],[94.15517,28.43577],[94.11818,28.47541],[94.10021,28.53575],[94.00474,28.57745],[94.02668,28.65094],[93.96542,28.71203],[93.97371,28.75042],[94.00667,28.77458],[93.99057,28.7974],[94.00033,28.84053],[94.03547,28.8526],[94.07201,28.89529],[94.16067,28.95398],[94.19107,29.03825],[94.34612,28.98359],[94.52044,28.83626],[94.52873,28.81127],[94.62356,28.7935],[94.63734,28.76636],[94.74897,28.68606],[94.75005,28.58763],[94.76356,28.55964],[94.78095,28.55887],[94.76545,28.54679],[94.76223,28.53362]]]}}]}
