{"type":"FeatureCollection","properties":{"source":"DataMeet Community Maps Project - Districts/Census_2011","state":"Assam","stateSlug":"assam"},"features":[{"type":"Feature","properties":{"DISTRICT":"Baksa","ST_NM":"Assam","ST_CEN_CD":18,"DT_CEN_CD":25,"censuscode":324},"geometry":{"type":"Polygon","coordinates":[[[91.78311,26.49367],[91.7419,26.49736],[91.71141,26.46083],[91.68853,26.46217],[91.64562,26.48682],[91.64146,26.51301],[91.59952,26.53302],[91.58278,26.57224],[91.53244,26.57125],[91.52368,26.54279],[91.49859,26.53133],[91.46248,26.58167],[91.40476,26.52962],[91.30532,26.49277],[91.29383,26.53656],[91.31027,26.57917],[91.26558,26.57574],[91.25124,26.6189],[91.20355,26.5929],[91.15766,26.6643],[91.14133,26.65034],[91.14118,26.55265],[91.10206,26.51774],[91.04838,26.55923],[90.93775,26.53962],[90.913,26.58869],[90.86881,26.56921],[90.87634,26.5252],[90.86209,26.51976],[90.82026,26.56814],[90.85023,26.57188],[90.85778,26.5978],[90.9005,26.63144],[90.90229,26.6893],[90.95916,26.78337],[91.05829,26.77895],[91.10093,26.81926],[91.26646,26.80436],[91.34034,26.77897],[91.38361,26.80079],[91.40614,26.83442],[91.49663,26.78898],[91.63614,26.81998],[91.68298,26.80383],[91.70788,26.81092],[91.74668,26.68317],[91.74266,26.60114],[91.78674,26.53658],[91.78494,26.49588],[91.78311,26.49367]]]}},{"type":"Feature","properties":{"DISTRICT":"Barpeta","ST_NM":"Assam","ST_CEN_CD":18,"DT_CEN_CD":4,"censuscode":303},"geometry":{"type":"Polygon","coordinates":[[[91.16927,26.6524],[91.17445,26.6207],[91.20355,26.5929],[91.25124,26.6189],[91.26558,26.57574],[91.31027,26.57917],[91.29654,26.5117],[91.23573,26.43968],[91.25115,26.36712],[91.28273,26.3698],[91.25388,26.29905],[91.26385,26.29056],[91.21863,26.26787],[91.24264,26.25654],[91.21797,26.22076],[91.2516,26.19911],[91.24222,26.18073],[91.11916,26.15341],[91.09393,26.16381],[91.03429,26.12081],[91.00522,26.12937],[90.95829,26.09691],[90.91673,26.08904],[90.7804,26.13422],[90.72216,26.1318],[90.69514,26.15299],[90.6585,26.24603],[90.73362,26.25752],[90.72158,26.27661],[90.73428,26.29543],[90.76264,26.31294],[90.80304,26.30587],[90.79296,26.32795],[90.82153,26.36558],[90.8614,26.36162],[90.84725,26.40225],[90.86024,26.43649],[90.84755,26.44544],[90.80241,26.42792],[90.7898,26.43872],[90.82891,26.44967],[90.80967,26.49973],[90.84929,26.49702],[90.85411,26.52321],[90.87527,26.5234],[90.86881,26.56921],[90.913,26.58869],[90.91854,26.55639],[90.93903,26.53929],[91.04838,26.55923],[91.10206,26.51774],[91.14118,26.55265],[91.14133,26.65034],[91.16735,26.65815],[91.16927,26.6524]]]}},{"type":"Feature","properties":{"DISTRICT":"Bongaigaon","ST_NM":"Assam","ST_CEN_CD":18,"DT_CEN_CD":20,"censuscode":319},"geometry":{"type":"Polygon","coordinates":[[[90.85418,26.52336],[90.85397,26.49886],[90.80646,26.49422],[90.82891,26.44967],[90.78989,26.44061],[90.80241,26.42792],[90.84755,26.44544],[90.86237,26.43375],[90.84725,26.40225],[90.8614,26.36162],[90.82153,26.36558],[90.79296,26.32795],[90.80471,26.30682],[90.76264,26.31294],[90.73428,26.29543],[90.72158,26.27661],[90.73362,26.25752],[90.68063,26.2564],[90.50875,26.19972],[90.46583,26.20496],[90.37933,26.18146],[90.38184,26.22389],[90.44242,26.24412],[90.43805,26.26206],[90.45236,26.24877],[90.44844,26.26871],[90.47315,26.26606],[90.46043,26.2844],[90.47323,26.27785],[90.46684,26.28804],[90.48404,26.29222],[90.46088,26.35607],[90.44832,26.34579],[90.43877,26.35847],[90.43847,26.34288],[90.42641,26.36477],[90.38193,26.36988],[90.40981,26.43401],[90.42488,26.43127],[90.42739,26.40616],[90.4609,26.4037],[90.47966,26.45579],[90.52601,26.45085],[90.52577,26.42053],[90.54863,26.42773],[90.55673,26.50429],[90.57069,26.51414],[90.59102,26.51122],[90.61418,26.48086],[90.63334,26.49807],[90.6219,26.51838],[90.65628,26.52632],[90.70203,26.4857],[90.75516,26.47193],[90.76798,26.48666],[90.78669,26.47236],[90.76544,26.52096],[90.80356,26.53452],[90.85093,26.52459],[90.85418,26.52336]]]}},{"type":"Feature","properties":{"DISTRICT":"Cachar","ST_NM":"Assam","ST_CEN_CD":18,"DT_CEN_CD":17,"censuscode":316},"geometry":{"type":"Polygon","coordinates":[[[93.25235,24.97158],[93.26182,24.94777],[93.23943,24.93528],[93.25268,24.91523],[93.1966,24.853],[93.19242,24.80273],[93.15233,24.78637],[93.1221,24.81648],[93.10924,24.80641],[93.10662,24.73857],[93.08814,24.70588],[93.07524,24.70712],[93.10403,24.672],[93.07469,24.59295],[93.10619,24.58021],[93.06038,24.57158],[93.07192,24.5578],[93.03496,24.49374],[93.04768,24.47224],[93.03827,24.4079],[92.93494,24.39253],[92.91081,24.40994],[92.90444,24.3915],[92.86222,24.39662],[92.83204,24.37356],[92.7592,24.51851],[92.78032,24.56923],[92.73875,24.5867],[92.70489,24.56397],[92.66988,24.59107],[92.66993,24.60942],[92.69648,24.61639],[92.66998,24.62626],[92.65576,24.69174],[92.6803,24.81318],[92.63978,24.81906],[92.63136,24.85314],[92.59804,24.87794],[92.58214,24.87313],[92.58909,24.86193],[92.56031,24.8721],[92.52584,24.85871],[92.49894,24.87397],[92.4887,24.94233],[92.45503,24.94226],[92.46587,24.96252],[92.43098,24.96958],[92.41984,24.98735],[92.42534,25.02952],[92.46373,25.03496],[92.48484,25.10587],[92.54504,25.09704],[92.6233,25.10191],[92.64825,25.11783],[92.72613,25.1121],[92.73348,25.14287],[92.75659,25.1386],[92.78367,25.08657],[92.84131,25.05311],[92.90176,25.07944],[92.95198,25.07035],[92.96248,25.08823],[93.04404,25.10293],[93.01765,25.06115],[93.06089,25.02263],[93.06323,25.00197],[93.18959,24.99647],[93.25235,24.97158]]]}},{"type":"Feature","properties":{"DISTRICT":"Chirang","ST_NM":"Assam","ST_CEN_CD":18,"DT_CEN_CD":21,"censuscode":320},"geometry":{"type":"Polygon","coordinates":[[[90.57322,26.79859],[90.70458,26.76766],[90.95916,26.78336],[90.90229,26.6893],[90.9005,26.63144],[90.85778,26.5978],[90.85023,26.57188],[90.82026,26.56814],[90.85418,26.52336],[90.80356,26.53452],[90.76163,26.51775],[90.78669,26.47236],[90.76798,26.48666],[90.75516,26.47193],[90.70203,26.4857],[90.65628,26.52632],[90.6219,26.51838],[90.63334,26.49807],[90.61418,26.48086],[90.59102,26.51122],[90.57069,26.51414],[90.55673,26.50429],[90.54863,26.42773],[90.52577,26.42053],[90.52601,26.45085],[90.47966,26.45579],[90.4609,26.4037],[90.42739,26.40616],[90.42488,26.43127],[90.40161,26.44658],[90.40249,26.51666],[90.35763,26.54842],[90.3537,26.57161],[90.36808,26.58322],[90.35605,26.61853],[90.43312,26.7467],[90.42509,26.89857],[90.56483,26.80072],[90.57322,26.79859]]]}},{"type":"Feature","properties":{"DISTRICT":"Darrang","ST_NM":"Assam","ST_CEN_CD":18,"DT_CEN_CD":26,"censuscode":325},"geometry":{"type":"Polygon","coordinates":[[[92.32865,26.67036],[92.34538,26.63696],[92.33004,26.63677],[92.32509,26.61395],[92.34275,26.59719],[92.32808,26.59166],[92.36382,26.58564],[92.35816,26.57173],[92.38385,26.53112],[92.33281,26.51456],[92.34645,26.50214],[92.2225,26.41682],[92.15642,26.41059],[92.04557,26.27544],[91.98436,26.27484],[91.87788,26.21558],[91.77953,26.19774],[91.75012,26.21052],[91.78695,26.24401],[91.7867,26.30465],[91.82429,26.33191],[91.82059,26.37902],[91.78316,26.41117],[91.7681,26.45578],[91.7891,26.49942],[91.93046,26.57467],[91.96519,26.55359],[91.99261,26.5695],[92.02807,26.55951],[92.08211,26.48163],[92.09898,26.55097],[92.08622,26.5604],[92.06089,26.54546],[92.04544,26.58044],[92.07634,26.62869],[92.20219,26.66562],[92.23785,26.6251],[92.25131,26.5791],[92.29319,26.63037],[92.30556,26.67507],[92.32284,26.67395],[92.32865,26.67036]]]}},{"type":"Feature","properties":{"DISTRICT":"Dhemaji","ST_NM":"Assam","ST_CEN_CD":18,"DT_CEN_CD":9,"censuscode":308},"geometry":{"type":"Polygon","coordinates":[[[94.58063,27.21371],[94.52751,27.25155],[94.52525,27.29343],[94.50299,27.32657],[94.46252,27.30487],[94.32689,27.33565],[94.32184,27.42297],[94.28449,27.45781],[94.25882,27.5542],[94.22887,27.57247],[94.21359,27.60776],[94.23759,27.62942],[94.26917,27.62941],[94.25653,27.61055],[94.27841,27.59013],[94.30039,27.60104],[94.35795,27.57402],[94.43327,27.59963],[94.46185,27.55414],[94.68458,27.6458],[94.69151,27.66342],[94.74471,27.65955],[94.84141,27.69957],[94.86797,27.74164],[95.03319,27.77058],[95.31844,27.86658],[95.3861,27.83729],[95.51766,27.87688],[95.44415,27.75749],[95.4022,27.72535],[95.28433,27.69075],[95.26035,27.65862],[95.2262,27.65222],[95.19492,27.66679],[95.20751,27.70799],[95.10768,27.66222],[95.04228,27.6677],[94.9855,27.65055],[94.9493,27.6086],[94.88254,27.57348],[94.7956,27.48159],[94.77467,27.48284],[94.74673,27.4349],[94.69327,27.41881],[94.69224,27.38958],[94.66543,27.37621],[94.66654,27.34898],[94.63796,27.31974],[94.60742,27.32486],[94.61538,27.30548],[94.58815,27.26642],[94.57997,27.21513],[94.58063,27.21371]]]}},{"type":"Feature","properties":{"DISTRICT":"Dhubri","ST_NM":"Assam","ST_CEN_CD":18,"DT_CEN_CD":2,"censuscode":301},"geometry":{"type":"MultiPolygon","coordinates":[[[[90.21894,26.35036],[90.23123,26.34954],[90.2214,26.32934],[90.26024,26.33428],[90.28253,26.31981],[90.34697,26.37038],[90.35835,26.34944],[90.31909,26.29943],[90.32823,26.27807],[90.3767,26.29405],[90.37702,26.31919],[90.42909,26.35993],[90.44128,26.34389],[90.44462,26.36177],[90.4461,26.34627],[90.46088,26.35607],[90.45821,26.33876],[90.47705,26.33108],[90.48376,26.29016],[90.46043,26.2844],[90.47315,26.26606],[90.44844,26.26871],[90.45236,26.24877],[90.43805,26.26206],[90.44242,26.24412],[90.38184,26.22389],[90.37715,26.17906],[90.2516,26.1774],[90.24286,26.13952],[90.19678,26.12642],[90.15753,26.08219],[90.18111,26.06526],[90.17231,26.0433],[90.19386,26.02828],[90.17537,26.01658],[90.18042,25.99099],[90.1271,25.96966],[90.04626,25.89075],[90.01944,25.88863],[90.00894,25.8787],[90.02605,25.86554],[90.01247,25.84686],[89.94876,25.82453],[89.95936,25.77453],[89.93204,25.74144],[89.89956,25.74422],[89.89837,25.72735],[89.95092,25.65894],[90.02116,25.6023],[90.00599,25.58431],[89.98305,25.59086],[89.97031,25.57184],[89.87775,25.54947],[89.87939,25.49151],[89.85609,25.47662],[89.85621,25.53751],[89.87474,25.55717],[89.88305,25.62147],[89.848,25.6905],[89.85647,25.71483],[89.8298,25.72928],[89.84338,25.76103],[89.81885,25.81709],[89.8405,25.87777],[89.88704,25.94202],[89.83118,25.94704],[89.84833,25.95614],[89.84473,25.97221],[89.87152,25.97608],[89.83517,26.00718],[89.8352,25.98626],[89.81864,25.98899],[89.8131,26.03831],[89.79225,26.01704],[89.80327,26.03954],[89.77852,26.03547],[89.80119,26.05862],[89.79742,26.08837],[89.76501,26.11253],[89.76991,26.13194],[89.75306,26.15286],[89.72403,26.15748],[89.73899,26.175],[89.71136,26.17315],[89.69972,26.18908],[89.7369,26.21229],[89.70214,26.21724],[89.73368,26.2382],[89.70977,26.2699],[89.73015,26.2584],[89.74239,26.27109],[89.72067,26.30196],[89.76204,26.28851],[89.75552,26.32143],[89.78584,26.33084],[89.787,26.35324],[89.82547,26.37056],[89.82505,26.35034],[89.83598,26.38197],[89.87923,26.3747],[89.90142,26.33027],[89.86939,26.26028],[89.85319,26.25534],[89.8701,26.2325],[89.86003,26.19167],[89.87349,26.19108],[89.87312,26.14574],[89.91385,26.13408],[89.98622,26.14502],[90.03347,26.12876],[90.05611,26.13897],[90.07171,26.1727],[90.14049,26.20297],[90.12118,26.2527],[90.15093,26.2868],[90.10509,26.3266],[90.15435,26.35296],[90.1912,26.34522],[90.22872,26.38536],[90.23596,26.36183],[90.22133,26.35253],[90.21894,26.35036]],[[89.81712,26.34585],[89.79317,26.34217],[89.8226,26.32005],[89.82089,26.34208],[89.81712,26.34585]]]]}},{"type":"Feature","properties":{"DISTRICT":"Dibrugarh","ST_NM":"Assam","ST_CEN_CD":18,"DT_CEN_CD":11,"censuscode":310},"geometry":{"type":"Polygon","coordinates":[[[95.27759,27.6824],[95.32283,27.58732],[95.2789,27.57293],[95.27236,27.52519],[95.23205,27.49607],[95.22182,27.45781],[95.2707,27.40547],[95.29638,27.41161],[95.31535,27.39122],[95.37658,27.38049],[95.39739,27.39131],[95.44122,27.36292],[95.4742,27.36432],[95.47669,27.34239],[95.45307,27.33001],[95.47046,27.30611],[95.45168,27.29488],[95.46527,27.2666],[95.44712,27.25229],[95.45802,27.23215],[95.47382,27.26285],[95.49144,27.24261],[95.46011,27.20734],[95.45805,27.12942],[95.37295,27.09558],[95.35933,27.16755],[95.2894,27.19681],[95.24248,27.18762],[95.24048,27.1693],[95.18481,27.16159],[95.16509,27.12673],[95.06231,27.13562],[95.05049,27.15365],[94.98973,27.14626],[94.97016,27.2287],[94.83715,27.09379],[94.81418,27.09881],[94.82065,27.11412],[94.76581,27.12752],[94.758,27.15088],[94.78122,27.17159],[94.77949,27.2386],[94.7425,27.24528],[94.74575,27.27456],[94.72189,27.26477],[94.72612,27.24594],[94.70466,27.27091],[94.68222,27.2444],[94.64661,27.24655],[94.59117,27.14907],[94.57061,27.17847],[94.58815,27.26642],[94.61538,27.30548],[94.60742,27.32486],[94.63796,27.31974],[94.66654,27.34898],[94.66543,27.37621],[94.69224,27.38958],[94.69327,27.41881],[94.74673,27.4349],[94.77467,27.48284],[94.7956,27.48159],[94.88254,27.57348],[94.9493,27.6086],[94.9855,27.65055],[95.04228,27.6677],[95.10768,27.66222],[95.20751,27.70799],[95.20369,27.66096],[95.25015,27.65546],[95.27346,27.67198],[95.27759,27.6824]]]}},{"type":"Feature","properties":{"DISTRICT":"Dima Hasao","ST_NM":"Assam","ST_CEN_CD":18,"DT_CEN_CD":16,"censuscode":315},"geometry":{"type":"Polygon","coordinates":[[[93.07261,25.77457],[93.08152,25.76316],[93.10899,25.77419],[93.1511,25.73752],[93.13337,25.68376],[93.1913,25.62891],[93.17309,25.59531],[93.21276,25.544],[93.26528,25.54518],[93.27769,25.52885],[93.2979,25.54472],[93.30696,25.52857],[93.33183,25.54328],[93.35237,25.53398],[93.39581,25.46043],[93.45667,25.43814],[93.47699,25.38213],[93.45156,25.34035],[93.47363,25.30537],[93.38834,25.24216],[93.35266,25.17808],[93.33529,25.09214],[93.30409,25.04433],[93.2677,25.04609],[93.24836,25.01524],[93.24645,25.00007],[93.2628,25.00066],[93.25235,24.97158],[93.18959,24.99647],[93.06323,25.00197],[93.06089,25.02263],[93.01765,25.06115],[93.04404,25.10293],[92.96248,25.08823],[92.95198,25.07035],[92.90176,25.07944],[92.84131,25.05311],[92.78367,25.08657],[92.75659,25.1386],[92.73348,25.14287],[92.72613,25.1121],[92.64825,25.11783],[92.6233,25.10191],[92.5434,25.09731],[92.52519,25.13777],[92.62201,25.11528],[92.66729,25.17458],[92.80471,25.21662],[92.76501,25.24672],[92.7926,25.28251],[92.7848,25.3299],[92.76103,25.33267],[92.73759,25.37869],[92.71868,25.37246],[92.67445,25.4147],[92.66077,25.40793],[92.65499,25.43293],[92.60985,25.4142],[92.59898,25.46932],[92.57232,25.46178],[92.56869,25.47849],[92.6385,25.52617],[92.66161,25.57945],[92.68385,25.57674],[92.70321,25.59968],[92.7508,25.60014],[92.78855,25.65549],[92.77789,25.6779],[92.81282,25.70195],[92.82232,25.73993],[92.92215,25.77074],[92.93145,25.80756],[92.96769,25.81655],[92.95881,25.80053],[92.98604,25.78324],[92.99268,25.82326],[93.01101,25.79139],[93.06325,25.77802],[93.07261,25.77457]]]}},{"type":"Feature","properties":{"DISTRICT":"Goalpara","ST_NM":"Assam","ST_CEN_CD":18,"DT_CEN_CD":3,"censuscode":302},"geometry":{"type":"Polygon","coordinates":[[[90.9391,26.09378],[91.02979,26.03974],[91.06921,26.04392],[91.10069,26.00923],[91.03234,25.88749],[90.97063,25.88667],[90.94605,25.94707],[90.91918,25.94268],[90.92239,25.91283],[90.88633,25.9513],[90.84013,25.93778],[90.81332,25.95175],[90.78147,25.9079],[90.7624,25.92127],[90.74579,25.91257],[90.75094,25.95695],[90.6896,25.95047],[90.63091,25.9167],[90.62836,25.89861],[90.61009,25.912],[90.63261,25.93714],[90.58613,25.95952],[90.51622,25.89602],[90.53819,25.95778],[90.48115,26.01504],[90.43249,25.98885],[90.40043,26.01396],[90.36897,26.01015],[90.3283,25.97425],[90.21251,25.96149],[90.18659,25.94438],[90.15753,25.96464],[90.12282,25.96121],[90.18042,25.99099],[90.17537,26.01658],[90.19293,26.02501],[90.17231,26.0433],[90.18111,26.06526],[90.15753,26.08219],[90.19678,26.12642],[90.24286,26.13952],[90.2496,26.17511],[90.27371,26.18608],[90.33765,26.17294],[90.65602,26.24138],[90.69514,26.15299],[90.72216,26.1318],[90.7804,26.13422],[90.86234,26.11304],[90.88104,26.09489],[90.93616,26.09762],[90.9391,26.09378]]]}},{"type":"Feature","properties":{"DISTRICT":"Golaghat","ST_NM":"Assam","ST_CEN_CD":18,"DT_CEN_CD":14,"censuscode":313},"geometry":{"type":"Polygon","coordinates":[[[93.8226,26.82357],[93.9335,26.77974],[93.98104,26.8063],[93.97645,26.76539],[94.04963,26.73912],[94.03973,26.70841],[94.05027,26.67545],[94.09884,26.64084],[94.0738,26.59665],[94.07908,26.57736],[94.10261,26.57602],[94.11752,26.55589],[94.09955,26.49151],[94.13141,26.4449],[94.11857,26.39971],[94.13831,26.3499],[94.18028,26.34955],[94.11968,26.32923],[94.129,26.31875],[94.10835,26.32194],[94.005,26.16888],[93.99117,26.06818],[93.95489,26.0029],[93.97923,25.91512],[93.91577,25.88321],[93.88257,25.8415],[93.84225,25.85829],[93.79567,25.81009],[93.77977,25.8421],[93.79836,25.90549],[93.78953,25.94843],[93.7698,25.96303],[93.78424,25.97994],[93.80452,25.97656],[93.80461,26.00053],[93.78475,26.00752],[93.79905,26.03233],[93.78307,26.03898],[93.79563,26.04091],[93.83116,26.12994],[93.83872,26.15847],[93.82461,26.17464],[93.8647,26.23569],[93.85015,26.24077],[93.88479,26.27227],[93.87061,26.29657],[93.89764,26.31682],[93.88518,26.39386],[93.82887,26.41732],[93.79548,26.37719],[93.77721,26.38388],[93.80264,26.41005],[93.78632,26.41302],[93.79463,26.4409],[93.76022,26.52718],[93.73589,26.53752],[93.75361,26.57891],[93.72389,26.60355],[93.63789,26.59682],[93.62349,26.56473],[93.61614,26.5767],[93.58812,26.5684],[93.5893,26.60355],[93.51253,26.59336],[93.49897,26.6118],[93.47345,26.59356],[93.49576,26.58824],[93.46657,26.56852],[93.46979,26.58569],[93.41374,26.56753],[93.40413,26.58056],[93.30206,26.5726],[93.28842,26.6349],[93.31659,26.6401],[93.30925,26.69811],[93.33771,26.70745],[93.35937,26.73748],[93.51111,26.76035],[93.56748,26.72381],[93.65149,26.70491],[93.67361,26.71267],[93.65155,26.78906],[93.69736,26.7977],[93.71273,26.81748],[93.74677,26.80066],[93.77371,26.84369],[93.82166,26.82319],[93.8226,26.82357]]]}},{"type":"Feature","properties":{"DISTRICT":"Hailakandi","ST_NM":"Assam","ST_CEN_CD":18,"DT_CEN_CD":19,"censuscode":318},"geometry":{"type":"Polygon","coordinates":[[[92.59806,24.8779],[92.63136,24.85314],[92.63978,24.81906],[92.68464,24.80654],[92.65613,24.73573],[92.66998,24.62626],[92.69648,24.61639],[92.66993,24.60942],[92.67185,24.58736],[92.70489,24.56397],[92.75501,24.5827],[92.78065,24.55957],[92.69016,24.35226],[92.64854,24.3263],[92.62382,24.33026],[92.61107,24.25097],[92.55019,24.24364],[92.52916,24.17259],[92.48542,24.16007],[92.46551,24.13267],[92.43616,24.15039],[92.4182,24.21964],[92.42208,24.25108],[92.47667,24.32284],[92.50042,24.40013],[92.5191,24.56701],[92.49722,24.67947],[92.54494,24.75995],[92.54505,24.79864],[92.58662,24.84914],[92.58214,24.87313],[92.59804,24.87794],[92.59806,24.8779]]]}},{"type":"Feature","properties":{"DISTRICT":"Jorhat","ST_NM":"Assam","ST_CEN_CD":18,"DT_CEN_CD":13,"censuscode":312},"geometry":{"type":"Polygon","coordinates":[[[94.57851,27.11684],[94.51101,27.04112],[94.48099,27.02936],[94.46508,26.99377],[94.40185,26.95781],[94.41267,26.94206],[94.48218,26.93393],[94.49826,26.86944],[94.49037,26.83147],[94.52424,26.80744],[94.51609,26.77475],[94.55127,26.74739],[94.57609,26.75178],[94.60508,26.7122],[94.57128,26.68508],[94.56156,26.7032],[94.52321,26.69951],[94.49872,26.66886],[94.465,26.66273],[94.46292,26.63064],[94.40831,26.6096],[94.41523,26.57849],[94.39978,26.52751],[94.35144,26.50387],[94.3168,26.4582],[94.29428,26.47608],[94.28278,26.55899],[94.18699,26.45604],[94.16795,26.34877],[94.13831,26.3499],[94.11857,26.39971],[94.13141,26.4449],[94.09955,26.49151],[94.11752,26.55589],[94.10261,26.57602],[94.08097,26.57464],[94.0738,26.59665],[94.09884,26.64084],[94.05027,26.67545],[94.03973,26.70841],[94.04963,26.73912],[93.97645,26.76539],[93.98104,26.8063],[93.9335,26.77974],[93.8226,26.82357],[93.84344,26.85207],[93.89416,26.86467],[93.89401,26.89053],[93.92426,26.92654],[93.97661,26.92342],[93.99994,26.93985],[94.02699,26.92991],[94.02899,26.95618],[94.0542,26.97915],[94.08754,26.96057],[94.18232,26.99706],[94.19125,27.03562],[94.22585,27.03178],[94.23953,27.07316],[94.26756,27.0921],[94.3142,27.06989],[94.3252,27.08734],[94.36861,27.09754],[94.41906,27.09074],[94.43323,27.11671],[94.47133,27.11416],[94.48488,27.13752],[94.50983,27.12029],[94.51332,27.13992],[94.53425,27.14635],[94.52586,27.15854],[94.56334,27.18136],[94.59577,27.14513],[94.58258,27.12485],[94.57851,27.11684]]]}},{"type":"Feature","properties":{"DISTRICT":"Kamrup","ST_NM":"Assam","ST_CEN_CD":18,"DT_CEN_CD":22,"censuscode":321},"geometry":{"type":"Polygon","coordinates":[[[91.58278,26.57224],[91.59952,26.53302],[91.64146,26.51301],[91.66296,26.47],[91.71141,26.46083],[91.7419,26.49736],[91.78311,26.49367],[91.76685,26.46616],[91.77366,26.43167],[91.82059,26.37902],[91.82429,26.33191],[91.7867,26.30465],[91.78695,26.24401],[91.74945,26.22082],[91.76159,26.19995],[91.6907,26.16702],[91.62069,26.10674],[91.56539,26.14225],[91.5455,26.13835],[91.52402,26.03033],[91.50575,26.02667],[91.48022,26.05132],[91.45527,26.04467],[91.47507,25.98994],[91.47227,25.85783],[91.44699,25.84013],[91.42152,25.85385],[91.33629,25.83805],[91.2783,25.7462],[91.22657,25.72273],[91.19472,25.72891],[91.18274,25.77566],[91.19936,25.85833],[91.18191,25.84209],[91.15579,25.84943],[91.06623,25.8198],[91.0529,25.82834],[91.08155,25.85204],[91.05214,25.84825],[91.00383,25.82172],[91.05111,25.94098],[91.10069,26.00923],[91.06921,26.04392],[91.02979,26.03974],[90.9391,26.09378],[91.00522,26.12937],[91.05172,26.12833],[91.09393,26.16381],[91.11916,26.15341],[91.23676,26.18217],[91.25755,26.16316],[91.35866,26.16438],[91.41588,26.13622],[91.41489,26.20273],[91.43373,26.23715],[91.41544,26.26059],[91.45362,26.27259],[91.45032,26.31289],[91.53649,26.33355],[91.52137,26.34235],[91.53853,26.37062],[91.52786,26.37794],[91.56688,26.43316],[91.55438,26.5468],[91.57568,26.57222],[91.58278,26.57224]]]}},{"type":"Feature","properties":{"DISTRICT":"Kamrup Metropolitan","ST_NM":"Assam","ST_CEN_CD":18,"DT_CEN_CD":23,"censuscode":322},"geometry":{"type":"Polygon","coordinates":[[[91.96025,26.24368],[91.96195,26.22771],[91.99991,26.20444],[92.04603,26.19933],[92.04851,26.21336],[92.09446,26.18777],[92.08392,26.17757],[92.17038,26.16336],[92.18042,26.07789],[92.13521,26.04431],[92.05503,26.03134],[91.99331,26.03961],[91.92437,25.99817],[91.91928,26.02012],[91.88559,26.02869],[91.87256,26.0509],[91.87825,26.09644],[91.82186,26.11752],[91.7929,26.08582],[91.73382,26.05806],[91.72261,25.95292],[91.67174,25.90428],[91.61368,25.93888],[91.6405,25.96378],[91.62731,25.98483],[91.63479,26.02135],[91.59972,26.01603],[91.57854,26.03211],[91.5539,25.97391],[91.52115,25.95719],[91.50426,25.91981],[91.53851,25.93303],[91.53393,25.92275],[91.47735,25.87031],[91.51034,25.86649],[91.53515,25.88309],[91.47227,25.85783],[91.47507,25.98994],[91.45527,26.04467],[91.48022,26.05132],[91.50575,26.02667],[91.52402,26.03033],[91.5455,26.13835],[91.56539,26.14225],[91.62069,26.10674],[91.74706,26.19439],[91.89245,26.21893],[91.92666,26.24576],[91.96001,26.24782],[91.96025,26.24368]]]}},{"type":"Feature","properties":{"DISTRICT":"Karbi Anglong","ST_NM":"Assam","ST_CEN_CD":18,"DT_CEN_CD":15,"censuscode":314},"geometry":{"type":"MultiPolygon","coordinates":[[[[93.72389,26.60355],[93.75361,26.57891],[93.73589,26.53752],[93.76022,26.52718],[93.79463,26.4409],[93.78632,26.41302],[93.80264,26.41005],[93.77721,26.38388],[93.79548,26.37719],[93.83345,26.41697],[93.8702,26.38955],[93.88518,26.39386],[93.89487,26.37229],[93.88556,26.34188],[93.89764,26.31682],[93.87061,26.29657],[93.88479,26.27227],[93.85015,26.24077],[93.8647,26.23569],[93.82461,26.17464],[93.83872,26.15847],[93.83116,26.12994],[93.79563,26.04091],[93.78307,26.03898],[93.79905,26.03233],[93.78475,26.00752],[93.80461,26.00053],[93.80452,25.97656],[93.78424,25.97994],[93.75199,25.93228],[93.68784,25.90545],[93.70553,25.84456],[93.64109,25.81396],[93.60562,25.76354],[93.57333,25.75693],[93.49996,25.65274],[93.4276,25.6278],[93.40689,25.59283],[93.32259,25.52972],[93.2979,25.54472],[93.27769,25.52885],[93.26528,25.54518],[93.21276,25.544],[93.17309,25.59531],[93.1913,25.62891],[93.13337,25.68376],[93.14514,25.7129],[93.18505,25.72947],[93.22299,25.72521],[93.25135,25.80761],[93.23679,25.85306],[93.18795,25.90226],[93.16018,25.99044],[93.12537,26.03135],[93.09647,26.03197],[93.10829,26.07499],[93.04597,26.08593],[93.03891,26.10649],[92.93425,26.14104],[92.95768,26.16943],[92.94434,26.20076],[92.80328,26.2021],[92.79957,26.2215],[92.82909,26.22353],[92.82193,26.26517],[92.85025,26.30427],[92.88438,26.28552],[92.9441,26.32665],[92.94341,26.35079],[92.91412,26.35725],[92.92895,26.38035],[92.88535,26.37934],[92.90527,26.3992],[92.9522,26.3963],[92.98136,26.42127],[93.0248,26.42138],[93.04731,26.43743],[93.05255,26.41458],[93.06786,26.41655],[93.09768,26.4345],[93.07641,26.43376],[93.11891,26.44055],[93.10959,26.44922],[93.13156,26.46438],[93.11551,26.47194],[93.14054,26.48395],[93.12853,26.49714],[93.1059,26.45988],[93.06795,26.47749],[93.09317,26.50003],[93.01249,26.48209],[93.04705,26.5354],[93.09344,26.54335],[93.12104,26.52904],[93.18926,26.56746],[93.21394,26.55603],[93.16675,26.52165],[93.19756,26.5355],[93.21938,26.50718],[93.21532,26.52888],[93.23747,26.53519],[93.29517,26.5023],[93.29525,26.51736],[93.2724,26.52725],[93.27913,26.54196],[93.26094,26.53044],[93.26063,26.55049],[93.24111,26.54915],[93.25396,26.56809],[93.33711,26.58267],[93.40413,26.58056],[93.41374,26.56753],[93.46979,26.58569],[93.46657,26.56852],[93.49576,26.58824],[93.47345,26.59356],[93.49897,26.6118],[93.51253,26.59336],[93.5893,26.60355],[93.58812,26.5684],[93.61614,26.5767],[93.62349,26.56473],[93.63789,26.59682],[93.71942,26.60441],[93.72389,26.60355]]],[[[92.52999,26.13996],[92.5234,26.10166],[92.57586,26.11375],[92.59928,26.07611],[92.58325,26.03473],[92.59479,26.02184],[92.56968,26.0065],[92.56032,25.964],[92.59374,25.96447],[92.65844,25.99861],[92.67087,26.02801],[92.71399,26.01807],[92.71942,26.05662],[92.75269,26.06104],[92.76031,26.01643],[92.78479,26.00943],[92.76311,26.00411],[92.78071,25.99666],[92.76395,25.99005],[92.7657,25.96181],[92.77642,25.94993],[92.80939,25.9572],[92.79431,25.93638],[92.80518,25.91863],[92.85922,25.92182],[92.84952,25.90469],[92.87206,25.86641],[92.98717,25.87513],[93.03482,25.80838],[93.07819,25.77673],[93.01101,25.79139],[92.99268,25.82326],[92.98604,25.78324],[92.95881,25.80053],[92.96769,25.81655],[92.93145,25.80756],[92.92215,25.77074],[92.82232,25.73993],[92.81282,25.70195],[92.77789,25.6779],[92.78855,25.65549],[92.74729,25.59746],[92.69836,25.59819],[92.66483,25.57159],[92.64926,25.58998],[92.58842,25.5507],[92.56195,25.57202],[92.55868,25.60975],[92.50282,25.62078],[92.46669,25.68038],[92.43561,25.68549],[92.43451,25.72942],[92.38654,25.7516],[92.33498,25.72333],[92.23056,25.71445],[92.16228,25.67017],[92.15486,25.8111],[92.18169,25.86849],[92.22729,25.90533],[92.16181,25.91355],[92.16936,25.96605],[92.38815,26.13966],[92.41354,26.13551],[92.40605,26.11771],[92.43186,26.11028],[92.47118,26.14626],[92.53061,26.14285],[92.52999,26.13996]]]]}},{"type":"Feature","properties":{"DISTRICT":"Karimganj","ST_NM":"Assam","ST_CEN_CD":18,"DT_CEN_CD":18,"censuscode":317},"geometry":{"type":"Polygon","coordinates":[[[92.49894,24.87397],[92.52584,24.85871],[92.56031,24.8721],[92.58904,24.85813],[92.54505,24.79864],[92.54494,24.75995],[92.49722,24.67947],[92.5191,24.56701],[92.50042,24.40013],[92.47667,24.32284],[92.42529,24.25008],[92.21282,24.24764],[92.27312,24.38665],[92.22906,24.47023],[92.23958,24.48816],[92.22154,24.60527],[92.24006,24.64399],[92.22617,24.67998],[92.26607,24.71244],[92.26583,24.77414],[92.28309,24.78719],[92.27176,24.82871],[92.24749,24.83305],[92.23699,24.86102],[92.25343,24.88148],[92.24364,24.90394],[92.30766,24.91625],[92.39605,24.85506],[92.45736,24.87579],[92.49777,24.86792],[92.49894,24.87397]]]}},{"type":"Feature","properties":{"DISTRICT":"Kokrajhar","ST_NM":"Assam","ST_CEN_CD":18,"DT_CEN_CD":1,"censuscode":300},"geometry":{"type":"Polygon","coordinates":[[[90.42509,26.89857],[90.43312,26.7467],[90.35605,26.61853],[90.36808,26.58322],[90.35376,26.56075],[90.39161,26.52946],[90.38636,26.51676],[90.40249,26.51666],[90.39461,26.48352],[90.41011,26.43324],[90.38193,26.36988],[90.42909,26.35993],[90.37702,26.31919],[90.3767,26.29405],[90.32823,26.27807],[90.31909,26.29943],[90.35835,26.34944],[90.34697,26.37038],[90.28721,26.32156],[90.25749,26.3347],[90.24068,26.32375],[90.2214,26.32934],[90.23123,26.34954],[90.21894,26.35036],[90.23631,26.36522],[90.2229,26.38378],[90.1912,26.34522],[90.15435,26.35296],[90.10509,26.3266],[90.15093,26.2868],[90.12188,26.25784],[90.13479,26.19634],[90.07171,26.1727],[90.04427,26.13092],[89.98622,26.14502],[89.88419,26.13674],[89.86878,26.15275],[89.8701,26.2325],[89.85319,26.25534],[89.86939,26.26028],[89.90027,26.33698],[89.8518,26.40268],[89.83229,26.3964],[89.87453,26.44834],[89.8578,26.4877],[89.86722,26.57778],[89.88275,26.58413],[89.88249,26.61294],[89.86231,26.6233],[89.88166,26.64939],[89.86232,26.70367],[89.86787,26.73688],[89.96315,26.72303],[90.13308,26.74887],[90.19394,26.77039],[90.18932,26.80954],[90.22012,26.8535],[90.30672,26.84801],[90.36028,26.89587],[90.4149,26.90167],[90.42509,26.89857]]]}},{"type":"Feature","properties":{"DISTRICT":"Lakhimpur","ST_NM":"Assam","ST_CEN_CD":18,"DT_CEN_CD":8,"censuscode":307},"geometry":{"type":"Polygon","coordinates":[[[94.32689,27.33565],[94.46252,27.30487],[94.50299,27.32657],[94.52525,27.29343],[94.5209,27.26275],[94.58063,27.21371],[94.58068,27.19226],[94.52586,27.15854],[94.53425,27.14635],[94.51332,27.13992],[94.50983,27.12029],[94.48488,27.13752],[94.47133,27.11416],[94.43323,27.11671],[94.41906,27.09074],[94.36861,27.09754],[94.3252,27.08734],[94.3142,27.06989],[94.26756,27.0921],[94.23953,27.07316],[94.22585,27.03178],[94.19125,27.03562],[94.18709,27.00041],[94.13868,26.98938],[94.13535,26.96917],[94.07911,26.96023],[94.0542,26.97915],[94.02899,26.95618],[94.02699,26.92991],[93.99994,26.93985],[93.97661,26.92342],[93.92426,26.92654],[93.89401,26.89053],[93.89416,26.86467],[93.84344,26.85207],[93.82662,26.8252],[93.77371,26.84369],[93.79041,26.85745],[93.78098,26.88447],[93.74645,26.90044],[93.74489,26.95828],[93.70508,26.98508],[93.70746,27.00526],[93.77036,27.04017],[93.77558,27.05924],[93.7893,27.05108],[93.83395,27.06968],[93.81061,27.14868],[94.00217,27.33157],[94.06308,27.36036],[94.15947,27.47486],[94.27058,27.51569],[94.28449,27.45781],[94.32184,27.42297],[94.32463,27.34363],[94.32689,27.33565]]]}},{"type":"Feature","properties":{"DISTRICT":"Marigaon","ST_NM":"Assam","ST_CEN_CD":18,"DT_CEN_CD":5,"censuscode":304},"geometry":{"type":"Polygon","coordinates":[[[92.40234,26.13816],[92.37369,26.13069],[92.31419,26.07427],[92.18252,26.06688],[92.17038,26.16336],[92.08392,26.17757],[92.09446,26.18777],[92.04851,26.21336],[92.04603,26.19933],[91.99991,26.20444],[91.96195,26.22771],[91.95598,26.25371],[91.98436,26.27484],[92.04557,26.27544],[92.16513,26.4169],[92.21748,26.41475],[92.3478,26.50581],[92.42488,26.51675],[92.44266,26.48457],[92.44206,26.40507],[92.55824,26.34748],[92.50678,26.25597],[92.43845,26.24296],[92.40739,26.15035],[92.40234,26.13816]]]}},{"type":"Feature","properties":{"DISTRICT":"Nagaon","ST_NM":"Assam","ST_CEN_CD":18,"DT_CEN_CD":6,"censuscode":305},"geometry":{"type":"Polygon","coordinates":[[[93.3045,26.57824],[93.23975,26.55164],[93.26063,26.55049],[93.26094,26.53044],[93.27913,26.54196],[93.2724,26.52725],[93.29525,26.51736],[93.29517,26.5023],[93.23747,26.53519],[93.21532,26.52888],[93.21938,26.50718],[93.19756,26.5355],[93.16675,26.52165],[93.21394,26.55603],[93.18926,26.56746],[93.12104,26.52904],[93.09344,26.54335],[93.04705,26.5354],[93.01249,26.48209],[93.09317,26.50003],[93.06795,26.47749],[93.1059,26.45988],[93.12853,26.49714],[93.14054,26.48395],[93.11551,26.47194],[93.13156,26.46438],[93.10959,26.44922],[93.11891,26.44055],[93.07641,26.43376],[93.09768,26.4345],[93.06786,26.41655],[93.05255,26.41458],[93.04731,26.43743],[93.0248,26.42138],[92.98136,26.42127],[92.9522,26.3963],[92.90527,26.3992],[92.88535,26.37934],[92.92895,26.38035],[92.91412,26.35725],[92.94341,26.35079],[92.9441,26.32665],[92.88438,26.28552],[92.85025,26.30427],[92.82193,26.26517],[92.82909,26.22353],[92.79957,26.2215],[92.79735,26.20625],[92.94434,26.20076],[92.95829,26.17337],[92.93767,26.13823],[93.03891,26.10649],[93.04597,26.08593],[93.10829,26.07499],[93.09647,26.03197],[93.14298,26.01731],[93.18795,25.90226],[93.24527,25.83673],[93.2521,25.78667],[93.22299,25.72521],[93.18505,25.72947],[93.14514,25.7129],[93.1511,25.73752],[93.13159,25.76119],[93.10899,25.77419],[93.07117,25.76687],[93.078,25.78169],[93.03482,25.80838],[92.98717,25.87513],[92.87206,25.86641],[92.84952,25.90469],[92.85922,25.92182],[92.80518,25.91863],[92.79431,25.93638],[92.80648,25.96028],[92.77106,25.95276],[92.76395,25.99005],[92.78071,25.99666],[92.76222,26.00059],[92.78479,26.00943],[92.76031,26.01643],[92.75269,26.06104],[92.71942,26.05662],[92.71399,26.01807],[92.67087,26.02801],[92.65844,25.99861],[92.57329,25.96068],[92.55223,25.97013],[92.57283,26.01174],[92.59479,26.02184],[92.58325,26.03473],[92.59928,26.07611],[92.57586,26.11375],[92.5234,26.10166],[92.52293,26.15011],[92.47118,26.14626],[92.43186,26.11028],[92.40605,26.11771],[92.43262,26.23492],[92.50678,26.25597],[92.55824,26.34748],[92.44206,26.40507],[92.44266,26.48457],[92.42488,26.51675],[92.45351,26.51847],[92.47537,26.4954],[92.52897,26.50919],[92.58097,26.5],[92.66615,26.52018],[92.68774,26.50859],[92.72701,26.53515],[92.75563,26.51171],[92.77367,26.55621],[92.91941,26.59589],[92.95364,26.61843],[93.11548,26.57447],[93.21817,26.62547],[93.24689,26.68369],[93.29849,26.69835],[93.32171,26.67881],[93.31659,26.6401],[93.28842,26.6349],[93.30642,26.58057],[93.3045,26.57824]]]}},{"type":"Feature","properties":{"DISTRICT":"Nalbari","ST_NM":"Assam","ST_CEN_CD":18,"DT_CEN_CD":24,"censuscode":323},"geometry":{"type":"Polygon","coordinates":[[[91.56625,26.55826],[91.55438,26.5468],[91.55366,26.47318],[91.56688,26.43316],[91.52786,26.37794],[91.53853,26.37062],[91.52137,26.34235],[91.53649,26.33355],[91.45032,26.31289],[91.45362,26.27259],[91.41544,26.26059],[91.43373,26.23715],[91.41489,26.20273],[91.41588,26.13622],[91.35866,26.16438],[91.28885,26.15819],[91.23263,26.17703],[91.2516,26.19911],[91.21797,26.22076],[91.24264,26.25654],[91.21863,26.26787],[91.26385,26.29056],[91.25388,26.29905],[91.28273,26.3698],[91.25115,26.36712],[91.23573,26.43968],[91.26931,26.48948],[91.29213,26.50834],[91.30532,26.49277],[91.34335,26.49777],[91.3511,26.51883],[91.40476,26.52962],[91.45967,26.58132],[91.49859,26.53133],[91.52368,26.54279],[91.53244,26.57125],[91.56422,26.575],[91.5661,26.5589],[91.56625,26.55826]]]}},{"type":"Feature","properties":{"DISTRICT":"Sivasagar","ST_NM":"Assam","ST_CEN_CD":18,"DT_CEN_CD":12,"censuscode":311},"geometry":{"type":"Polygon","coordinates":[[[95.37156,27.10533],[95.3135,27.08076],[95.2485,27.02432],[95.23123,27.03984],[95.21414,27.02763],[95.19587,27.03716],[95.11037,26.96118],[95.02168,26.9198],[94.98602,26.91272],[94.92864,26.94675],[94.89496,26.93202],[94.82151,26.84919],[94.80257,26.80076],[94.75671,26.76702],[94.74616,26.77692],[94.68695,26.72743],[94.62867,26.71357],[94.6105,26.73512],[94.58623,26.72559],[94.57609,26.75178],[94.55127,26.74739],[94.51609,26.77475],[94.52424,26.80744],[94.49037,26.83147],[94.49826,26.86944],[94.48218,26.93393],[94.40237,26.9516],[94.54658,27.074],[94.61784,27.17585],[94.64661,27.24655],[94.68222,27.2444],[94.69958,27.27087],[94.72094,27.24451],[94.72189,27.26477],[94.75232,27.27194],[94.7425,27.24528],[94.77949,27.2386],[94.78122,27.17159],[94.758,27.15088],[94.76581,27.12752],[94.82065,27.11412],[94.81418,27.09881],[94.84305,27.09459],[94.88748,27.15664],[94.97016,27.2287],[94.98973,27.14626],[95.05049,27.15365],[95.06231,27.13562],[95.16509,27.12673],[95.18481,27.16159],[95.24048,27.1693],[95.24248,27.18762],[95.2894,27.19681],[95.35933,27.16755],[95.37376,27.10998],[95.37156,27.10533]]]}},{"type":"Feature","properties":{"DISTRICT":"Sonitpur","ST_NM":"Assam","ST_CEN_CD":18,"DT_CEN_CD":7,"censuscode":306},"geometry":{"type":"Polygon","coordinates":[[[92.3635,26.58561],[92.40874,26.64199],[92.33327,26.80158],[92.36225,26.92462],[92.40289,26.92478],[92.4627,26.96178],[92.58822,26.96019],[92.64844,26.98574],[92.64213,27.01686],[92.66197,27.03683],[92.77201,27.03122],[92.87521,27.00575],[92.91936,26.98263],[92.92042,26.96219],[93.02183,26.91463],[93.09426,26.91324],[93.35011,26.96065],[93.49138,26.93572],[93.67763,26.96801],[93.70015,26.99173],[93.74489,26.95828],[93.74645,26.90044],[93.78098,26.88447],[93.79041,26.85745],[93.74677,26.80066],[93.71273,26.81748],[93.69736,26.7977],[93.65155,26.78906],[93.67361,26.71267],[93.65149,26.70491],[93.56748,26.72381],[93.51111,26.76035],[93.43357,26.74449],[93.40518,26.75293],[93.3493,26.73154],[93.33771,26.70745],[93.24689,26.68369],[93.21817,26.62547],[93.11548,26.57447],[92.95364,26.61843],[92.91941,26.59589],[92.77367,26.55621],[92.75563,26.51171],[92.72701,26.53515],[92.68774,26.50859],[92.66615,26.52018],[92.47537,26.4954],[92.44819,26.51996],[92.32813,26.50927],[92.38585,26.53451],[92.35816,26.57173],[92.36382,26.58564],[92.3635,26.58561]]]}},{"type":"Feature","properties":{"DISTRICT":"Tinsukia","ST_NM":"Assam","ST_CEN_CD":18,"DT_CEN_CD":10,"censuscode":309},"geometry":{"type":"Polygon","coordinates":[[[95.88199,27.54684],[95.89017,27.49966],[95.84977,27.42374],[95.8677,27.4105],[95.88907,27.43744],[95.89338,27.39932],[95.91721,27.43645],[95.95024,27.43824],[95.96829,27.41725],[95.97808,27.42864],[96.02104,27.36415],[95.99709,27.35641],[95.96329,27.30999],[95.90652,27.28489],[95.89402,27.25599],[95.87245,27.25996],[95.86061,27.28733],[95.81036,27.27414],[95.80647,27.28499],[95.59946,27.22324],[95.53524,27.26446],[95.49144,27.24261],[95.47382,27.26285],[95.45802,27.23215],[95.44712,27.25229],[95.46586,27.27135],[95.45168,27.29488],[95.47046,27.30611],[95.45307,27.33001],[95.47669,27.34239],[95.4742,27.36432],[95.44122,27.36292],[95.39739,27.39131],[95.37658,27.38049],[95.31535,27.39122],[95.29638,27.41161],[95.2707,27.40547],[95.22182,27.45781],[95.23205,27.49607],[95.27236,27.52519],[95.2789,27.57293],[95.32283,27.58732],[95.27759,27.6824],[95.42135,27.73824],[95.45973,27.77438],[95.48782,27.84429],[95.51691,27.85743],[95.52796,27.893],[95.60851,27.95283],[95.82747,27.97203],[95.97887,27.9628],[95.92987,27.88477],[95.82436,27.80354],[95.78171,27.75249],[95.78594,27.73401],[95.75936,27.72538],[95.77559,27.69085],[95.79416,27.68638],[95.77883,27.66034],[95.80237,27.643],[95.788,27.61737],[95.82499,27.59687],[95.82199,27.57553],[95.87426,27.5448],[95.88199,27.54684]]]}},{"type":"Feature","properties":{"DISTRICT":"Udalguri","ST_NM":"Assam","ST_CEN_CD":18,"DT_CEN_CD":27,"censuscode":326},"geometry":{"type":"Polygon","coordinates":[[[92.3527,26.90567],[92.33327,26.80158],[92.40874,26.64199],[92.3635,26.58561],[92.32808,26.59166],[92.34275,26.59719],[92.32509,26.61395],[92.33292,26.64081],[92.34538,26.63696],[92.3358,26.66873],[92.30556,26.67507],[92.29319,26.63037],[92.24916,26.57903],[92.23785,26.6251],[92.18939,26.66878],[92.07634,26.62869],[92.0483,26.5925],[92.06089,26.54546],[92.08622,26.5604],[92.09898,26.55097],[92.08078,26.51244],[92.09009,26.48485],[92.06984,26.48718],[92.0635,26.51915],[92.01516,26.56741],[91.96519,26.55359],[91.93046,26.57467],[91.7891,26.49942],[91.78174,26.54792],[91.74266,26.60114],[91.74668,26.68317],[91.70788,26.81092],[91.80561,26.85106],[91.86145,26.91302],[91.90091,26.91508],[91.98904,26.85711],[92.0489,26.84634],[92.09229,26.85975],[92.11127,26.89259],[92.19814,26.88968],[92.25781,26.91087],[92.2796,26.90108],[92.30696,26.90813],[92.30609,26.92281],[92.36761,26.93125],[92.35607,26.91076],[92.3527,26.90567]]]}}]}
