{"type":"FeatureCollection","properties":{"source":"DataMeet Community Maps Project - Districts/Census_2011","state":"Bihar","stateSlug":"bihar"},"features":[{"type":"Feature","properties":{"DISTRICT":"Araria","ST_NM":"Bihar","ST_CEN_CD":10,"DT_CEN_CD":7,"censuscode":209},"geometry":{"type":"Polygon","coordinates":[[[87.64834,26.39293],[87.60574,26.35087],[87.62195,26.32299],[87.6573,26.30561],[87.65959,26.26404],[87.69612,26.19748],[87.68227,26.18287],[87.6976,26.16792],[87.68394,26.165],[87.67143,26.08297],[87.62926,26.08421],[87.63714,26.07434],[87.61606,26.05961],[87.62228,26.02393],[87.51746,25.97079],[87.50283,25.98707],[87.48889,25.97364],[87.41175,25.98995],[87.39185,25.9546],[87.35167,25.98064],[87.30939,25.97931],[87.28543,25.95961],[87.26787,25.98402],[87.23031,25.94376],[87.21409,25.95787],[87.16429,25.9422],[87.10341,25.96876],[87.08175,25.96045],[87.06134,25.98177],[87.08854,26.03699],[87.11632,26.04515],[87.08564,26.06762],[87.1111,26.09646],[87.06033,26.10903],[87.10005,26.13898],[87.11201,26.18497],[87.08231,26.18857],[87.09521,26.20306],[87.06456,26.2524],[87.06911,26.29594],[87.0389,26.31974],[87.04615,26.33582],[87.06992,26.33813],[87.06199,26.36421],[87.07527,26.37662],[87.05634,26.41048],[87.07576,26.40717],[87.05629,26.43199],[87.0671,26.46136],[87.04613,26.50372],[87.06143,26.53801],[87.03784,26.56128],[87.04569,26.58721],[87.07237,26.58646],[87.09246,26.45211],[87.15751,26.40573],[87.25718,26.41218],[87.26676,26.37374],[87.31361,26.37186],[87.34116,26.34831],[87.37016,26.40742],[87.46288,26.43968],[87.54969,26.41862],[87.59035,26.38243],[87.64553,26.393],[87.64834,26.39293]]]}},{"type":"Feature","properties":{"DISTRICT":"Arwal","ST_NM":"Bihar","ST_CEN_CD":10,"DT_CEN_CD":38,"censuscode":240},"geometry":{"type":"Polygon","coordinates":[[[84.87951,25.08007],[84.86755,25.05989],[84.81517,25.07139],[84.78334,25.06476],[84.77074,25.04597],[84.73882,25.05462],[84.73946,25.07127],[84.68637,25.10326],[84.65718,25.10578],[84.6321,25.08273],[84.62355,25.10641],[84.59304,25.0734],[84.59869,25.10384],[84.57021,25.11884],[84.47802,25.09044],[84.46352,25.10186],[84.47569,25.11521],[84.44808,25.12849],[84.49183,25.18768],[84.62769,25.23515],[84.70508,25.31538],[84.72469,25.28855],[84.68981,25.27096],[84.69031,25.2557],[84.73552,25.25203],[84.74274,25.26782],[84.7882,25.25298],[84.78616,25.23688],[84.74939,25.23552],[84.72484,25.20413],[84.77364,25.22199],[84.80995,25.21514],[84.83741,25.23357],[84.86166,25.22184],[84.88055,25.0876],[84.87951,25.08007]]]}},{"type":"Feature","properties":{"DISTRICT":"Aurangabad","ST_NM":"Bihar","ST_CEN_CD":10,"DT_CEN_CD":33,"censuscode":235},"geometry":{"type":"Polygon","coordinates":[[[84.70468,25.04266],[84.72721,25.01346],[84.75372,25.01425],[84.73037,24.98019],[84.7376,24.95917],[84.71185,24.95701],[84.70512,24.90394],[84.66484,24.89009],[84.66546,24.87191],[84.6405,24.87756],[84.67505,24.83381],[84.69435,24.83214],[84.70345,24.80151],[84.73318,24.79519],[84.73351,24.7669],[84.71689,24.76603],[84.72287,24.70079],[84.68958,24.67808],[84.64592,24.67792],[84.63652,24.65299],[84.60382,24.6563],[84.59713,24.59719],[84.56498,24.56951],[84.58131,24.56383],[84.56822,24.54488],[84.48958,24.514],[84.46856,24.53739],[84.44998,24.53206],[84.43867,24.5728],[84.42367,24.55241],[84.40463,24.5721],[84.37102,24.51015],[84.32928,24.48928],[84.3006,24.5654],[84.27688,24.56365],[84.28772,24.55134],[84.26477,24.53019],[84.24266,24.55257],[84.21658,24.53655],[84.20756,24.55638],[84.18056,24.54648],[84.18691,24.50981],[84.1613,24.517],[84.17209,24.53307],[84.15375,24.53962],[84.14762,24.50416],[84.10858,24.48726],[84.0545,24.61146],[84,24.63712],[84.08958,24.77036],[84.31465,25.01622],[84.42549,25.07855],[84.44808,25.12849],[84.47569,25.11521],[84.46352,25.10186],[84.47802,25.09044],[84.57021,25.11884],[84.59869,25.10384],[84.59304,25.0734],[84.62355,25.10641],[84.6321,25.08273],[84.65718,25.10578],[84.68637,25.10326],[84.73946,25.07127],[84.73495,25.04539],[84.70513,25.04614],[84.70468,25.04266]]]}},{"type":"Feature","properties":{"DISTRICT":"Banka","ST_NM":"Bihar","ST_CEN_CD":10,"DT_CEN_CD":23,"censuscode":225},"geometry":{"type":"Polygon","coordinates":[[[87.17435,25.04932],[87.15027,25.01856],[87.15691,24.85917],[87.12045,24.85628],[87.08454,24.82301],[87.08329,24.80913],[87.10263,24.80227],[87.0606,24.6715],[87.05632,24.60773],[87.03023,24.62206],[87.01609,24.60721],[86.93608,24.64371],[86.9401,24.62743],[86.90404,24.58747],[86.91711,24.53966],[86.88238,24.56827],[86.86061,24.55142],[86.84306,24.56921],[86.80631,24.56552],[86.81182,24.5954],[86.7832,24.62062],[86.75697,24.61883],[86.73768,24.57669],[86.65191,24.56808],[86.61312,24.59517],[86.61356,24.66347],[86.55162,24.71337],[86.54621,24.77211],[86.49576,24.7587],[86.50255,24.78319],[86.5272,24.788],[86.53605,24.85853],[86.52453,24.88476],[86.48801,24.90774],[86.50015,24.92144],[86.49318,24.97173],[86.53115,24.98396],[86.54579,24.95081],[86.5674,24.95905],[86.58618,24.94576],[86.60147,24.94884],[86.60566,24.9726],[86.62559,24.96232],[86.64346,24.97491],[86.65087,25.01079],[86.66828,25.01183],[86.65731,25.06714],[86.69286,25.11256],[86.73071,25.1111],[86.74028,25.12377],[86.77669,25.09821],[86.80998,25.11315],[87.06932,25.10359],[87.12444,25.09355],[87.17279,25.05121],[87.17435,25.04932]]]}},{"type":"Feature","properties":{"DISTRICT":"Begusarai","ST_NM":"Bihar","ST_CEN_CD":10,"DT_CEN_CD":20,"censuscode":222},"geometry":{"type":"Polygon","coordinates":[[[86.293,25.63968],[86.28094,25.59696],[86.30053,25.57482],[86.28682,25.57916],[86.2959,25.52663],[86.33371,25.51837],[86.33827,25.48747],[86.36674,25.50001],[86.34958,25.48549],[86.3567,25.47439],[86.37048,25.49328],[86.36859,25.47952],[86.38639,25.48112],[86.40156,25.5054],[86.42602,25.50014],[86.42271,25.47772],[86.51573,25.41456],[86.48211,25.41356],[86.46322,25.39039],[86.41657,25.39476],[86.39111,25.36363],[86.3895,25.38068],[86.37038,25.35682],[86.31503,25.33455],[86.32221,25.32294],[86.29879,25.2973],[86.20581,25.25017],[86.17056,25.2719],[86.17084,25.25904],[86.13025,25.26932],[86.10261,25.31169],[86.07901,25.30988],[86.05194,25.39086],[86.01912,25.35812],[85.95588,25.41516],[85.90559,25.43273],[85.88762,25.42305],[85.87617,25.46865],[85.90445,25.46188],[85.88613,25.50194],[85.80496,25.54694],[85.75624,25.54397],[85.73588,25.52666],[85.77547,25.58815],[85.84331,25.57623],[85.84774,25.60467],[85.82786,25.61776],[85.84264,25.64503],[85.86996,25.64797],[85.87162,25.66554],[85.87675,25.63671],[85.89132,25.65382],[85.91335,25.64169],[85.94613,25.65266],[86.01975,25.59127],[86.02986,25.66139],[86.01262,25.6609],[86.01237,25.67338],[86.03365,25.69335],[86.01573,25.71936],[86.05349,25.73405],[86.08632,25.72716],[86.08121,25.74398],[86.13696,25.73586],[86.1437,25.7506],[86.10925,25.75814],[86.10841,25.77518],[86.14101,25.7672],[86.13376,25.75898],[86.15169,25.76522],[86.16056,25.73395],[86.14874,25.71075],[86.18224,25.71194],[86.19401,25.66259],[86.28134,25.62904],[86.29344,25.63856],[86.293,25.63968]]]}},{"type":"Feature","properties":{"DISTRICT":"Bhagalpur","ST_NM":"Bihar","ST_CEN_CD":10,"DT_CEN_CD":22,"censuscode":224},"geometry":{"type":"Polygon","coordinates":[[[87.23166,25.4515],[87.20513,25.4151],[87.23824,25.37543],[87.27761,25.36974],[87.26705,25.35138],[87.29563,25.39857],[87.36854,25.42298],[87.36733,25.40842],[87.41048,25.3801],[87.43638,25.38041],[87.44644,25.36178],[87.53074,25.35557],[87.52923,25.34183],[87.55344,25.33137],[87.54569,25.28209],[87.49609,25.30564],[87.48751,25.29561],[87.50169,25.26295],[87.47862,25.24137],[87.47358,25.19367],[87.39782,25.22799],[87.37593,25.20554],[87.32955,25.22355],[87.29712,25.08984],[87.25663,25.10639],[87.17435,25.04932],[87.12444,25.09355],[87.06932,25.10359],[86.80998,25.11315],[86.77669,25.09821],[86.7485,25.12221],[86.73071,25.1111],[86.68128,25.12204],[86.70175,25.16732],[86.73558,25.18424],[86.70262,25.18798],[86.69681,25.20282],[86.68505,25.18911],[86.63925,25.23806],[86.7222,25.24498],[86.76707,25.26836],[86.78101,25.27637],[86.78541,25.32466],[86.81565,25.32942],[86.85707,25.36279],[86.82148,25.41679],[86.82989,25.45853],[86.91611,25.47369],[86.91204,25.49174],[86.92614,25.49388],[86.97441,25.46317],[87.01927,25.48077],[87.02228,25.46175],[87.07348,25.46941],[87.10253,25.51446],[87.09041,25.44131],[87.1897,25.44004],[87.21606,25.45642],[87.23166,25.4515]]]}},{"type":"Feature","properties":{"DISTRICT":"Bhojpur","ST_NM":"Bihar","ST_CEN_CD":10,"DT_CEN_CD":29,"censuscode":231},"geometry":{"type":"Polygon","coordinates":[[[84.2755,25.35954],[84.29457,25.38948],[84.30773,25.38705],[84.31068,25.42154],[84.34936,25.43275],[84.36193,25.46432],[84.33187,25.51712],[84.35293,25.6198],[84.33998,25.62777],[84.35319,25.63879],[84.32902,25.65546],[84.35054,25.65921],[84.35473,25.6774],[84.33939,25.68305],[84.36213,25.68403],[84.38957,25.73252],[84.41025,25.69781],[84.43195,25.69342],[84.43253,25.71004],[84.45711,25.71283],[84.47483,25.68388],[84.49765,25.68949],[84.49669,25.67626],[84.53288,25.68278],[84.54418,25.72489],[84.53969,25.69125],[84.5606,25.68248],[84.56393,25.73482],[84.60382,25.73754],[84.59948,25.72665],[84.63116,25.7056],[84.74756,25.70773],[84.78631,25.68482],[84.85376,25.69544],[84.85035,25.67807],[84.82537,25.67047],[84.84311,25.6557],[84.8234,25.63277],[84.81895,25.57502],[84.75963,25.51033],[84.77825,25.44697],[84.72556,25.33473],[84.67596,25.29914],[84.62769,25.23515],[84.52115,25.20516],[84.46568,25.1613],[84.40794,25.19326],[84.35813,25.192],[84.32117,25.21535],[84.33644,25.29765],[84.32207,25.32093],[84.28246,25.32894],[84.27887,25.35346],[84.2755,25.35954]]]}},{"type":"Feature","properties":{"DISTRICT":"Buxar","ST_NM":"Bihar","ST_CEN_CD":10,"DT_CEN_CD":30,"censuscode":232},"geometry":{"type":"Polygon","coordinates":[[[84.39695,25.74255],[84.36213,25.68403],[84.33939,25.68305],[84.35473,25.6774],[84.35054,25.65921],[84.32902,25.65546],[84.35319,25.63879],[84.33998,25.62777],[84.35293,25.6198],[84.33187,25.51712],[84.36193,25.46432],[84.34936,25.43275],[84.31068,25.42154],[84.30773,25.38705],[84.29057,25.38566],[84.2847,25.36226],[84.23065,25.34506],[84.21365,25.36472],[84.14008,25.37106],[84.09783,25.3583],[84.04618,25.37395],[84.05212,25.34631],[84.03533,25.33852],[84.05837,25.29702],[84.01639,25.26186],[83.89984,25.29318],[83.80909,25.3702],[83.78029,25.36717],[83.77183,25.39671],[83.80773,25.4091],[83.80108,25.42826],[83.84773,25.4369],[83.81395,25.45178],[83.82073,25.46597],[83.8595,25.47182],[83.88136,25.51847],[83.92942,25.55979],[84.08494,25.63565],[84.07812,25.69367],[84.10288,25.71845],[84.1436,25.72972],[84.1442,25.71498],[84.15672,25.72906],[84.20276,25.70156],[84.21133,25.66782],[84.29395,25.6598],[84.29197,25.67539],[84.32695,25.67022],[84.33972,25.7428],[84.37792,25.73427],[84.38842,25.74695],[84.39695,25.74255]]]}},{"type":"Feature","properties":{"DISTRICT":"Darbhanga","ST_NM":"Bihar","ST_CEN_CD":10,"DT_CEN_CD":13,"censuscode":215},"geometry":{"type":"Polygon","coordinates":[[[85.76888,26.43558],[85.75891,26.40384],[85.81644,26.41136],[85.8151,26.39525],[85.83789,26.38207],[85.81709,26.3757],[85.83102,26.36132],[85.81887,26.34738],[85.83982,26.34385],[85.81814,26.32925],[85.813,26.29671],[85.88077,26.27702],[85.91677,26.287],[85.91806,26.31113],[85.96253,26.30842],[85.98833,26.32498],[86.01825,26.30167],[86.00291,26.2669],[86.04369,26.23923],[86.02589,26.19915],[86.04937,26.19527],[86.05624,26.21316],[86.08001,26.21838],[86.10981,26.19607],[86.15002,26.23945],[86.16895,26.22757],[86.24131,26.23182],[86.24061,26.20114],[86.32666,26.15284],[86.31929,26.10577],[86.37744,26.04419],[86.37762,25.95994],[86.40707,25.93078],[86.38246,25.92375],[86.36513,25.93723],[86.31115,25.86682],[86.29915,25.90184],[86.26744,25.9075],[86.2124,25.88798],[86.17533,25.89399],[86.16304,25.87953],[86.1547,25.89574],[86.1096,25.89396],[86.10294,25.91086],[86.09292,25.8966],[86.03959,25.94716],[86.00423,25.93211],[85.98155,25.93657],[85.97508,25.955],[85.93554,25.95294],[85.93185,25.96619],[85.92016,25.95542],[85.91328,25.97914],[85.87107,25.98604],[85.86679,26.02204],[85.8449,26.02156],[85.84587,26.03582],[85.83009,26.02578],[85.7643,26.03993],[85.76419,26.05634],[85.75542,26.03243],[85.7416,26.04826],[85.72977,26.0367],[85.71384,26.0984],[85.75438,26.14421],[85.72359,26.16495],[85.72713,26.20099],[85.6993,26.22958],[85.7189,26.25009],[85.69608,26.2576],[85.71813,26.2729],[85.7047,26.30662],[85.72926,26.31192],[85.73197,26.34182],[85.67314,26.35378],[85.71746,26.35911],[85.69231,26.377],[85.68872,26.40296],[85.71024,26.44595],[85.7667,26.43481],[85.76888,26.43558]]]}},{"type":"Feature","properties":{"DISTRICT":"Gaya","ST_NM":"Bihar","ST_CEN_CD":10,"DT_CEN_CD":34,"censuscode":236},"geometry":{"type":"MultiPolygon","coordinates":[[[[85.18493,25.07183],[85.17697,25.05459],[85.20476,25.0532],[85.20229,25.03372],[85.23558,25.05497],[85.25098,25.00868],[85.26698,25.03452],[85.32401,25.02538],[85.34186,25.00688],[85.36318,25.01879],[85.36545,24.98991],[85.39012,24.99085],[85.38316,24.89829],[85.36865,24.88271],[85.33776,24.88273],[85.34253,24.86224],[85.298,24.79038],[85.28063,24.78502],[85.27021,24.75037],[85.29747,24.7496],[85.33273,24.71241],[85.32691,24.6684],[85.29595,24.67233],[85.32594,24.65011],[85.30383,24.63343],[85.33002,24.58104],[85.31842,24.56225],[85.37773,24.55353],[85.3975,24.5424],[85.38982,24.53276],[85.29514,24.52858],[85.28905,24.49741],[85.2536,24.49547],[85.23104,24.47139],[85.16004,24.4643],[85.17648,24.42968],[85.12219,24.40923],[85.09655,24.37941],[85.07262,24.38696],[85.08334,24.44001],[85.06045,24.41528],[85.03928,24.42547],[84.9976,24.41234],[84.97576,24.37609],[84.95515,24.37191],[84.90165,24.37513],[84.88746,24.46278],[84.85479,24.46588],[84.8417,24.45248],[84.83996,24.51136],[84.8027,24.52933],[84.78726,24.5047],[84.68629,24.45618],[84.66562,24.39364],[84.57991,24.41216],[84.5732,24.38378],[84.52894,24.37608],[84.53289,24.33934],[84.50093,24.28695],[84.48648,24.30915],[84.50823,24.33239],[84.48514,24.31593],[84.46198,24.33846],[84.42488,24.33116],[84.43001,24.35892],[84.38972,24.38939],[84.34339,24.39549],[84.32261,24.42305],[84.33794,24.43079],[84.30077,24.45038],[84.30177,24.48028],[84.37102,24.51015],[84.40463,24.5721],[84.42367,24.55241],[84.43867,24.5728],[84.44998,24.53206],[84.46856,24.53739],[84.48958,24.514],[84.54675,24.52745],[84.59713,24.59719],[84.60382,24.6563],[84.63652,24.65299],[84.64592,24.67792],[84.68958,24.67808],[84.72287,24.70079],[84.71689,24.76603],[84.73351,24.7669],[84.73318,24.79519],[84.70345,24.80151],[84.69435,24.83214],[84.67505,24.83381],[84.6405,24.87756],[84.66546,24.87191],[84.66484,24.89009],[84.70512,24.90394],[84.71185,24.95701],[84.7376,24.95917],[84.73037,24.98019],[84.75372,25.01425],[84.72721,25.01346],[84.70513,25.04614],[84.77074,25.04597],[84.78334,25.06476],[84.81517,25.07139],[84.83506,25.05835],[84.90685,25.06484],[84.92568,25.05724],[84.90932,25.0252],[84.93916,24.98674],[84.99419,25.00818],[84.99198,25.02431],[85.01873,25.0168],[85.0426,25.03381],[85.04746,25.00354],[85.09122,24.99027],[85.12636,25.05083],[85.18338,25.07205],[85.18493,25.07183]]],[[[84.5072,24.26323],[84.49901,24.28294],[84.51003,24.26547],[84.5072,24.26323]]]]}},{"type":"Feature","properties":{"DISTRICT":"Gopalganj","ST_NM":"Bihar","ST_CEN_CD":10,"DT_CEN_CD":15,"censuscode":217},"geometry":{"type":"Polygon","coordinates":[[[84.49257,26.60246],[84.49829,26.57022],[84.51516,26.56497],[84.51288,26.53326],[84.54403,26.507],[84.54335,26.48565],[84.58078,26.48526],[84.589,26.43882],[84.66138,26.46268],[84.71496,26.42485],[84.7556,26.35202],[84.80969,26.32305],[84.81021,26.28731],[84.8371,26.28542],[84.91044,26.22393],[84.79329,26.20496],[84.75519,26.2125],[84.75693,26.23027],[84.68676,26.23887],[84.68475,26.26652],[84.65341,26.2776],[84.65666,26.30379],[84.61445,26.30351],[84.59125,26.3232],[84.55915,26.3129],[84.55658,26.29737],[84.5387,26.30569],[84.55283,26.32223],[84.53154,26.33723],[84.48762,26.33469],[84.43626,26.37413],[84.36553,26.36766],[84.36611,26.29944],[84.32284,26.3297],[84.27939,26.30596],[84.21789,26.33371],[84.21568,26.35251],[84.18943,26.36832],[84.0706,26.38756],[84.02015,26.44585],[83.9911,26.432],[83.91147,26.44755],[83.91148,26.51533],[83.94424,26.52172],[83.97178,26.50591],[83.98343,26.52924],[84.00993,26.52234],[84.05699,26.54084],[84.09181,26.59694],[84.09109,26.64017],[84.16133,26.63588],[84.15783,26.62512],[84.28144,26.59685],[84.42904,26.63526],[84.41585,26.58287],[84.4595,26.63108],[84.48992,26.60525],[84.49257,26.60246]]]}},{"type":"Feature","properties":{"DISTRICT":"Jamui","ST_NM":"Bihar","ST_CEN_CD":10,"DT_CEN_CD":36,"censuscode":238},"geometry":{"type":"Polygon","coordinates":[[[86.5033,24.97946],[86.48801,24.90774],[86.52453,24.88476],[86.53605,24.85853],[86.5272,24.788],[86.50255,24.78319],[86.49576,24.7587],[86.54621,24.77211],[86.55162,24.71337],[86.61356,24.66347],[86.61782,24.63897],[86.61551,24.60822],[86.58937,24.57361],[86.51197,24.51855],[86.4907,24.45974],[86.49478,24.42595],[86.47204,24.42283],[86.4584,24.36963],[86.42182,24.38018],[86.35703,24.44458],[86.32583,24.44103],[86.28552,24.46281],[86.31881,24.50925],[86.31047,24.55901],[86.32927,24.58479],[86.2706,24.57652],[86.22391,24.61239],[86.22223,24.59181],[86.20145,24.5858],[86.13986,24.60412],[86.12486,24.64243],[86.14023,24.67602],[86.13108,24.70564],[86.09327,24.74674],[86.04356,24.74421],[86.05974,24.76212],[86.05635,24.79453],[86.03142,24.82137],[85.97836,24.86408],[85.89808,24.86839],[85.87473,24.93417],[85.86643,24.91816],[85.82719,24.92004],[85.83106,24.94733],[85.86405,24.946],[85.83813,24.9829],[85.91203,25.01316],[85.95799,24.99905],[85.96816,25.00889],[85.98462,24.98687],[86.01178,24.99688],[86.04595,24.9667],[86.10276,24.97718],[86.12624,24.96713],[86.16374,25.05327],[86.23912,24.99533],[86.25031,25.05072],[86.31839,25.08334],[86.33221,25.11936],[86.36924,25.14354],[86.42046,25.12318],[86.39225,25.04667],[86.44062,25.02475],[86.45242,24.99403],[86.50119,24.98047],[86.5033,24.97946]]]}},{"type":"Feature","properties":{"DISTRICT":"Jehanabad","ST_NM":"Bihar","ST_CEN_CD":10,"DT_CEN_CD":37,"censuscode":239},"geometry":{"type":"Polygon","coordinates":[[[85.00574,25.32063],[85.03117,25.28552],[85.02529,25.26674],[85.06997,25.28931],[85.12188,25.27249],[85.11938,25.29644],[85.13704,25.31608],[85.18139,25.30887],[85.17739,25.27201],[85.21964,25.26224],[85.16572,25.23595],[85.18254,25.21867],[85.16525,25.19435],[85.16903,25.16524],[85.18181,25.17066],[85.19383,25.15076],[85.17584,25.14267],[85.16865,25.10205],[85.20932,25.09947],[85.21527,25.06027],[85.17896,25.05039],[85.18338,25.07205],[85.13056,25.05437],[85.09122,24.99027],[85.04746,25.00354],[85.0426,25.03381],[85.01873,25.0168],[84.99198,25.02431],[84.99419,25.00818],[84.93916,24.98674],[84.90932,25.0252],[84.92568,25.05724],[84.87472,25.06325],[84.88018,25.12286],[84.85683,25.19767],[84.87447,25.24781],[84.90647,25.2895],[84.92497,25.29218],[84.9374,25.26802],[84.94835,25.28905],[84.97918,25.29086],[84.99743,25.32012],[85.00574,25.32063]]]}},{"type":"Feature","properties":{"DISTRICT":"Kaimur (bhabua)","ST_NM":"Bihar","ST_CEN_CD":10,"DT_CEN_CD":31,"censuscode":233},"geometry":{"type":"Polygon","coordinates":[[[83.74621,25.39897],[83.7617,25.40226],[83.78029,25.36717],[83.80909,25.3702],[83.88513,25.31317],[83.90041,25.26327],[83.83519,25.24333],[83.8088,25.21372],[83.8087,25.17759],[83.82627,25.16181],[83.80919,25.11367],[83.82678,25.05693],[83.80012,25.00756],[83.80519,24.98835],[83.82115,24.98916],[83.76542,24.91236],[83.76276,24.87266],[83.71965,24.83581],[83.7323,24.80658],[83.77701,24.79402],[83.78574,24.75921],[83.73052,24.65497],[83.75391,24.6278],[83.7491,24.57689],[83.70898,24.54226],[83.66099,24.55601],[83.63937,24.54235],[83.53419,24.54173],[83.52536,24.60198],[83.54965,24.6233],[83.50548,24.65034],[83.52062,24.68206],[83.4887,24.70433],[83.48785,24.7364],[83.46111,24.73187],[83.39485,24.78266],[83.39849,24.83147],[83.36211,24.86893],[83.37237,24.8769],[83.35954,24.90134],[83.3652,24.95358],[83.34664,24.96176],[83.35209,25.00863],[83.3243,25.02546],[83.33015,25.05393],[83.34204,25.0491],[83.3484,25.11045],[83.36565,25.12223],[83.34418,25.18154],[83.39655,25.205],[83.41763,25.24725],[83.46863,25.24998],[83.48863,25.28039],[83.51953,25.28583],[83.54784,25.31565],[83.57254,25.30618],[83.63075,25.32758],[83.65859,25.366],[83.69465,25.36751],[83.68466,25.37975],[83.74332,25.4074],[83.74621,25.39897]]]}},{"type":"Feature","properties":{"DISTRICT":"Katihar","ST_NM":"Bihar","ST_CEN_CD":10,"DT_CEN_CD":10,"censuscode":212},"geometry":{"type":"Polygon","coordinates":[[[87.82614,25.88108],[87.91708,25.85189],[87.88956,25.82876],[87.91664,25.81496],[87.90286,25.81122],[87.90457,25.76995],[87.93846,25.77152],[87.96699,25.72491],[87.99376,25.72391],[88.02208,25.69198],[88.05451,25.69084],[88.05437,25.64421],[88.04139,25.63713],[88.06012,25.63317],[88.02684,25.58727],[88.04401,25.56424],[88.03281,25.55363],[88.04145,25.53711],[88.07852,25.5043],[88.07608,25.48092],[88.03325,25.48655],[88.01323,25.51078],[88.00996,25.49445],[87.99238,25.50303],[87.99182,25.52521],[87.93188,25.53656],[87.90482,25.50468],[87.88509,25.51633],[87.8693,25.46578],[87.83968,25.46496],[87.81451,25.43459],[87.78722,25.44505],[87.76496,25.40546],[87.77153,25.37844],[87.79464,25.3727],[87.78975,25.33291],[87.86069,25.29006],[87.8549,25.25399],[87.82843,25.23491],[87.84226,25.19986],[87.79328,25.22107],[87.78902,25.24674],[87.71357,25.25694],[87.68999,25.3106],[87.61279,25.31184],[87.58712,25.32847],[87.58605,25.34882],[87.54363,25.33056],[87.53074,25.35557],[87.44644,25.36178],[87.43638,25.38041],[87.41048,25.3801],[87.36733,25.40842],[87.36854,25.42298],[87.29563,25.39857],[87.26705,25.35138],[87.27761,25.36974],[87.22206,25.39019],[87.20513,25.4151],[87.23509,25.46086],[87.20874,25.50453],[87.27118,25.56529],[87.25266,25.62519],[87.27851,25.64331],[87.24361,25.69836],[87.26148,25.71691],[87.33982,25.6817],[87.48351,25.68193],[87.49284,25.6677],[87.54189,25.68526],[87.54052,25.66662],[87.57403,25.65631],[87.55607,25.68453],[87.63927,25.69172],[87.65037,25.68051],[87.68513,25.69843],[87.6876,25.74516],[87.71237,25.76239],[87.79149,25.74757],[87.78432,25.75885],[87.82852,25.78653],[87.81599,25.82929],[87.79526,25.84252],[87.81671,25.84405],[87.80192,25.8755],[87.82455,25.88158],[87.82614,25.88108]]]}},{"type":"Feature","properties":{"DISTRICT":"Khagaria","ST_NM":"Bihar","ST_CEN_CD":10,"DT_CEN_CD":21,"censuscode":223},"geometry":{"type":"Polygon","coordinates":[[[86.80816,25.63822],[86.84128,25.6185],[86.85426,25.5779],[86.83327,25.48196],[86.81146,25.47091],[86.82843,25.44074],[86.82148,25.41679],[86.8601,25.36759],[86.81565,25.32942],[86.78541,25.32466],[86.78101,25.27637],[86.7313,25.25399],[86.70747,25.27094],[86.65216,25.27249],[86.63489,25.30648],[86.65195,25.33291],[86.62719,25.36012],[86.6426,25.39769],[86.60088,25.42567],[86.57334,25.4938],[86.54312,25.49319],[86.50196,25.42432],[86.42271,25.47772],[86.42602,25.50014],[86.40156,25.5054],[86.38639,25.48112],[86.36859,25.47952],[86.37048,25.49328],[86.3567,25.47439],[86.34958,25.48549],[86.36674,25.50001],[86.33152,25.49105],[86.33371,25.51837],[86.2959,25.52663],[86.28402,25.54577],[86.28682,25.57916],[86.30053,25.57482],[86.28094,25.59696],[86.29197,25.65335],[86.32804,25.65823],[86.36827,25.70671],[86.42137,25.72895],[86.43949,25.69807],[86.46332,25.70154],[86.45604,25.68337],[86.48541,25.65652],[86.48072,25.63754],[86.51224,25.61108],[86.59711,25.59579],[86.59802,25.62081],[86.65196,25.64109],[86.67622,25.62077],[86.69156,25.64312],[86.7137,25.63767],[86.72208,25.66414],[86.76316,25.64176],[86.76582,25.62435],[86.80275,25.63142],[86.80816,25.63822]]]}},{"type":"Feature","properties":{"DISTRICT":"Kishanganj","ST_NM":"Bihar","ST_CEN_CD":10,"DT_CEN_CD":8,"censuscode":210},"geometry":{"type":"Polygon","coordinates":[[[88.24318,26.4492],[88.27483,26.41782],[88.23572,26.38977],[88.24406,26.3753],[88.2804,26.37721],[88.2983,26.35385],[88.28592,26.33548],[88.26752,26.3378],[88.22063,26.28165],[88.15085,26.25276],[88.14518,26.23079],[88.11826,26.22617],[88.0762,26.1757],[88.04383,26.17767],[88.01945,26.14086],[87.98853,26.15915],[87.97051,26.15194],[87.97737,26.13712],[87.96355,26.12884],[87.98202,26.12162],[87.9608,26.10279],[87.97853,26.08486],[87.94425,26.08448],[87.93751,26.06896],[87.91935,26.09097],[87.84853,26.04448],[87.83625,25.93551],[87.82415,25.93307],[87.81108,25.97265],[87.865,26.07802],[87.86587,26.11355],[87.77349,26.09837],[87.76801,26.11394],[87.70656,26.12556],[87.67761,26.11086],[87.68394,26.165],[87.6976,26.16792],[87.68297,26.18771],[87.69612,26.19748],[87.65959,26.26404],[87.6573,26.30561],[87.62195,26.32299],[87.60574,26.35087],[87.62106,26.35242],[87.63162,26.38341],[87.67863,26.41623],[87.67913,26.43553],[87.73561,26.40759],[87.7403,26.41873],[87.7666,26.40901],[87.78921,26.46782],[87.85052,26.43563],[87.89139,26.48615],[87.91137,26.45845],[87.90068,26.44885],[87.92679,26.44587],[87.91774,26.4331],[87.92941,26.41851],[87.99329,26.39308],[87.99932,26.36277],[88.03119,26.35545],[88.03339,26.37726],[88.10343,26.44614],[88.10529,26.53299],[88.15209,26.51081],[88.19244,26.54397],[88.22123,26.53544],[88.22208,26.55711],[88.23998,26.53223],[88.18568,26.49043],[88.20037,26.47189],[88.23281,26.47612],[88.22191,26.4656],[88.24043,26.44613],[88.24318,26.4492]]]}},{"type":"Feature","properties":{"DISTRICT":"Lakhisarai","ST_NM":"Bihar","ST_CEN_CD":10,"DT_CEN_CD":25,"censuscode":227},"geometry":{"type":"Polygon","coordinates":[[[86.06449,25.3341],[86.15337,25.25886],[86.17084,25.25904],[86.17056,25.2719],[86.21793,25.25294],[86.29872,25.29728],[86.32104,25.27683],[86.36283,25.27548],[86.38505,25.2191],[86.36924,25.14354],[86.33221,25.11936],[86.31839,25.08334],[86.25031,25.05072],[86.23912,24.99533],[86.16374,25.05327],[86.12624,24.96713],[86.10276,24.97718],[86.04595,24.9667],[86.01178,24.99688],[85.98462,24.98687],[85.96816,25.00889],[85.95799,24.99905],[85.91203,25.01316],[85.91472,25.0407],[85.95953,25.07354],[85.96401,25.13943],[85.98886,25.1557],[85.94213,25.23738],[85.91874,25.23947],[85.90275,25.26115],[85.90674,25.29826],[85.94309,25.32382],[86.02917,25.29313],[86.04037,25.33303],[86.061,25.33344],[86.06449,25.3341]]]}},{"type":"Feature","properties":{"DISTRICT":"Madhepura","ST_NM":"Bihar","ST_CEN_CD":10,"DT_CEN_CD":11,"censuscode":213},"geometry":{"type":"Polygon","coordinates":[[[87.0931,26.05516],[87.11361,26.03832],[87.08854,26.03699],[87.05988,25.98605],[87.08176,25.9604],[86.99087,25.94152],[87.0184,25.89472],[87.03071,25.89587],[87.04085,25.84464],[87.03436,25.81436],[87.02049,25.81362],[87.01061,25.7442],[87.05246,25.68776],[87.02998,25.65073],[87.062,25.5799],[87.05673,25.52759],[87.10253,25.51446],[87.07348,25.46941],[87.02228,25.46175],[87.01927,25.48077],[86.97441,25.46317],[86.92614,25.49388],[86.91204,25.49174],[86.91611,25.47369],[86.82989,25.45853],[86.82442,25.44391],[86.81146,25.47091],[86.83327,25.48196],[86.85426,25.5779],[86.84128,25.6185],[86.82587,25.61906],[86.80466,25.65242],[86.83644,25.67604],[86.86398,25.67604],[86.87525,25.72153],[86.84487,25.73831],[86.86052,25.74612],[86.85379,25.81403],[86.87073,25.81828],[86.84143,25.87197],[86.75072,25.85771],[86.71316,25.86672],[86.70247,25.90511],[86.68874,25.90169],[86.6905,25.93669],[86.64834,25.92271],[86.61845,25.94361],[86.63342,25.96598],[86.61117,25.97457],[86.6126,26.00749],[86.63503,26.02847],[86.6797,26.02588],[86.73964,26.11996],[86.77112,26.09383],[86.82734,26.1109],[87.08992,26.05499],[87.0931,26.05516]]]}},{"type":"Feature","properties":{"DISTRICT":"Madhubani","ST_NM":"Bihar","ST_CEN_CD":10,"DT_CEN_CD":5,"censuscode":207},"geometry":{"type":"Polygon","coordinates":[[[86.72493,26.4312],[86.69423,26.37265],[86.64646,26.36936],[86.6219,26.338],[86.58878,26.34452],[86.52543,26.30658],[86.49624,26.26868],[86.51118,26.25867],[86.50848,26.22533],[86.45497,26.21661],[86.43763,26.22854],[86.42258,26.19947],[86.39864,26.20923],[86.39899,26.17585],[86.41324,26.16561],[86.44075,26.16355],[86.44807,26.1766],[86.46815,26.15307],[86.50425,26.17161],[86.52838,26.15044],[86.50568,26.12508],[86.46139,26.1256],[86.42292,26.0616],[86.37744,26.04419],[86.3499,26.08661],[86.32231,26.09824],[86.31761,26.16559],[86.26119,26.18283],[86.23894,26.20455],[86.24131,26.23182],[86.16895,26.22757],[86.15002,26.23945],[86.10981,26.19607],[86.08001,26.21838],[86.0421,26.19547],[86.02148,26.20572],[86.04369,26.23923],[86.00291,26.2669],[86.01825,26.30167],[85.98833,26.32498],[85.96253,26.30842],[85.91806,26.31113],[85.91677,26.287],[85.88077,26.27702],[85.813,26.29671],[85.81814,26.32925],[85.83982,26.34385],[85.81887,26.34738],[85.83102,26.36132],[85.81709,26.3757],[85.83789,26.38207],[85.8151,26.39525],[85.81644,26.41136],[85.75891,26.40384],[85.77421,26.44494],[85.75274,26.47091],[85.79588,26.45604],[85.81457,26.47056],[85.76063,26.4978],[85.77998,26.51918],[85.79664,26.49787],[85.82754,26.53696],[85.80814,26.55589],[85.83066,26.61302],[85.85215,26.60835],[85.85537,26.56845],[85.94449,26.61561],[85.96007,26.65189],[86.03379,26.66659],[86.13936,26.62859],[86.14121,26.60449],[86.19453,26.6146],[86.20111,26.59447],[86.22167,26.58983],[86.25646,26.61332],[86.34562,26.61653],[86.34316,26.60589],[86.50101,26.5422],[86.53833,26.54133],[86.57298,26.49787],[86.72353,26.4328],[86.72493,26.4312]]]}},{"type":"Feature","properties":{"DISTRICT":"Munger","ST_NM":"Bihar","ST_CEN_CD":10,"DT_CEN_CD":24,"censuscode":226},"geometry":{"type":"Polygon","coordinates":[[[86.7313,25.25399],[86.63925,25.23806],[86.68505,25.18911],[86.69681,25.20282],[86.70262,25.18798],[86.73558,25.18424],[86.70175,25.16732],[86.68,25.13015],[86.69644,25.10787],[86.65731,25.06714],[86.66755,25.0103],[86.65087,25.01079],[86.64346,24.97491],[86.62559,24.96232],[86.60566,24.9726],[86.60147,24.94884],[86.58618,24.94576],[86.5674,24.95905],[86.54579,24.95081],[86.53115,24.98396],[86.45242,24.99403],[86.44062,25.02475],[86.39225,25.04667],[86.4222,25.11546],[86.36924,25.14354],[86.38015,25.23653],[86.35945,25.28078],[86.32104,25.27683],[86.29872,25.29728],[86.32221,25.32294],[86.31503,25.33455],[86.37038,25.35682],[86.3895,25.38068],[86.39111,25.36363],[86.41657,25.39476],[86.46322,25.39039],[86.48211,25.41356],[86.51168,25.40947],[86.51103,25.45171],[86.55452,25.49962],[86.58105,25.48551],[86.60088,25.42567],[86.6426,25.39769],[86.62719,25.36012],[86.65195,25.33291],[86.63489,25.30648],[86.65216,25.27249],[86.72546,25.25706],[86.7313,25.25399]]]}},{"type":"Feature","properties":{"DISTRICT":"Muzaffarpur","ST_NM":"Bihar","ST_CEN_CD":10,"DT_CEN_CD":14,"censuscode":216},"geometry":{"type":"Polygon","coordinates":[[[85.7047,26.30662],[85.71813,26.2729],[85.69608,26.2576],[85.7189,26.25009],[85.70018,26.22606],[85.72713,26.20099],[85.72359,26.16495],[85.75438,26.14421],[85.70473,26.087],[85.71139,26.06272],[85.69811,26.04426],[85.62491,26.00173],[85.63349,25.92261],[85.56284,25.92095],[85.55422,25.9046],[85.53559,25.91896],[85.51108,25.90115],[85.4102,25.94353],[85.38658,25.92728],[85.33371,25.94841],[85.29339,25.94169],[85.2991,25.98853],[85.27026,26.01321],[85.15956,26.00901],[85.1491,25.9856],[85.10788,25.99147],[85.10846,25.97705],[85.07959,25.96853],[85.05449,25.98917],[85.02272,25.98606],[84.99998,26.01288],[84.96686,25.99467],[84.93689,26.02926],[84.95188,26.10454],[84.91794,26.14248],[84.92354,26.17753],[84.89869,26.21478],[84.90934,26.23475],[84.88554,26.23348],[84.87679,26.25522],[84.90518,26.32136],[85.00104,26.33176],[85.0244,26.31723],[85.06121,26.34222],[85.13509,26.31125],[85.18438,26.34007],[85.19296,26.31239],[85.19502,26.32753],[85.20636,26.31519],[85.19242,26.30331],[85.21012,26.30042],[85.20276,26.28524],[85.23201,26.3071],[85.26262,26.29783],[85.25874,26.33098],[85.27561,26.33488],[85.22341,26.35149],[85.22662,26.36999],[85.25704,26.34953],[85.3289,26.34979],[85.33634,26.32743],[85.33786,26.34393],[85.36238,26.34699],[85.38036,26.31213],[85.39531,26.30851],[85.38776,26.325],[85.41726,26.30491],[85.40167,26.30447],[85.39594,26.27944],[85.41012,26.29222],[85.41226,26.27073],[85.42946,26.29199],[85.42302,26.27324],[85.44249,26.28286],[85.44033,26.27051],[85.50704,26.38097],[85.5484,26.36963],[85.58046,26.39357],[85.57513,26.36428],[85.61392,26.34991],[85.63227,26.31761],[85.6833,26.32113],[85.70243,26.30826],[85.7047,26.30662]]]}},{"type":"Feature","properties":{"DISTRICT":"Nalanda","ST_NM":"Bihar","ST_CEN_CD":10,"DT_CEN_CD":27,"censuscode":229},"geometry":{"type":"Polygon","coordinates":[[[85.90553,25.29362],[85.90275,25.26115],[85.92557,25.24391],[85.89258,25.22892],[85.84232,25.23912],[85.82922,25.21798],[85.80025,25.22949],[85.78735,25.2176],[85.79196,25.25103],[85.771,25.24467],[85.77162,25.26336],[85.73705,25.26393],[85.72918,25.27746],[85.70206,25.26969],[85.70021,25.23265],[85.72473,25.21897],[85.7285,25.19748],[85.69667,25.19188],[85.70387,25.16731],[85.68765,25.13558],[85.60663,25.12904],[85.60441,25.10815],[85.62142,25.11591],[85.66129,25.06631],[85.64234,25.06991],[85.60025,25.03012],[85.55935,25.03366],[85.56618,24.98672],[85.54264,24.99454],[85.53704,25.01339],[85.39652,24.96605],[85.38153,24.9758],[85.38951,24.9918],[85.36545,24.98991],[85.36318,25.01879],[85.34186,25.00688],[85.32401,25.02538],[85.26698,25.03452],[85.25098,25.00868],[85.22936,25.05663],[85.20229,25.03372],[85.21675,25.06378],[85.20932,25.09947],[85.16865,25.10205],[85.17584,25.14267],[85.19383,25.15076],[85.18181,25.17066],[85.16903,25.16524],[85.16525,25.19435],[85.18254,25.21867],[85.16572,25.23595],[85.21964,25.26224],[85.17739,25.27201],[85.19468,25.34905],[85.18363,25.3919],[85.21263,25.41568],[85.29739,25.39133],[85.34847,25.41219],[85.36389,25.40023],[85.3754,25.42752],[85.40272,25.43378],[85.40626,25.46101],[85.49124,25.44758],[85.49843,25.42864],[85.57864,25.42457],[85.59086,25.38488],[85.62854,25.38112],[85.63945,25.3645],[85.65072,25.34004],[85.63061,25.32455],[85.64375,25.31595],[85.72148,25.36439],[85.74791,25.32175],[85.80689,25.30885],[85.81093,25.2917],[85.86354,25.29706],[85.88089,25.28002],[85.89968,25.29348],[85.90553,25.29362]]]}},{"type":"Feature","properties":{"DISTRICT":"Nawada","ST_NM":"Bihar","ST_CEN_CD":10,"DT_CEN_CD":35,"censuscode":237},"geometry":{"type":"Polygon","coordinates":[[[85.83813,24.9829],[85.86405,24.946],[85.83106,24.94733],[85.82822,24.91784],[85.88435,24.92908],[85.89808,24.86839],[85.97836,24.86408],[86.05733,24.77989],[85.95709,24.73247],[85.91735,24.75397],[85.88467,24.80052],[85.83414,24.80983],[85.81759,24.7947],[85.78419,24.79912],[85.74374,24.82278],[85.71174,24.76899],[85.7036,24.71369],[85.6565,24.68726],[85.67902,24.61971],[85.67159,24.58228],[85.62237,24.58325],[85.58353,24.60328],[85.5698,24.59155],[85.57524,24.5655],[85.54376,24.56554],[85.5434,24.53634],[85.52526,24.52487],[85.50143,24.5509],[85.39041,24.53543],[85.39603,24.54484],[85.37773,24.55353],[85.31842,24.56225],[85.33002,24.58104],[85.30383,24.63343],[85.32594,24.65011],[85.29595,24.67233],[85.32691,24.6684],[85.33273,24.71241],[85.29747,24.7496],[85.27021,24.75037],[85.28063,24.78502],[85.298,24.79038],[85.34253,24.86224],[85.33776,24.88273],[85.36865,24.88271],[85.38316,24.89829],[85.3819,24.94748],[85.39652,24.96605],[85.53704,25.01339],[85.54264,24.99454],[85.56618,24.98672],[85.55935,25.03366],[85.60025,25.03012],[85.64234,25.06991],[85.65766,25.06257],[85.64095,25.09908],[85.68622,25.11294],[85.70076,25.09645],[85.75499,25.10884],[85.77707,25.09338],[85.77406,25.02311],[85.74796,25.01834],[85.75463,24.99428],[85.77239,24.99276],[85.77697,25.00772],[85.80678,24.97315],[85.82136,24.99],[85.83798,24.98308],[85.83813,24.9829]]]}},{"type":"Feature","properties":{"DISTRICT":"Pashchim Champaran","ST_NM":"Bihar","ST_CEN_CD":10,"DT_CEN_CD":1,"censuscode":203},"geometry":{"type":"Polygon","coordinates":[[[84.76322,27.00015],[84.75041,26.96212],[84.68118,26.91445],[84.69045,26.87914],[84.7357,26.842],[84.72277,26.82643],[84.74569,26.81717],[84.7038,26.71606],[84.65667,26.67956],[84.60491,26.69312],[84.59235,26.66859],[84.55097,26.65604],[84.52305,26.6256],[84.52738,26.60097],[84.49257,26.60246],[84.4595,26.63108],[84.41585,26.58287],[84.43357,26.61437],[84.41148,26.66876],[84.33494,26.68174],[84.30739,26.75067],[84.25674,26.72667],[84.24335,26.7369],[84.234,26.75444],[84.26173,26.80601],[84.25512,26.85601],[84.21873,26.86824],[84.18598,26.85058],[84.1842,26.83303],[84.16678,26.8336],[84.14116,26.85289],[84.1504,26.88478],[84.11021,26.898],[84.09959,26.87431],[84.06159,26.88882],[84.05728,26.92893],[84.03455,26.93979],[84.05632,26.95901],[84.04612,26.98108],[84.05922,26.98786],[84.04018,27.00885],[84.05058,27.0417],[84.00056,27.06555],[84.03054,27.09245],[83.94927,27.0899],[83.9608,27.13777],[83.99412,27.17562],[83.98873,27.19732],[83.96447,27.23187],[83.90801,27.25621],[83.90622,27.27383],[83.93573,27.30096],[83.9268,27.32209],[83.86477,27.30794],[83.83909,27.31945],[83.88632,27.37604],[83.83492,27.42813],[83.85088,27.44597],[84.02995,27.4362],[84.06323,27.45353],[84.10638,27.51907],[84.151,27.51902],[84.15515,27.48659],[84.21109,27.46746],[84.21849,27.43958],[84.25515,27.44969],[84.29421,27.38456],[84.6218,27.339],[84.69144,27.22332],[84.67831,27.10256],[84.64617,27.04667],[84.76049,27.00166],[84.76322,27.00015]]]}},{"type":"Feature","properties":{"DISTRICT":"Patna","ST_NM":"Bihar","ST_CEN_CD":10,"DT_CEN_CD":28,"censuscode":230},"geometry":{"type":"MultiPolygon","coordinates":[[[[85.03081,25.73155],[85.08806,25.7112],[85.1336,25.63042],[85.19496,25.62399],[85.25156,25.59611],[85.31924,25.51306],[85.43023,25.49649],[85.43773,25.51476],[85.50609,25.48466],[85.51634,25.50373],[85.53881,25.50547],[85.53992,25.48884],[85.60072,25.49274],[85.61234,25.48803],[85.59245,25.47887],[85.63938,25.46343],[85.64969,25.46583],[85.64173,25.50197],[85.67835,25.49699],[85.68262,25.47913],[85.71956,25.52561],[85.80496,25.54694],[85.88613,25.50194],[85.90445,25.46188],[85.87617,25.46865],[85.88762,25.42305],[85.90559,25.43273],[85.95588,25.41516],[86.01912,25.35812],[86.05194,25.39086],[86.0674,25.33642],[86.04037,25.33303],[86.02917,25.29313],[85.93237,25.32323],[85.93018,25.30253],[85.88089,25.28002],[85.86354,25.29706],[85.81887,25.29017],[85.80689,25.30885],[85.75469,25.3175],[85.71641,25.36475],[85.66049,25.33652],[85.65383,25.31248],[85.63061,25.32455],[85.65072,25.34004],[85.62854,25.38112],[85.59086,25.38488],[85.57864,25.42457],[85.49843,25.42864],[85.49124,25.44758],[85.40626,25.46101],[85.40272,25.43378],[85.3754,25.42752],[85.36389,25.40023],[85.34847,25.41219],[85.29739,25.39133],[85.21789,25.41574],[85.18865,25.40217],[85.19468,25.34905],[85.18139,25.30887],[85.13234,25.31589],[85.12188,25.27249],[85.06997,25.28931],[85.02529,25.26674],[85.01501,25.31758],[84.99373,25.32056],[84.97918,25.29086],[84.94835,25.28905],[84.9374,25.26802],[84.92497,25.29218],[84.90647,25.2895],[84.86731,25.21609],[84.83741,25.23357],[84.72914,25.20162],[84.72053,25.21401],[84.74939,25.23552],[84.78616,25.23688],[84.7882,25.25298],[84.74274,25.26782],[84.73552,25.25203],[84.69479,25.25406],[84.68719,25.26552],[84.72341,25.28458],[84.70508,25.31538],[84.77825,25.44697],[84.75963,25.51033],[84.81895,25.57502],[84.8234,25.63277],[84.84311,25.6557],[84.82537,25.67047],[84.85035,25.67807],[84.87303,25.71702],[84.9413,25.69978],[85.02069,25.73074],[85.03081,25.73155]]],[[[85.33662,25.51408],[85.31538,25.5258],[85.33796,25.51722],[85.33662,25.51408]]]]}},{"type":"Feature","properties":{"DISTRICT":"Purba Champaran","ST_NM":"Bihar","ST_CEN_CD":10,"DT_CEN_CD":2,"censuscode":204},"geometry":{"type":"Polygon","coordinates":[[[85.25755,26.75616],[85.26298,26.69416],[85.23957,26.66725],[85.25989,26.66457],[85.27842,26.62821],[85.26066,26.58404],[85.22334,26.54799],[85.22498,26.50361],[85.18148,26.48839],[85.21637,26.45132],[85.21076,26.42667],[85.25743,26.41692],[85.25555,26.40118],[85.27842,26.38728],[85.2881,26.3953],[85.29499,26.37076],[85.28117,26.36602],[85.29793,26.35709],[85.25704,26.34953],[85.22662,26.36999],[85.22341,26.35149],[85.27561,26.33488],[85.25874,26.33098],[85.26262,26.29783],[85.23201,26.3071],[85.20454,26.28493],[85.21012,26.30042],[85.19242,26.30331],[85.20636,26.31519],[85.19502,26.32753],[85.19296,26.31239],[85.18438,26.34007],[85.13509,26.31125],[85.06121,26.34222],[85.0244,26.31723],[85.00104,26.33176],[84.90518,26.32136],[84.87175,26.255],[84.8371,26.28542],[84.81021,26.28731],[84.80969,26.32305],[84.7556,26.35202],[84.71496,26.42485],[84.66138,26.46268],[84.589,26.43882],[84.58078,26.48526],[84.54335,26.48565],[84.54403,26.507],[84.51288,26.53326],[84.51516,26.56497],[84.48722,26.594],[84.52738,26.60097],[84.52305,26.6256],[84.55097,26.65604],[84.59235,26.66859],[84.60491,26.69312],[84.65667,26.67956],[84.72444,26.7426],[84.72098,26.78076],[84.74569,26.81717],[84.72277,26.82643],[84.7357,26.842],[84.69045,26.87914],[84.68118,26.91445],[84.75041,26.96212],[84.77755,27.01805],[84.7973,26.99664],[84.829,27.02082],[84.85782,27.00842],[84.85798,26.99217],[84.96589,26.9604],[84.98126,26.94092],[84.97146,26.92019],[85.05879,26.88458],[85.0329,26.87449],[85.02902,26.85488],[85.19562,26.86897],[85.18459,26.79796],[85.20915,26.76046],[85.2553,26.75745],[85.25755,26.75616]]]}},{"type":"Feature","properties":{"DISTRICT":"Purnia","ST_NM":"Bihar","ST_CEN_CD":10,"DT_CEN_CD":9,"censuscode":211},"geometry":{"type":"Polygon","coordinates":[[[87.82415,25.93307],[87.80988,25.91402],[87.82277,25.91278],[87.82455,25.88158],[87.80192,25.8755],[87.82109,25.85606],[87.79526,25.84252],[87.81599,25.82929],[87.82852,25.78653],[87.78432,25.75885],[87.79149,25.74757],[87.71237,25.76239],[87.6876,25.74516],[87.68513,25.69843],[87.65037,25.68051],[87.63927,25.69172],[87.55607,25.68453],[87.57403,25.65631],[87.54052,25.66662],[87.54189,25.68526],[87.49284,25.6677],[87.48351,25.68193],[87.33982,25.6817],[87.26148,25.71691],[87.24361,25.69836],[87.27851,25.64331],[87.25266,25.62519],[87.27118,25.56529],[87.20874,25.50453],[87.23166,25.4515],[87.09041,25.44131],[87.10203,25.5197],[87.05673,25.52759],[87.062,25.5799],[87.02998,25.65073],[87.05246,25.68776],[87.01061,25.7442],[87.02049,25.81362],[87.04125,25.83525],[87.02609,25.86803],[87.03372,25.88928],[86.99087,25.94152],[87.10341,25.96876],[87.16429,25.9422],[87.21409,25.95787],[87.23031,25.94376],[87.26787,25.98402],[87.28543,25.95961],[87.30939,25.97931],[87.35167,25.98064],[87.39185,25.9546],[87.40198,25.98498],[87.42535,25.99069],[87.48889,25.97364],[87.50283,25.98707],[87.51746,25.97079],[87.62527,26.02618],[87.6156,26.05715],[87.63714,26.07434],[87.62926,26.08421],[87.67143,26.08297],[87.67761,26.11086],[87.70656,26.12556],[87.76801,26.11394],[87.77349,26.09837],[87.86587,26.11355],[87.865,26.07802],[87.81108,25.97265],[87.8224,25.94296],[87.82415,25.93307]]]}},{"type":"Feature","properties":{"DISTRICT":"Rohtas","ST_NM":"Bihar","ST_CEN_CD":10,"DT_CEN_CD":32,"censuscode":234},"geometry":{"type":"Polygon","coordinates":[[[83.52508,24.54799],[83.62947,24.54141],[83.66099,24.55601],[83.70898,24.54226],[83.7451,24.56885],[83.75391,24.6278],[83.73052,24.65497],[83.78574,24.75921],[83.77701,24.79402],[83.7323,24.80658],[83.71965,24.83581],[83.76276,24.87266],[83.76542,24.91236],[83.82115,24.98916],[83.80519,24.98835],[83.80012,25.00756],[83.82678,25.05693],[83.80919,25.11367],[83.82627,25.16181],[83.8087,25.17759],[83.8088,25.21372],[83.83519,25.24333],[83.90041,25.26327],[83.89985,25.29318],[83.95765,25.28523],[83.98983,25.26424],[84.03583,25.26714],[84.06006,25.30731],[84.03533,25.33852],[84.05212,25.34631],[84.04618,25.37395],[84.09783,25.3583],[84.14008,25.37106],[84.21365,25.36472],[84.23065,25.34506],[84.2755,25.35954],[84.28246,25.32894],[84.32207,25.32093],[84.33644,25.29765],[84.32117,25.21535],[84.35813,25.192],[84.42736,25.18729],[84.46568,25.1613],[84.42549,25.07855],[84.3217,25.02278],[84.08958,24.77036],[83.93623,24.54706],[83.7245,24.50399],[83.50607,24.52589],[83.50132,24.54087],[83.52508,24.54799]]]}},{"type":"Feature","properties":{"DISTRICT":"Saharsa","ST_NM":"Bihar","ST_CEN_CD":10,"DT_CEN_CD":12,"censuscode":214},"geometry":{"type":"Polygon","coordinates":[[[86.63503,26.02847],[86.60886,25.98956],[86.63342,25.96598],[86.61845,25.94361],[86.64834,25.92271],[86.6905,25.93669],[86.68874,25.90169],[86.70247,25.90511],[86.71316,25.86672],[86.75072,25.85771],[86.84261,25.8707],[86.87073,25.81828],[86.85379,25.81403],[86.86052,25.74612],[86.84487,25.73831],[86.8767,25.71647],[86.85872,25.6957],[86.86398,25.67604],[86.80566,25.65701],[86.80275,25.63142],[86.76582,25.62435],[86.76316,25.64176],[86.72208,25.66414],[86.7137,25.63767],[86.69156,25.64312],[86.67622,25.62077],[86.65196,25.64109],[86.59802,25.62081],[86.59711,25.59579],[86.49571,25.62032],[86.48541,25.65652],[86.45604,25.68337],[86.46332,25.70154],[86.43949,25.69807],[86.40567,25.73473],[86.41463,25.79634],[86.37978,25.81407],[86.36553,25.85475],[86.31115,25.86682],[86.36513,25.93723],[86.38246,25.92375],[86.40707,25.93078],[86.38014,25.95199],[86.37342,26.03627],[86.42885,26.07543],[86.45761,26.07736],[86.48602,26.04846],[86.5057,26.06431],[86.48888,26.03453],[86.51669,25.99837],[86.55231,26.03491],[86.62691,26.02969],[86.63503,26.02847]]]}},{"type":"Feature","properties":{"DISTRICT":"Samastipur","ST_NM":"Bihar","ST_CEN_CD":10,"DT_CEN_CD":19,"censuscode":221},"geometry":{"type":"Polygon","coordinates":[[[86.31115,25.86682],[86.36553,25.85475],[86.37978,25.81407],[86.41463,25.79634],[86.40389,25.77526],[86.41718,25.7282],[86.35422,25.69586],[86.32804,25.65823],[86.2939,25.65529],[86.28134,25.62904],[86.19401,25.66259],[86.18224,25.71194],[86.14874,25.71075],[86.16056,25.73395],[86.15169,25.76522],[86.13376,25.75898],[86.14101,25.7672],[86.11365,25.7762],[86.10925,25.75814],[86.1437,25.7506],[86.13696,25.73586],[86.08121,25.74398],[86.08632,25.72716],[86.05349,25.73405],[86.01573,25.71936],[86.03365,25.69335],[86.01237,25.67338],[86.01262,25.6609],[86.02986,25.66139],[86.01975,25.59127],[85.94613,25.65266],[85.91335,25.64169],[85.89132,25.65382],[85.87675,25.63671],[85.87162,25.66554],[85.86996,25.64797],[85.84264,25.64503],[85.82786,25.61776],[85.84774,25.60467],[85.84331,25.57623],[85.77269,25.58676],[85.73588,25.52666],[85.71956,25.52561],[85.68262,25.47913],[85.67835,25.49699],[85.65634,25.50297],[85.64173,25.50197],[85.64969,25.46583],[85.63938,25.46343],[85.59245,25.47887],[85.61234,25.48803],[85.60072,25.49274],[85.53992,25.48884],[85.53308,25.54381],[85.55859,25.54081],[85.5345,25.60158],[85.57221,25.68379],[85.6124,25.70688],[85.62964,25.76926],[85.60699,25.78499],[85.61813,25.8198],[85.60209,25.84227],[85.63837,25.91452],[85.62491,26.00173],[85.69811,26.04426],[85.71139,26.06272],[85.70473,26.087],[85.72863,26.06835],[85.71837,26.04899],[85.72977,26.0367],[85.7416,26.04826],[85.75542,26.03243],[85.76419,26.05634],[85.7643,26.03993],[85.83009,26.02578],[85.84587,26.03582],[85.8449,26.02156],[85.86679,26.02204],[85.87107,25.98604],[85.91328,25.97914],[85.92016,25.95542],[85.93185,25.96619],[85.93554,25.95294],[85.97508,25.955],[85.98155,25.93657],[86.00423,25.93211],[86.03959,25.94716],[86.09292,25.8966],[86.10294,25.91086],[86.1096,25.89396],[86.1547,25.89574],[86.16304,25.87953],[86.17533,25.89399],[86.2124,25.88798],[86.26744,25.9075],[86.29915,25.90184],[86.30264,25.87656],[86.31115,25.86682]]]}},{"type":"Feature","properties":{"DISTRICT":"Saran (chhapra)","ST_NM":"Bihar","ST_CEN_CD":10,"DT_CEN_CD":17,"censuscode":219},"geometry":{"type":"Polygon","coordinates":[[[84.89869,26.21478],[84.92354,26.17753],[84.91794,26.14248],[84.95188,26.10454],[84.9402,26.01673],[84.96962,25.99356],[84.99998,26.01288],[85.02272,25.98606],[85.05982,25.98736],[85.0831,25.92474],[85.11629,25.89143],[85.11945,25.86035],[85.16719,25.8328],[85.20027,25.67496],[85.19496,25.62399],[85.1336,25.63042],[85.08806,25.7112],[85.03081,25.73155],[84.9413,25.69978],[84.87303,25.71702],[84.85936,25.69804],[84.81243,25.69846],[84.82187,25.69011],[84.80847,25.68469],[84.74756,25.70773],[84.63116,25.7056],[84.59948,25.72665],[84.60382,25.73754],[84.63887,25.72681],[84.60886,25.75906],[84.62907,25.7708],[84.62857,25.7925],[84.56494,25.83583],[84.53539,25.83263],[84.52843,25.85941],[84.54898,25.86041],[84.53708,25.876],[84.45917,25.88841],[84.46198,25.9519],[84.44051,25.96067],[84.45526,25.99283],[84.41102,26.01316],[84.41616,26.03239],[84.57291,26.03319],[84.59568,26.07185],[84.61346,26.06401],[84.62082,26.09251],[84.64543,26.07613],[84.70795,26.08253],[84.71934,26.12063],[84.75911,26.14124],[84.76405,26.16833],[84.78093,26.1762],[84.76335,26.21086],[84.87419,26.21814],[84.89869,26.21478]]]}},{"type":"Feature","properties":{"DISTRICT":"Sheikhpura","ST_NM":"Bihar","ST_CEN_CD":10,"DT_CEN_CD":26,"censuscode":228},"geometry":{"type":"Polygon","coordinates":[[[85.91874,25.23947],[85.94213,25.23738],[85.98886,25.1557],[85.96222,25.13581],[85.95953,25.07354],[85.93255,25.06103],[85.91203,25.01316],[85.89162,25.00252],[85.82136,24.99],[85.80678,24.97315],[85.78424,25.00614],[85.76519,24.99092],[85.74675,25.00852],[85.77406,25.02311],[85.77707,25.09338],[85.75886,25.10748],[85.72449,25.09293],[85.68622,25.11294],[85.64095,25.09908],[85.62142,25.11591],[85.60441,25.10815],[85.60663,25.12904],[85.68765,25.13558],[85.70387,25.16731],[85.69667,25.19188],[85.7285,25.19748],[85.72473,25.21897],[85.70021,25.23265],[85.70206,25.26969],[85.73451,25.2764],[85.73705,25.26393],[85.77162,25.26336],[85.771,25.24467],[85.79196,25.25103],[85.78735,25.2176],[85.80025,25.22949],[85.82922,25.21798],[85.85426,25.24201],[85.91025,25.23396],[85.91874,25.23947]]]}},{"type":"Feature","properties":{"DISTRICT":"Sheohar","ST_NM":"Bihar","ST_CEN_CD":10,"DT_CEN_CD":3,"censuscode":205},"geometry":{"type":"Polygon","coordinates":[[[85.2671,26.39917],[85.25743,26.41692],[85.21076,26.42667],[85.21637,26.45132],[85.18349,26.49718],[85.22498,26.50361],[85.22334,26.54799],[85.26384,26.58976],[85.27842,26.62821],[85.26883,26.63767],[85.33578,26.64388],[85.36125,26.56101],[85.37631,26.55424],[85.36695,26.53376],[85.38813,26.50834],[85.38029,26.48894],[85.3457,26.48856],[85.2829,26.44937],[85.28896,26.43527],[85.26712,26.39919],[85.2671,26.39917]]]}},{"type":"Feature","properties":{"DISTRICT":"Sitamarhi","ST_NM":"Bihar","ST_CEN_CD":10,"DT_CEN_CD":4,"censuscode":206},"geometry":{"type":"Polygon","coordinates":[[[85.81894,26.603],[85.80814,26.55589],[85.82754,26.53696],[85.79664,26.49787],[85.77998,26.51918],[85.76063,26.4978],[85.81457,26.47056],[85.79588,26.45604],[85.75471,26.47319],[85.76888,26.43558],[85.71483,26.44796],[85.69023,26.4137],[85.69231,26.377],[85.71816,26.36128],[85.67314,26.35378],[85.73163,26.34372],[85.72458,26.3083],[85.63227,26.31761],[85.61392,26.34991],[85.57513,26.36428],[85.58046,26.39357],[85.5484,26.36963],[85.50704,26.38097],[85.44033,26.27051],[85.44249,26.28286],[85.42302,26.27324],[85.42946,26.29199],[85.41226,26.27073],[85.41012,26.29222],[85.39594,26.27944],[85.40167,26.30447],[85.41726,26.30491],[85.38776,26.325],[85.39531,26.30851],[85.38036,26.31213],[85.36238,26.34699],[85.33786,26.34393],[85.33634,26.32743],[85.3289,26.34979],[85.28266,26.34598],[85.29793,26.35709],[85.28117,26.36602],[85.29499,26.37076],[85.2881,26.3953],[85.26698,26.39346],[85.28896,26.43527],[85.28056,26.44697],[85.3457,26.48856],[85.38029,26.48894],[85.3882,26.51628],[85.36695,26.53376],[85.37631,26.55424],[85.36125,26.56101],[85.3426,26.64061],[85.26883,26.63767],[85.25989,26.66457],[85.23957,26.66725],[85.26298,26.69416],[85.25755,26.75616],[85.33679,26.74141],[85.40944,26.79089],[85.45872,26.78205],[85.56733,26.84079],[85.57633,26.85959],[85.58833,26.84825],[85.63716,26.87229],[85.64323,26.85307],[85.72638,26.81668],[85.7284,26.6693],[85.7423,26.64486],[85.80225,26.62517],[85.81822,26.60317],[85.81894,26.603]]]}},{"type":"Feature","properties":{"DISTRICT":"Siwan","ST_NM":"Bihar","ST_CEN_CD":10,"DT_CEN_CD":16,"censuscode":218},"geometry":{"type":"Polygon","coordinates":[[[84.76335,26.21086],[84.78093,26.1762],[84.76405,26.16833],[84.75911,26.14124],[84.71934,26.12063],[84.70795,26.08253],[84.64543,26.07613],[84.62082,26.09251],[84.61346,26.06401],[84.59568,26.07185],[84.57291,26.03319],[84.41616,26.03239],[84.41102,26.01316],[84.45526,25.99283],[84.44051,25.96067],[84.46198,25.9519],[84.4679,25.918],[84.45222,25.88785],[84.43181,25.89058],[84.41683,25.92947],[84.35998,25.95738],[84.30493,25.94501],[84.2105,25.99846],[84.17493,25.98938],[84.176,26.02333],[84.09984,26.09427],[84.05788,26.0974],[84.05126,26.12922],[84.02702,26.14276],[84.03674,26.16058],[84.01103,26.18772],[84.03252,26.19851],[84.02048,26.23823],[84.08828,26.21883],[84.11939,26.23946],[84.1219,26.25954],[84.15428,26.2593],[84.16826,26.24356],[84.19072,26.31467],[84.17621,26.33571],[84.18041,26.37155],[84.24493,26.3156],[84.27939,26.30596],[84.32284,26.3297],[84.35716,26.29816],[84.36553,26.36766],[84.45853,26.36912],[84.4563,26.34985],[84.55283,26.32223],[84.5387,26.30569],[84.55658,26.29737],[84.55915,26.3129],[84.59125,26.3232],[84.61445,26.30351],[84.65666,26.30379],[84.65341,26.2776],[84.68475,26.26652],[84.68676,26.23887],[84.75693,26.23027],[84.75519,26.2125],[84.76335,26.21086]]]}},{"type":"Feature","properties":{"DISTRICT":"Supaul","ST_NM":"Bihar","ST_CEN_CD":10,"DT_CEN_CD":6,"censuscode":208},"geometry":{"type":"Polygon","coordinates":[[[87.0931,26.05516],[86.82734,26.1109],[86.77112,26.09383],[86.73964,26.11996],[86.6797,26.02588],[86.55231,26.03491],[86.51669,25.99837],[86.48888,26.03453],[86.5057,26.06431],[86.48602,26.04846],[86.45761,26.07736],[86.42707,26.07717],[86.46139,26.1256],[86.50568,26.12508],[86.52738,26.15759],[86.50425,26.17161],[86.46815,26.15307],[86.44807,26.1766],[86.44075,26.16355],[86.41324,26.16561],[86.39728,26.20526],[86.42608,26.20133],[86.43763,26.22854],[86.45497,26.21661],[86.50848,26.22533],[86.51118,26.25867],[86.49624,26.26868],[86.52543,26.30658],[86.58878,26.34452],[86.6219,26.338],[86.64646,26.36936],[86.69423,26.37265],[86.71168,26.4268],[86.7351,26.42443],[86.77283,26.45834],[86.84285,26.43988],[86.89677,26.46156],[86.89638,26.48674],[86.9319,26.48848],[86.93311,26.51176],[87.01597,26.53373],[87.03983,26.56092],[87.06121,26.54299],[87.04613,26.50372],[87.0671,26.46136],[87.05629,26.43199],[87.07576,26.40717],[87.05634,26.41048],[87.07527,26.37662],[87.06199,26.36421],[87.06992,26.33813],[87.04615,26.33582],[87.0389,26.31974],[87.06911,26.29594],[87.06456,26.2524],[87.09521,26.20306],[87.08231,26.18857],[87.11201,26.18497],[87.10005,26.13898],[87.06033,26.10903],[87.1111,26.09646],[87.09306,26.06063],[87.0931,26.05516]]]}},{"type":"Feature","properties":{"DISTRICT":"Vaishali","ST_NM":"Bihar","ST_CEN_CD":10,"DT_CEN_CD":18,"censuscode":220},"geometry":{"type":"Polygon","coordinates":[[[85.63349,25.92261],[85.60209,25.84227],[85.61813,25.8198],[85.60699,25.78499],[85.62964,25.76926],[85.6124,25.70688],[85.57221,25.68379],[85.55332,25.62068],[85.54001,25.61768],[85.53411,25.58488],[85.55402,25.57101],[85.55859,25.54081],[85.53828,25.55055],[85.53881,25.50547],[85.51634,25.50373],[85.50609,25.48466],[85.43773,25.51476],[85.43023,25.49649],[85.31147,25.51547],[85.25156,25.59611],[85.19496,25.62399],[85.20027,25.67496],[85.16719,25.8328],[85.11945,25.86035],[85.0696,25.97146],[85.10846,25.97705],[85.10788,25.99147],[85.1491,25.9856],[85.15956,26.00901],[85.27026,26.01321],[85.2991,25.98853],[85.29339,25.94169],[85.33371,25.94841],[85.38658,25.92728],[85.4102,25.94353],[85.51108,25.90115],[85.53559,25.91896],[85.55422,25.9046],[85.56284,25.92095],[85.62106,25.91917],[85.63349,25.92261]],[[85.33662,25.51408],[85.31802,25.52995],[85.33081,25.51422],[85.33662,25.51408]]]}}]}
