{"type":"FeatureCollection","properties":{"source":"DataMeet Community Maps Project - Districts/Census_2011","state":"Chandigarh","stateSlug":"chandigarh"},"features":[{"type":"Feature","properties":{"DISTRICT":"Chandigarh","ST_NM":"Chandigarh","ST_CEN_CD":4,"DT_CEN_CD":1,"censuscode":55},"geometry":{"type":"Polygon","coordinates":[[[76.84147,30.75996],[76.84952,30.71038],[76.80746,30.66546],[76.73939,30.69216],[76.72929,30.72491],[76.70385,30.74299],[76.70381,30.75642],[76.77266,30.79532],[76.79062,30.78171],[76.78257,30.77324],[76.80943,30.782],[76.8064,30.76273],[76.82527,30.76284],[76.84147,30.75996]]]}}]}
