{"type":"FeatureCollection","properties":{"source":"DataMeet Community Maps Project - Districts/Census_2011","state":"Chhattisgarh","stateSlug":"chhattisgarh"},"features":[{"type":"Feature","properties":{"DISTRICT":"Bastar","ST_NM":"Chhattisgarh","ST_CEN_CD":22,"DT_CEN_CD":15,"censuscode":414},"geometry":{"type":"Polygon","coordinates":[[[81.35597,19.32512],[81.39714,19.33305],[81.39004,19.36137],[81.36473,19.37159],[81.37689,19.41299],[81.39004,19.41195],[81.38763,19.38546],[81.4091,19.36349],[81.46891,19.37523],[81.47431,19.47111],[81.43239,19.47534],[81.42167,19.49254],[81.44962,19.5236],[81.43979,19.54055],[81.45975,19.56909],[81.45431,19.63737],[81.51587,19.66127],[81.44706,19.67724],[81.44842,19.70166],[81.42832,19.71791],[81.37212,19.73299],[81.37231,19.80256],[81.39443,19.8326],[81.37593,19.85064],[81.40349,19.87575],[81.37108,19.90831],[81.34943,19.90979],[81.29333,20.01672],[81.38952,20.04591],[81.42133,20.15519],[81.45296,20.14505],[81.58536,20.19463],[81.61696,20.15844],[81.67978,20.12934],[81.75429,20.16277],[81.84616,20.16469],[81.85038,20.11082],[81.88129,20.05029],[81.84485,19.95432],[81.85721,19.9124],[81.96798,19.8593],[81.98779,19.80047],[82.06748,19.78791],[82.04522,19.70885],[82.05387,19.54387],[82.03014,19.50709],[82.09981,19.5152],[82.10465,19.46654],[82.12709,19.42946],[82.17501,19.43546],[82.19085,19.42326],[82.17418,19.37165],[82.14865,19.36762],[82.19101,19.32554],[82.15959,19.27136],[82.16359,19.20256],[82.18669,19.165],[82.17205,19.16076],[82.1827,19.15138],[82.1677,19.13265],[82.17774,19.11907],[82.18415,19.13126],[82.20766,19.12371],[82.20647,19.10045],[82.22005,19.09685],[82.20205,19.06657],[82.23303,19.02105],[82.24758,18.91715],[82.18077,18.90193],[82.16624,18.87612],[82.16923,18.79777],[82.13717,18.7645],[82.0895,18.76266],[82.08671,18.71896],[82.04185,18.7256],[81.96905,18.69265],[81.94616,18.71694],[81.95831,18.75808],[81.94305,18.76819],[81.80695,18.73623],[81.7734,18.75637],[81.75649,18.81118],[81.71199,18.83602],[81.64988,18.80259],[81.61323,18.82428],[81.61959,18.83973],[81.60517,18.85136],[81.58425,18.8435],[81.55569,18.87455],[81.55525,18.91109],[81.52846,18.92202],[81.51444,18.91041],[81.50981,18.92726],[81.46716,18.9443],[81.48362,18.967],[81.47052,19.0044],[81.51451,19.01075],[81.52969,19.03804],[81.4995,19.04974],[81.51361,19.06814],[81.48173,19.11923],[81.49521,19.12351],[81.50171,19.20397],[81.47339,19.21279],[81.45023,19.18942],[81.40676,19.19195],[81.35384,19.22541],[81.36601,19.25276],[81.35648,19.28536],[81.3763,19.30308],[81.35767,19.32344],[81.35597,19.32512]]]}},{"type":"Feature","properties":{"DISTRICT":"Bijapur","ST_NM":"Chhattisgarh","ST_CEN_CD":22,"DT_CEN_CD":18,"censuscode":417},"geometry":{"type":"Polygon","coordinates":[[[80.61744,19.31102],[80.67921,19.33038],[80.69597,19.28752],[80.75663,19.29083],[80.83377,19.3521],[80.8437,19.33609],[80.96004,19.31407],[80.96994,19.22521],[81.06615,19.22813],[81.07298,19.27207],[81.1112,19.2738],[81.13163,19.24732],[81.11368,19.23536],[81.1461,19.18272],[81.20614,19.18848],[81.21234,19.17126],[81.21034,19.09371],[81.22592,19.05088],[81.20917,19.02232],[81.22569,19.0154],[81.20373,18.9927],[81.23382,18.96715],[81.17089,18.92365],[81.22266,18.92179],[81.22396,18.90865],[81.189,18.81564],[81.19945,18.74434],[81.16298,18.69082],[81.17897,18.65125],[81.15162,18.59705],[81.15108,18.5661],[81.17116,18.59013],[81.19854,18.59263],[81.19659,18.55004],[81.16772,18.54929],[81.15438,18.53049],[81.0826,18.546],[81.03547,18.53255],[81.03096,18.49846],[80.91636,18.3756],[81.04204,18.34013],[81.0586,18.31317],[81.06528,18.2968],[81.03934,18.26011],[81.09694,18.19873],[81.03233,18.15554],[80.97365,18.17477],[80.92009,18.1449],[80.87008,18.13901],[80.85621,18.20385],[80.87551,18.21346],[80.8671,18.23215],[80.83757,18.24022],[80.80594,18.17247],[80.74252,18.17779],[80.7412,18.22478],[80.79606,18.26005],[80.7525,18.30803],[80.72408,18.38861],[80.73435,18.41463],[80.69879,18.42493],[80.70666,18.44156],[80.6585,18.4777],[80.64036,18.52415],[80.491,18.63303],[80.34623,18.593],[80.30367,18.6902],[80.24808,18.75307],[80.3551,18.82035],[80.34303,18.86044],[80.27484,18.9329],[80.27491,18.99133],[80.30059,19.02557],[80.29602,19.05022],[80.3293,19.07879],[80.33201,19.14535],[80.39384,19.19283],[80.39051,19.24285],[80.44423,19.26482],[80.48278,19.33871],[80.52105,19.35189],[80.57505,19.40459],[80.61124,19.31564],[80.61744,19.31102]]]}},{"type":"Feature","properties":{"DISTRICT":"Bilaspur","ST_NM":"Chhattisgarh","ST_CEN_CD":22,"DT_CEN_CD":7,"censuscode":406},"geometry":{"type":"Polygon","coordinates":[[[82.07939,23.11299],[82.14213,23.08403],[82.1864,23.0152],[82.17973,22.97046],[82.22412,22.94046],[82.14932,22.84218],[82.16211,22.81059],[82.15237,22.74415],[82.17641,22.66746],[82.24389,22.65571],[82.24197,22.61899],[82.23546,22.59229],[82.20943,22.59534],[82.15658,22.54186],[82.16679,22.53011],[82.14389,22.45714],[82.18405,22.41181],[82.16805,22.3847],[82.1513,22.38365],[82.15529,22.34943],[82.14044,22.33085],[82.20224,22.31304],[82.21764,22.33735],[82.26819,22.33461],[82.26431,22.29341],[82.29344,22.2857],[82.32885,22.32273],[82.3562,22.32443],[82.37993,22.3014],[82.40779,22.29875],[82.42015,22.28253],[82.39732,22.26218],[82.46037,22.21642],[82.47517,22.18767],[82.42768,22.13765],[82.35979,22.13379],[82.33683,22.10271],[82.3328,21.96083],[82.30894,21.90397],[82.35538,21.85191],[82.38484,21.75898],[82.44087,21.73933],[82.40194,21.71261],[82.33244,21.71236],[82.29111,21.75082],[82.20144,21.76308],[82.18499,21.84304],[82.12571,21.83355],[82.03844,21.88372],[82.02384,21.85877],[81.95789,21.84587],[81.94273,21.81505],[81.90039,21.84382],[81.89604,21.8911],[81.82263,21.88246],[81.82814,21.91623],[81.80653,21.94478],[81.73006,21.94319],[81.66843,21.96195],[81.66111,21.98635],[81.6251,21.98491],[81.60923,22.01569],[81.58485,22.02441],[81.58527,21.98462],[81.54195,22.00808],[81.51921,21.9916],[81.50424,22.0132],[81.50379,22.04872],[81.52429,22.08273],[81.51254,22.13552],[81.55358,22.25633],[81.52238,22.3138],[81.56389,22.34444],[81.48894,22.41833],[81.49749,22.44401],[81.48454,22.47957],[81.49904,22.51701],[81.52637,22.53966],[81.57009,22.53391],[81.57038,22.55071],[81.62312,22.53879],[81.63089,22.56402],[81.65602,22.56871],[81.64873,22.60724],[81.66389,22.63168],[81.71439,22.64933],[81.73031,22.67589],[81.75629,22.64583],[81.77335,22.67583],[81.75399,22.72611],[81.79169,22.76623],[81.76826,22.83383],[81.77682,22.87295],[81.86376,22.89036],[81.86745,22.91446],[81.9477,22.95658],[81.94469,23.0089],[81.9259,23.04033],[81.94558,23.07712],[82.03158,23.07951],[82.07662,23.11427],[82.07939,23.11299]]]}},{"type":"Feature","properties":{"DISTRICT":"Dakshin Bastar Dantewada","ST_NM":"Chhattisgarh","ST_CEN_CD":22,"DT_CEN_CD":17,"censuscode":416},"geometry":{"type":"Polygon","coordinates":[[[81.35592,19.32518],[81.3763,19.30308],[81.35648,19.28536],[81.36601,19.25276],[81.35384,19.22541],[81.40676,19.19195],[81.45023,19.18942],[81.47339,19.21279],[81.50171,19.20397],[81.49521,19.12351],[81.48173,19.11923],[81.51361,19.06814],[81.4995,19.04974],[81.52969,19.03804],[81.51451,19.01075],[81.47052,19.0044],[81.48362,18.967],[81.46716,18.9443],[81.50981,18.92726],[81.51444,18.91041],[81.52846,18.92202],[81.55525,18.91109],[81.55569,18.87455],[81.58425,18.8435],[81.60517,18.85136],[81.61959,18.83973],[81.61323,18.82428],[81.64988,18.80259],[81.71199,18.83602],[81.75649,18.81118],[81.7633,18.77209],[81.80292,18.7372],[81.8564,18.73837],[81.87338,18.76129],[81.91917,18.76978],[81.95156,18.76422],[81.94616,18.71694],[81.96905,18.69265],[81.95559,18.63569],[81.8935,18.65707],[81.89653,18.6278],[81.96271,18.59367],[81.95171,18.56243],[81.91678,18.57118],[81.90502,18.53539],[81.86615,18.52003],[81.85253,18.48856],[81.77034,18.41835],[81.7532,18.3525],[81.66636,18.34633],[81.66694,18.3182],[81.60166,18.3083],[81.53624,18.2661],[81.51309,18.19094],[81.53095,18.16447],[81.51702,18.09972],[81.48229,18.0359],[81.48576,17.97751],[81.4537,17.93372],[81.44575,17.88358],[81.4023,17.89269],[81.39265,17.81118],[81.26252,17.81962],[81.16796,17.85992],[81.08201,17.79358],[81.05363,17.79123],[81.01267,17.84544],[80.97415,18.05012],[80.95211,18.08757],[80.95566,18.12333],[80.98195,18.16474],[81.03233,18.15554],[81.09694,18.19873],[81.03934,18.26011],[81.06528,18.2968],[81.04204,18.34013],[80.91636,18.3756],[81.03096,18.49846],[81.03547,18.53255],[81.0826,18.546],[81.15438,18.53049],[81.16772,18.54929],[81.19441,18.54521],[81.19854,18.59263],[81.17116,18.59013],[81.15108,18.5661],[81.15162,18.59705],[81.17897,18.65125],[81.16298,18.69082],[81.19945,18.74434],[81.189,18.81564],[81.22396,18.90865],[81.22266,18.92179],[81.17089,18.92365],[81.23382,18.96715],[81.20373,18.9927],[81.22569,19.0154],[81.20917,19.02232],[81.22592,19.05088],[81.21034,19.09371],[81.21234,19.17126],[81.20614,19.18848],[81.1461,19.18272],[81.11368,19.23536],[81.14521,19.2594],[81.14292,19.29689],[81.17045,19.26968],[81.22235,19.28818],[81.23806,19.3235],[81.30485,19.33633],[81.3429,19.31974],[81.35592,19.32518]]]}},{"type":"Feature","properties":{"DISTRICT":"Dhamtari","ST_NM":"Chhattisgarh","ST_CEN_CD":22,"DT_CEN_CD":13,"censuscode":412},"geometry":{"type":"MultiPolygon","coordinates":[[[[81.65646,21.00073],[81.68709,20.99809],[81.71124,21.01713],[81.75182,21.01022],[81.78391,20.97028],[81.83805,20.93982],[81.87803,20.96242],[81.89221,20.87135],[81.92651,20.81378],[81.91111,20.79052],[81.92713,20.74864],[81.98058,20.72624],[82.01477,20.67252],[81.99699,20.62751],[82.02147,20.52886],[82.04937,20.5019],[82.08311,20.4125],[82.08425,20.32964],[82.10827,20.2893],[82.14263,20.28651],[82.17473,20.25911],[82.13546,20.18626],[82.1361,20.14676],[82.10281,20.10421],[82.03527,20.09816],[82.01752,20.04905],[81.94887,20.10634],[81.89699,20.04741],[81.87529,20.05497],[81.87476,20.08343],[81.85038,20.11082],[81.84805,20.16336],[81.81686,20.16911],[81.80556,20.21107],[81.78836,20.21052],[81.77755,20.23257],[81.78956,20.26081],[81.8034,20.25829],[81.79082,20.28922],[81.77399,20.28019],[81.76311,20.29871],[81.79763,20.32939],[81.78511,20.35599],[81.76612,20.35609],[81.77159,20.38322],[81.73934,20.42047],[81.73715,20.48217],[81.58636,20.51832],[81.54549,20.51447],[81.52294,20.49288],[81.50243,20.51891],[81.41309,20.52732],[81.41198,20.55225],[81.45624,20.56704],[81.44665,20.58964],[81.51759,20.59001],[81.47578,20.59486],[81.51436,20.61279],[81.51618,20.62365],[81.50062,20.61097],[81.49295,20.6233],[81.51751,20.71224],[81.48519,20.72399],[81.48323,20.77304],[81.51548,20.79973],[81.52038,20.82467],[81.4971,20.83384],[81.47615,20.87072],[81.52093,20.89462],[81.54139,20.9272],[81.6136,20.96222],[81.62421,20.98939],[81.61297,21.02443],[81.65344,21.0041],[81.65646,21.00073]]],[[[81.45035,20.59259],[81.46257,20.62553],[81.45024,20.59467],[81.45035,20.59259]]]]}},{"type":"Feature","properties":{"DISTRICT":"Durg","ST_NM":"Chhattisgarh","ST_CEN_CD":22,"DT_CEN_CD":10,"censuscode":409},"geometry":{"type":"Polygon","coordinates":[[[81.94273,21.81505],[81.84912,21.75779],[81.80752,21.7705],[81.7731,21.76892],[81.7485,21.74924],[81.73676,21.76559],[81.70216,21.75939],[81.7235,21.69434],[81.66035,21.65569],[81.70015,21.61094],[81.6689,21.54571],[81.64555,21.5456],[81.63203,21.50626],[81.63946,21.40423],[81.61126,21.38374],[81.59341,21.34307],[81.55468,21.33513],[81.53478,21.30241],[81.54661,21.24455],[81.6031,21.20617],[81.62479,21.16191],[81.60672,21.15956],[81.5783,21.09474],[81.58093,21.07391],[81.60972,21.06139],[81.58788,21.04622],[81.6139,21.02577],[81.62421,20.98939],[81.59164,20.94183],[81.54139,20.9272],[81.52093,20.89462],[81.47615,20.87072],[81.4971,20.83384],[81.52038,20.82467],[81.51548,20.79973],[81.48323,20.77304],[81.48519,20.72399],[81.51751,20.71224],[81.49295,20.6233],[81.50062,20.61097],[81.51618,20.62365],[81.51436,20.61279],[81.47578,20.59486],[81.51759,20.59001],[81.44665,20.58964],[81.45624,20.56704],[81.38485,20.53224],[81.32148,20.55494],[81.29821,20.51844],[81.25664,20.4979],[81.25452,20.44369],[81.15353,20.37774],[81.04292,20.42367],[81.00049,20.45865],[80.94601,20.44071],[80.94609,20.46135],[80.97207,20.47211],[80.96821,20.49612],[80.94434,20.50818],[80.95353,20.54658],[80.9936,20.57649],[80.98881,20.61012],[80.93802,20.63186],[80.94292,20.66722],[80.9171,20.64856],[80.90911,20.66531],[80.88709,20.65523],[80.856,20.67179],[80.86132,20.68866],[80.81673,20.69053],[80.80545,20.72022],[80.8221,20.76187],[80.88377,20.80394],[80.90036,20.80718],[80.90792,20.78126],[80.93199,20.77678],[80.95729,20.82435],[80.97995,20.81301],[80.95241,20.84416],[80.99553,20.88592],[80.96559,20.91289],[80.9637,20.95061],[80.94344,20.95013],[80.95079,21.00181],[81.09363,20.99592],[81.13374,21.02152],[81.16092,21.1013],[81.20642,21.10271],[81.198,21.12434],[81.21733,21.1686],[81.19934,21.21961],[81.15162,21.21329],[81.16357,21.28745],[81.19882,21.33449],[81.17316,21.43736],[81.18263,21.48054],[81.1585,21.49689],[81.18868,21.49552],[81.19586,21.51433],[81.14084,21.5502],[81.1925,21.63039],[81.1764,21.70316],[81.23232,21.71008],[81.22633,21.75375],[81.34264,21.76758],[81.3258,21.82612],[81.34001,21.83979],[81.40421,21.83429],[81.39411,21.88078],[81.41867,21.91712],[81.44964,21.90089],[81.48325,21.9896],[81.47142,22.01565],[81.48535,22.01856],[81.51921,21.9916],[81.54195,22.00808],[81.58527,21.98462],[81.58485,22.02441],[81.60923,22.01569],[81.6251,21.98491],[81.66111,21.98635],[81.66843,21.96195],[81.73006,21.94319],[81.80653,21.94478],[81.82814,21.91623],[81.82263,21.88246],[81.89604,21.8911],[81.90039,21.84382],[81.93062,21.82919],[81.94273,21.81505]],[[81.45035,20.59259],[81.46257,20.62553],[81.44617,20.59229],[81.45035,20.59259]]]}},{"type":"Feature","properties":{"DISTRICT":"Janjgir-champa","ST_NM":"Chhattisgarh","ST_CEN_CD":22,"DT_CEN_CD":6,"censuscode":405},"geometry":{"type":"Polygon","coordinates":[[[82.52975,22.23987],[82.54545,22.20783],[82.57857,22.22228],[82.59412,22.25866],[82.64195,22.24107],[82.66007,22.18836],[82.63652,22.12367],[82.67311,22.08123],[82.69993,22.08821],[82.71257,22.04977],[82.73237,22.03736],[82.74235,22.04721],[82.73072,22.08628],[82.75768,22.09988],[82.76204,22.11922],[82.85909,22.16908],[82.89216,22.16256],[82.9048,22.13839],[83.03321,22.05446],[83.00796,22.02812],[83.05022,22.00337],[83.00425,21.98659],[83.00528,21.96552],[83.09358,21.97262],[83.12245,21.92755],[83.15191,21.91149],[83.19209,21.92215],[83.21781,21.90277],[83.21945,21.88321],[83.18414,21.84518],[83.22461,21.83329],[83.21021,21.81179],[83.2401,21.78988],[83.26975,21.73523],[83.26145,21.72449],[83.31268,21.7013],[83.3196,21.68062],[83.16947,21.71536],[83.08908,21.71394],[83.02804,21.73726],[82.86662,21.68862],[82.79541,21.72269],[82.70376,21.72698],[82.66516,21.70919],[82.62923,21.72944],[82.60009,21.71283],[82.55148,21.73606],[82.48129,21.7262],[82.38484,21.75898],[82.35538,21.85191],[82.30894,21.90397],[82.3328,21.96083],[82.33683,22.10271],[82.35979,22.13379],[82.42768,22.13765],[82.47517,22.18767],[82.46231,22.21331],[82.49666,22.24669],[82.52052,22.25237],[82.52966,22.24004],[82.52975,22.23987]]]}},{"type":"Feature","properties":{"DISTRICT":"Jashpur","ST_NM":"Chhattisgarh","ST_CEN_CD":22,"DT_CEN_CD":3,"censuscode":402},"geometry":{"type":"Polygon","coordinates":[[[84.04097,23.16889],[84.04082,23.13953],[84.0686,23.11106],[84.13646,23.08279],[84.13075,23.03793],[84.15506,22.9653],[84.17491,22.97241],[84.18374,23.02189],[84.19698,23.0251],[84.22409,22.97795],[84.25791,22.97294],[84.27841,22.99035],[84.28557,22.96279],[84.33214,22.98089],[84.37749,22.97667],[84.39598,22.94041],[84.3778,22.90333],[84.38384,22.87764],[84.33641,22.86129],[84.29225,22.76522],[84.26119,22.7648],[84.23234,22.73701],[84.23919,22.6905],[84.22756,22.67085],[84.15692,22.63636],[84.08739,22.63843],[84.05515,22.59606],[84.01209,22.57148],[84.01221,22.52672],[83.98713,22.52398],[83.98313,22.50422],[84.04855,22.46622],[84.01122,22.3699],[83.86806,22.34594],[83.83226,22.32179],[83.8265,22.29466],[83.80474,22.29183],[83.76803,22.32452],[83.74106,22.37842],[83.65812,22.39076],[83.58541,22.4555],[83.58972,22.54059],[83.49673,22.49294],[83.40324,22.55705],[83.41399,22.58149],[83.40417,22.6157],[83.43923,22.67463],[83.50738,22.65918],[83.56081,22.69985],[83.64614,22.6587],[83.67431,22.62613],[83.68843,22.64724],[83.68664,22.67853],[83.63385,22.7074],[83.65988,22.77837],[83.64854,22.82263],[83.60061,22.85094],[83.51181,22.94804],[83.5158,22.98389],[83.55115,23.03032],[83.50221,23.06735],[83.56046,23.13287],[83.55521,23.1739],[83.57715,23.18892],[83.60401,23.18115],[83.62605,23.21657],[83.65892,23.22475],[83.71831,23.20485],[83.75033,23.23759],[83.78269,23.2225],[83.79115,23.24526],[83.88203,23.20305],[83.92952,23.16637],[83.93141,23.14738],[83.97073,23.16496],[83.96996,23.18062],[84.02079,23.18758],[84.03553,23.17389],[84.04097,23.16889]]]}},{"type":"Feature","properties":{"DISTRICT":"Kabeerdham","ST_NM":"Chhattisgarh","ST_CEN_CD":22,"DT_CEN_CD":8,"censuscode":407},"geometry":{"type":"Polygon","coordinates":[[[81.35521,22.51364],[81.38599,22.5049],[81.4038,22.44102],[81.42619,22.45392],[81.4317,22.47892],[81.45531,22.4671],[81.44534,22.49361],[81.48713,22.49302],[81.49233,22.41067],[81.56321,22.34724],[81.52238,22.3138],[81.55358,22.25633],[81.51254,22.13552],[81.52429,22.08273],[81.50379,22.04872],[81.50886,22.01646],[81.47142,22.01565],[81.48325,21.9896],[81.45904,21.91607],[81.44533,21.89974],[81.41867,21.91712],[81.39411,21.88078],[81.40421,21.83429],[81.34001,21.83979],[81.3258,21.82612],[81.33834,21.76498],[81.22633,21.75375],[81.23681,21.71873],[81.21998,21.70442],[81.13047,21.70665],[81.10506,21.7304],[81.05723,21.72384],[81.03734,21.7387],[80.99655,21.72563],[80.95359,21.76494],[80.927,21.82355],[80.84069,21.83483],[80.84658,21.87538],[80.83079,21.89782],[80.84355,21.93555],[80.82545,21.95663],[80.85279,21.96077],[80.91789,22.11885],[80.95759,22.11274],[80.97047,22.05819],[80.99483,22.04836],[81.00625,22.06137],[81.01077,22.09671],[80.97789,22.11442],[81.02289,22.13249],[81.02656,22.22884],[81.09181,22.24643],[81.12099,22.29402],[81.10812,22.38274],[81.11717,22.44054],[81.18727,22.48958],[81.20138,22.46156],[81.23077,22.45113],[81.28271,22.49894],[81.31121,22.48131],[81.32206,22.51542],[81.33914,22.52189],[81.35521,22.51364]]]}},{"type":"Feature","properties":{"DISTRICT":"Korba","ST_NM":"Chhattisgarh","ST_CEN_CD":22,"DT_CEN_CD":5,"censuscode":404},"geometry":{"type":"Polygon","coordinates":[[[82.26458,22.29811],[82.26819,22.33461],[82.21764,22.33735],[82.20224,22.31304],[82.14044,22.33085],[82.15529,22.34943],[82.1513,22.38365],[82.16805,22.3847],[82.18405,22.41181],[82.14389,22.45714],[82.16679,22.53011],[82.15658,22.54186],[82.20943,22.59534],[82.23546,22.59229],[82.24197,22.61899],[82.24389,22.65571],[82.17641,22.66746],[82.15237,22.74415],[82.16211,22.81059],[82.14932,22.84218],[82.22412,22.94046],[82.26028,22.9383],[82.3724,22.99689],[82.45074,22.96646],[82.56724,22.97253],[82.577,22.91365],[82.59666,22.89793],[82.55961,22.86156],[82.57333,22.83078],[82.65827,22.80927],[82.72315,22.82988],[82.77789,22.76962],[82.83482,22.74329],[82.86826,22.74714],[82.94618,22.67427],[83.01404,22.64044],[83.0703,22.66984],[83.12099,22.66977],[83.12447,22.65136],[83.09766,22.62318],[83.10893,22.51112],[83.08905,22.47372],[83.09557,22.43065],[83.11611,22.4202],[83.11093,22.36466],[83.05516,22.284],[83.06172,22.26202],[83.036,22.24506],[83.05295,22.19885],[83.0305,22.16898],[82.96892,22.1624],[82.94093,22.12204],[82.8716,22.17151],[82.8233,22.15566],[82.73072,22.08628],[82.74217,22.04353],[82.72735,22.03855],[82.69993,22.08821],[82.67311,22.08123],[82.63652,22.12367],[82.66007,22.18836],[82.62497,22.25269],[82.59412,22.25866],[82.57857,22.22228],[82.54922,22.20841],[82.52052,22.25237],[82.46291,22.21372],[82.39732,22.26218],[82.42015,22.28253],[82.40779,22.29875],[82.37993,22.3014],[82.3562,22.32443],[82.32885,22.32273],[82.29683,22.28572],[82.26431,22.29341],[82.26458,22.29811]],[[83.00648,22.25626],[82.987,22.23627],[83.02085,22.23479],[83.01148,22.25314],[83.00648,22.25626]]]}},{"type":"Feature","properties":{"DISTRICT":"Koriya","ST_NM":"Chhattisgarh","ST_CEN_CD":22,"DT_CEN_CD":1,"censuscode":400},"geometry":{"type":"Polygon","coordinates":[[[81.68725,23.90566],[81.71042,23.86149],[81.73074,23.85709],[81.7268,23.83856],[81.79038,23.81006],[81.86067,23.82259],[81.9242,23.87125],[81.95846,23.8512],[82.00849,23.86148],[82.05313,23.81903],[82.08576,23.81554],[82.173,23.81929],[82.21165,23.85153],[82.20701,23.83048],[82.23387,23.80554],[82.26304,23.82051],[82.33597,23.80236],[82.47124,23.80967],[82.49946,23.78459],[82.49895,23.76412],[82.54937,23.75325],[82.60052,23.67879],[82.57526,23.62083],[82.58169,23.54197],[82.64714,23.48835],[82.65068,23.3878],[82.74505,23.35804],[82.75975,23.30776],[82.75774,23.2552],[82.67187,23.20985],[82.63959,23.14143],[82.58112,23.12613],[82.58869,23.09082],[82.57164,23.06964],[82.61006,23.0047],[82.58074,22.98623],[82.58637,22.94386],[82.56427,22.95552],[82.56724,22.97253],[82.45074,22.96646],[82.39045,22.99717],[82.26028,22.9383],[82.20251,22.94976],[82.17973,22.97046],[82.17799,23.04043],[82.12338,23.10324],[82.16158,23.15055],[82.14485,23.16435],[82.15001,23.227],[82.19701,23.28385],[82.19186,23.32609],[82.16565,23.33249],[82.1454,23.36094],[82.11848,23.35494],[82.10607,23.39673],[82.06436,23.39253],[82.05331,23.37688],[82.02211,23.38688],[82.02356,23.42244],[81.98369,23.41201],[81.95656,23.4955],[81.92138,23.53245],[81.83478,23.50992],[81.81224,23.54439],[81.74365,23.56592],[81.70069,23.52184],[81.66213,23.53001],[81.65523,23.50092],[81.62201,23.49622],[81.61329,23.54888],[81.58466,23.55325],[81.57733,23.58696],[81.61029,23.59836],[81.62087,23.65925],[81.65076,23.65862],[81.69496,23.7196],[81.68176,23.75216],[81.64734,23.76927],[81.65024,23.80269],[81.63582,23.83239],[81.61355,23.83624],[81.6051,23.85994],[81.62258,23.87077],[81.60463,23.88699],[81.66516,23.92255],[81.68508,23.90825],[81.68725,23.90566]]]}},{"type":"Feature","properties":{"DISTRICT":"Mahasamund","ST_NM":"Chhattisgarh","ST_CEN_CD":22,"DT_CEN_CD":12,"censuscode":411},"geometry":{"type":"Polygon","coordinates":[[[82.93457,21.49445],[83.00003,21.4576],[83.01911,21.48656],[83.04841,21.4795],[83.05417,21.44135],[83.12734,21.41825],[83.11831,21.40749],[83.14854,21.36353],[83.1836,21.39964],[83.19296,21.38108],[83.20586,21.397],[83.22876,21.38031],[83.27724,21.37828],[83.26133,21.31571],[83.28178,21.28906],[83.27492,21.27201],[83.24967,21.27982],[83.22559,21.26351],[83.19735,21.13912],[83.12712,21.10464],[83.04788,21.1224],[83.00027,21.15763],[82.97244,21.15908],[82.96337,21.17877],[82.88655,21.15234],[82.8198,21.16172],[82.79618,21.14244],[82.75962,21.16284],[82.64328,21.15244],[82.65238,21.10497],[82.61674,21.0743],[82.62967,21.03975],[82.5603,20.94475],[82.49304,20.90678],[82.48931,20.85866],[82.46091,20.8246],[82.42293,20.8298],[82.4088,20.86569],[82.36643,20.86974],[82.36657,20.88588],[82.3493,20.87323],[82.3245,20.88357],[82.28561,20.91619],[82.28437,20.93534],[82.22752,20.95009],[82.22472,20.93495],[82.19935,20.94075],[82.16104,21.01768],[82.10335,21.02784],[81.9957,21.10673],[82.02763,21.23246],[82.16622,21.32762],[82.24158,21.43309],[82.27893,21.39304],[82.2468,21.36454],[82.26019,21.32614],[82.24612,21.31283],[82.27943,21.29686],[82.28146,21.27235],[82.30073,21.26773],[82.32568,21.29091],[82.3538,21.28173],[82.35212,21.26455],[82.36672,21.27426],[82.38672,21.26161],[82.42625,21.30763],[82.44795,21.30176],[82.44178,21.28189],[82.45739,21.27621],[82.46135,21.2939],[82.47905,21.29481],[82.46692,21.30789],[82.47579,21.32523],[82.55946,21.31932],[82.64912,21.34777],[82.69916,21.32995],[82.69006,21.48124],[82.73302,21.48976],[82.7724,21.51951],[82.82818,21.50145],[82.82443,21.52849],[82.87588,21.55043],[82.92015,21.48791],[82.93456,21.49444],[82.93457,21.49445]]]}},{"type":"Feature","properties":{"DISTRICT":"Narayanpur","ST_NM":"Chhattisgarh","ST_CEN_CD":22,"DT_CEN_CD":16,"censuscode":415},"geometry":{"type":"Polygon","coordinates":[[[81.04607,20.00317],[81.03721,19.97185],[81.0642,19.9314],[81.01416,19.90666],[80.99854,19.83325],[81.07908,19.69541],[81.14581,19.69684],[81.15476,19.71596],[81.13386,19.76832],[81.1661,19.80262],[81.20064,19.77919],[81.24419,19.8053],[81.3017,19.79819],[81.34592,19.8317],[81.39357,19.83279],[81.37231,19.80256],[81.37212,19.73299],[81.42832,19.71791],[81.44842,19.70166],[81.44706,19.67724],[81.51587,19.66127],[81.45431,19.63737],[81.45975,19.56909],[81.43979,19.54055],[81.44962,19.5236],[81.42167,19.49254],[81.43239,19.47534],[81.47431,19.47111],[81.46891,19.37523],[81.4091,19.36349],[81.38763,19.38546],[81.39004,19.41195],[81.37689,19.41299],[81.36473,19.37159],[81.39004,19.36137],[81.39714,19.33305],[81.3429,19.31974],[81.2882,19.33639],[81.23106,19.3196],[81.22235,19.28818],[81.17045,19.26968],[81.14292,19.29689],[81.1416,19.25539],[81.1112,19.2738],[81.07298,19.27207],[81.06615,19.22813],[80.96994,19.22521],[80.96416,19.30973],[80.90434,19.3181],[80.89227,19.33645],[80.8437,19.33609],[80.83377,19.3521],[80.85024,19.37018],[80.82337,19.38308],[80.79528,19.4306],[80.89302,19.46047],[80.88641,19.52287],[80.85273,19.53296],[80.83494,19.56639],[80.79246,19.56407],[80.76523,19.59375],[80.72824,19.6119],[80.66924,19.61216],[80.66332,19.62854],[80.67265,19.69127],[80.72559,19.69791],[80.71836,19.77917],[80.76685,19.80402],[80.78557,19.78481],[80.82216,19.81447],[80.81623,19.82893],[80.77889,19.83731],[80.71158,19.79951],[80.73153,19.84003],[80.83448,19.90483],[80.85341,19.94875],[80.9245,19.9259],[80.93924,19.94851],[80.89276,19.96102],[80.89807,20.02753],[80.94877,20.07152],[81.02054,20.09366],[81.07107,20.05184],[81.04785,20.00791],[81.04607,20.00317]]]}},{"type":"Feature","properties":{"DISTRICT":"Raigarh","ST_NM":"Chhattisgarh","ST_CEN_CD":22,"DT_CEN_CD":4,"censuscode":403},"geometry":{"type":"MultiPolygon","coordinates":[[[[83.22531,22.78548],[83.25365,22.7692],[83.32853,22.7665],[83.35252,22.73316],[83.39797,22.73673],[83.39408,22.69431],[83.38161,22.69437],[83.38795,22.65782],[83.4115,22.63959],[83.41708,22.65952],[83.43771,22.67202],[83.44158,22.661],[83.40417,22.6157],[83.41399,22.58149],[83.40324,22.55705],[83.49673,22.49294],[83.58972,22.54059],[83.58541,22.4555],[83.65812,22.39076],[83.74106,22.37842],[83.76803,22.32452],[83.80512,22.29605],[83.75988,22.24509],[83.70011,22.24768],[83.65286,22.22675],[83.5644,22.10227],[83.60744,22.06789],[83.55014,22.06173],[83.5396,22.03642],[83.55569,22.00913],[83.5423,21.96599],[83.56049,21.93474],[83.60759,21.91347],[83.57864,21.87456],[83.59158,21.84633],[83.58065,21.83241],[83.53838,21.83461],[83.54369,21.79671],[83.49807,21.81724],[83.47432,21.78547],[83.49127,21.74438],[83.46349,21.69718],[83.43513,21.69517],[83.42692,21.67788],[83.49022,21.64259],[83.49168,21.62856],[83.45992,21.6082],[83.44839,21.6522],[83.38788,21.61569],[83.34181,21.49865],[83.35748,21.44718],[83.40095,21.40275],[83.41163,21.35852],[83.39516,21.34236],[83.28858,21.3784],[83.22876,21.38031],[83.21125,21.39649],[83.19296,21.38108],[83.1836,21.39964],[83.14854,21.36353],[83.11831,21.40749],[83.12734,21.41825],[83.05417,21.44135],[83.04841,21.4795],[83.01911,21.48656],[83.00003,21.4576],[82.93457,21.49445],[82.92663,21.54289],[82.98384,21.63585],[82.95125,21.72182],[83.02804,21.73726],[83.08908,21.71394],[83.16947,21.71536],[83.3196,21.68062],[83.31268,21.7013],[83.26145,21.72449],[83.26975,21.73523],[83.2401,21.78988],[83.21021,21.81179],[83.22461,21.83329],[83.18414,21.84518],[83.21945,21.88321],[83.21781,21.90277],[83.19209,21.92215],[83.15191,21.91149],[83.12245,21.92755],[83.09358,21.97262],[83.00528,21.96552],[83.00425,21.98659],[83.05022,22.00337],[83.00796,22.02812],[83.03321,22.05446],[83.0157,22.05504],[83.01496,22.07384],[82.93976,22.1286],[82.96892,22.1624],[83.0305,22.16898],[83.05295,22.19885],[83.036,22.24506],[83.06172,22.26202],[83.05516,22.284],[83.11093,22.36466],[83.11611,22.4202],[83.09557,22.43065],[83.08905,22.47372],[83.10893,22.51112],[83.09421,22.57565],[83.09921,22.63225],[83.12447,22.65136],[83.11225,22.68199],[83.12024,22.723],[83.15485,22.73832],[83.16548,22.77254],[83.2231,22.78689],[83.22531,22.78548]]],[[[83.02085,22.23479],[82.98653,22.24029],[83.00648,22.25626],[83.02235,22.23695],[83.02085,22.23479]]]]}},{"type":"Feature","properties":{"DISTRICT":"Raipur","ST_NM":"Chhattisgarh","ST_CEN_CD":22,"DT_CEN_CD":11,"censuscode":410},"geometry":{"type":"Polygon","coordinates":[[[82.43956,21.73763],[82.49066,21.72585],[82.55148,21.73606],[82.60009,21.71283],[82.62923,21.72944],[82.66516,21.70919],[82.70376,21.72698],[82.79541,21.72269],[82.86662,21.68862],[82.95125,21.72182],[82.95425,21.68643],[82.96889,21.68655],[82.9845,21.64179],[82.92697,21.55129],[82.92817,21.49033],[82.87588,21.55043],[82.82443,21.52849],[82.82818,21.50145],[82.7724,21.51951],[82.73302,21.48976],[82.69006,21.48124],[82.69916,21.32995],[82.64912,21.34777],[82.55946,21.31932],[82.47579,21.32523],[82.46692,21.30789],[82.47905,21.29481],[82.46135,21.2939],[82.45739,21.27621],[82.44178,21.28189],[82.44795,21.30176],[82.42625,21.30763],[82.38672,21.26161],[82.36672,21.27426],[82.35212,21.26455],[82.3538,21.28173],[82.32568,21.29091],[82.29046,21.26978],[82.27943,21.29686],[82.24612,21.31283],[82.26019,21.32614],[82.2468,21.36454],[82.27893,21.39304],[82.24158,21.43309],[82.16622,21.32762],[82.02763,21.23246],[81.99853,21.13191],[82.00775,21.08661],[82.10335,21.02784],[82.16104,21.01768],[82.19935,20.94075],[82.22472,20.93495],[82.22752,20.95009],[82.28437,20.93534],[82.28859,20.91292],[82.34705,20.88019],[82.34253,20.76188],[82.37566,20.6277],[82.33146,20.55759],[82.38795,20.51371],[82.39556,20.45648],[82.41753,20.47725],[82.43664,20.42981],[82.40128,20.3397],[82.43674,20.28727],[82.4126,20.26785],[82.42113,20.20672],[82.38647,20.14914],[82.39842,20.06428],[82.60596,19.9907],[82.63933,20.00515],[82.71851,19.98844],[82.70813,19.89864],[82.72511,19.87621],[82.71033,19.8365],[82.65337,19.83078],[82.63062,19.79476],[82.59271,19.77649],[82.5789,19.82772],[82.59839,19.87149],[82.44711,19.90795],[82.39644,19.88678],[82.3471,19.83502],[82.30585,19.88836],[82.2693,19.97625],[82.23822,20.0027],[82.18606,19.98267],[82.17341,20.00269],[82.12367,20.01486],[82.06546,20.05419],[82.03197,20.0144],[82.02235,20.02383],[82.03527,20.09816],[82.10866,20.11084],[82.1361,20.14676],[82.13546,20.18626],[82.17473,20.25911],[82.14263,20.28651],[82.10827,20.2893],[82.08425,20.32964],[82.08311,20.4125],[82.04937,20.5019],[82.02147,20.52886],[81.99699,20.62751],[82.01477,20.67252],[81.98058,20.72624],[81.92713,20.74864],[81.91111,20.79052],[81.92651,20.81378],[81.89221,20.87135],[81.87803,20.96242],[81.83805,20.93982],[81.78391,20.97028],[81.75182,21.01022],[81.71124,21.01713],[81.65966,20.99848],[81.58951,21.04423],[81.60972,21.06139],[81.57992,21.07618],[81.58418,21.12402],[81.60672,21.15956],[81.62479,21.16191],[81.6031,21.20617],[81.54661,21.24455],[81.53478,21.30241],[81.55468,21.33513],[81.59341,21.34307],[81.61126,21.38374],[81.63946,21.40423],[81.63203,21.50626],[81.64555,21.5456],[81.6689,21.54571],[81.70015,21.61094],[81.66035,21.65569],[81.7235,21.69434],[81.69954,21.75034],[81.70839,21.76332],[81.73676,21.76559],[81.7485,21.74924],[81.7731,21.76892],[81.84912,21.75779],[81.90088,21.77951],[81.95789,21.84587],[82.02384,21.85877],[82.04399,21.88359],[82.12571,21.83355],[82.18499,21.84304],[82.18764,21.78959],[82.20634,21.7606],[82.29111,21.75082],[82.33244,21.71236],[82.40194,21.71261],[82.4341,21.73054],[82.43956,21.73763]]]}},{"type":"Feature","properties":{"DISTRICT":"Rajnandgaon","ST_NM":"Chhattisgarh","ST_CEN_CD":22,"DT_CEN_CD":9,"censuscode":408},"geometry":{"type":"Polygon","coordinates":[[[81.17645,21.70315],[81.1925,21.63039],[81.14084,21.5502],[81.19586,21.51433],[81.18868,21.49552],[81.1585,21.49689],[81.18263,21.48054],[81.17316,21.43736],[81.19882,21.33449],[81.16357,21.28745],[81.15162,21.21329],[81.19934,21.21961],[81.21733,21.1686],[81.198,21.12434],[81.20642,21.10271],[81.16092,21.1013],[81.13374,21.02152],[81.09363,20.99592],[80.95079,21.00181],[80.94344,20.95013],[80.9637,20.95061],[80.96559,20.91289],[80.99553,20.88592],[80.95241,20.84416],[80.97995,20.81301],[80.95729,20.82435],[80.93199,20.77678],[80.90792,20.78126],[80.90036,20.80718],[80.88377,20.80394],[80.8221,20.76187],[80.80545,20.72022],[80.81673,20.69053],[80.86132,20.68866],[80.856,20.67179],[80.88709,20.65523],[80.90911,20.66531],[80.9171,20.64856],[80.94292,20.66722],[80.93802,20.63186],[80.98881,20.61012],[80.9936,20.57649],[80.95353,20.54658],[80.94434,20.50818],[80.96821,20.49612],[80.97207,20.47211],[80.94609,20.46135],[80.94601,20.44071],[80.8865,20.38519],[80.86274,20.38823],[80.84946,20.34971],[80.81286,20.35336],[80.83298,20.3186],[80.82261,20.29689],[80.78842,20.28119],[80.75617,20.29031],[80.73048,20.26691],[80.73711,20.22322],[80.71495,20.18777],[80.69108,20.19102],[80.65709,20.22454],[80.61356,20.18207],[80.56983,20.18619],[80.56586,20.13413],[80.54735,20.11226],[80.49808,20.1438],[80.45826,20.14715],[80.44654,20.13141],[80.40839,20.14173],[80.39143,20.16068],[80.42087,20.19238],[80.39308,20.24665],[80.47235,20.27371],[80.51777,20.27174],[80.54896,20.30897],[80.62367,20.32791],[80.59298,20.39763],[80.6104,20.43523],[80.60164,20.44836],[80.62926,20.60558],[80.57421,20.61406],[80.51877,20.58674],[80.48844,20.61864],[80.51446,20.65611],[80.58702,20.68518],[80.5524,20.76675],[80.56275,20.82099],[80.5487,20.93503],[80.46589,20.92918],[80.43053,21.01046],[80.45413,21.03747],[80.44008,21.09788],[80.45603,21.11269],[80.44543,21.12211],[80.46408,21.17349],[80.6103,21.22814],[80.67984,21.29897],[80.66342,21.33138],[80.73716,21.47253],[80.71429,21.67174],[80.73325,21.73112],[80.74991,21.75802],[80.78969,21.7397],[80.81817,21.74764],[80.84465,21.82992],[80.927,21.82355],[80.95359,21.76494],[80.99655,21.72563],[81.02632,21.7397],[81.05723,21.72384],[81.10182,21.73134],[81.13047,21.70665],[81.17644,21.70316],[81.17645,21.70315]]]}},{"type":"Feature","properties":{"DISTRICT":"Surguja","ST_NM":"Chhattisgarh","ST_CEN_CD":22,"DT_CEN_CD":2,"censuscode":401},"geometry":{"type":"Polygon","coordinates":[[[83.33127,24.10053],[83.43306,24.08306],[83.45526,24.04185],[83.51435,24.02768],[83.51535,23.97896],[83.54653,23.93309],[83.55043,23.89788],[83.58372,23.88407],[83.56878,23.86265],[83.65707,23.84785],[83.66584,23.82764],[83.70288,23.82053],[83.73686,23.75471],[83.74216,23.71359],[83.72217,23.6826],[83.75836,23.65347],[83.75519,23.62681],[83.78228,23.59973],[83.80784,23.58345],[83.9426,23.56345],[83.94523,23.62277],[84,23.63341],[84.01434,23.63268],[84.02964,23.5978],[84.01954,23.50869],[83.97679,23.45599],[83.98671,23.42731],[83.97307,23.38189],[84.01375,23.35356],[84.02796,23.3762],[84.05061,23.37477],[84.07744,23.33083],[84.0576,23.2419],[84.0655,23.20461],[84.04097,23.16889],[84.02079,23.18758],[83.96996,23.18062],[83.97073,23.16496],[83.93141,23.14738],[83.92952,23.16637],[83.88203,23.20305],[83.79115,23.24526],[83.78269,23.2225],[83.75033,23.23759],[83.71831,23.20485],[83.65892,23.22475],[83.62605,23.21657],[83.60401,23.18115],[83.57715,23.18892],[83.55521,23.1739],[83.56046,23.13287],[83.50349,23.0715],[83.55115,23.03032],[83.5158,22.98389],[83.51181,22.94804],[83.60061,22.85094],[83.64854,22.82263],[83.65627,22.75172],[83.63286,22.71404],[83.68664,22.67853],[83.67431,22.62613],[83.64614,22.6587],[83.56081,22.69985],[83.50738,22.65918],[83.43923,22.67463],[83.4115,22.63959],[83.38323,22.68221],[83.39797,22.73673],[83.35252,22.73316],[83.32853,22.7665],[83.25365,22.7692],[83.22234,22.79073],[83.16548,22.77254],[83.15485,22.73832],[83.12198,22.72745],[83.11444,22.67688],[83.01404,22.64044],[82.94618,22.67427],[82.86826,22.74714],[82.83482,22.74329],[82.77789,22.76962],[82.72315,22.82988],[82.65077,22.80961],[82.57333,22.83078],[82.55887,22.84794],[82.58012,22.89406],[82.59666,22.89793],[82.57613,22.91669],[82.57547,22.94264],[82.58845,22.94834],[82.57884,22.98064],[82.61003,23.00314],[82.57164,23.06964],[82.58869,23.09082],[82.58112,23.12613],[82.63959,23.14143],[82.67187,23.20985],[82.75774,23.2552],[82.75975,23.30776],[82.74505,23.35804],[82.65068,23.3878],[82.64714,23.48835],[82.58169,23.54197],[82.57526,23.62083],[82.60142,23.65879],[82.59796,23.68602],[82.54937,23.75325],[82.49895,23.76412],[82.49944,23.78456],[82.55224,23.79311],[82.53508,23.82293],[82.63725,23.83793],[82.66794,23.86926],[82.65388,23.8876],[82.66427,23.90672],[82.75586,23.92121],[82.80642,23.9611],[82.8285,23.9639],[82.95722,23.87215],[83.13509,23.88932],[83.19725,23.9204],[83.22373,23.98865],[83.28563,24.02371],[83.29373,24.06503],[83.32669,24.10563],[83.33127,24.10053]]]}},{"type":"Feature","properties":{"DISTRICT":"Uttar Bastar Kanker","ST_NM":"Chhattisgarh","ST_CEN_CD":22,"DT_CEN_CD":14,"censuscode":413},"geometry":{"type":"Polygon","coordinates":[[[81.41198,20.55225],[81.42527,20.51846],[81.50243,20.51891],[81.52294,20.49288],[81.54549,20.51447],[81.58636,20.51832],[81.73715,20.48217],[81.73934,20.42047],[81.77159,20.38322],[81.76612,20.35609],[81.78511,20.35599],[81.79763,20.32939],[81.76311,20.29871],[81.77399,20.28019],[81.79082,20.28922],[81.8034,20.25829],[81.78956,20.26081],[81.77755,20.23257],[81.78836,20.21052],[81.80556,20.21107],[81.8169,20.16912],[81.75429,20.16277],[81.67978,20.12934],[81.61696,20.15844],[81.58536,20.19463],[81.45296,20.14505],[81.42133,20.15519],[81.38952,20.04591],[81.29333,20.01672],[81.34943,19.90979],[81.40094,19.88303],[81.40264,19.86859],[81.37593,19.85064],[81.39371,19.83264],[81.34592,19.8317],[81.3017,19.79819],[81.24419,19.8053],[81.20064,19.77919],[81.1661,19.80262],[81.13386,19.76832],[81.15476,19.71596],[81.14581,19.69684],[81.07908,19.69541],[80.99854,19.83325],[81.01416,19.90666],[81.0642,19.9314],[81.03721,19.97185],[81.07204,20.04789],[81.04636,20.08521],[81.00297,20.09463],[80.89807,20.02753],[80.89102,19.96509],[80.93761,19.95238],[80.9245,19.9259],[80.85341,19.94875],[80.83448,19.90483],[80.7294,19.83736],[80.71121,19.80264],[80.72243,19.79588],[80.77889,19.83731],[80.81623,19.82893],[80.82216,19.81447],[80.78557,19.78481],[80.76685,19.80402],[80.71836,19.77917],[80.72559,19.69791],[80.67265,19.69127],[80.5892,19.74118],[80.54675,19.77759],[80.54951,19.8222],[80.52485,19.83174],[80.48304,19.83083],[80.46656,19.81417],[80.48727,19.79833],[80.48513,19.77533],[80.45946,19.79576],[80.40167,19.79737],[80.40451,19.81899],[80.43866,19.8131],[80.50455,19.87153],[80.48964,19.90161],[80.41464,19.90852],[80.41323,19.93507],[80.45066,19.95525],[80.48747,19.93047],[80.5274,19.93359],[80.55257,19.98983],[80.53956,20.00653],[80.55316,20.06822],[80.54222,20.09465],[80.56586,20.13413],[80.56983,20.18619],[80.61356,20.18207],[80.65709,20.22454],[80.69108,20.19102],[80.71495,20.18777],[80.73711,20.22322],[80.73048,20.26691],[80.75617,20.29031],[80.78842,20.28119],[80.82261,20.29689],[80.83298,20.3186],[80.81286,20.35336],[80.84526,20.34666],[80.86274,20.38823],[80.8865,20.38519],[80.93773,20.43859],[80.96817,20.4375],[81.00049,20.45865],[81.04292,20.42367],[81.15353,20.37774],[81.25452,20.44369],[81.25664,20.4979],[81.29821,20.51844],[81.32148,20.55494],[81.38485,20.53224],[81.40856,20.55177],[81.41198,20.55225]]]}}]}
