{"type":"FeatureCollection","properties":{"source":"DataMeet Community Maps Project - Districts/Census_2011","state":"Dadra and Nagar Haveli and Daman and Diu","stateSlug":"dadra-and-nagar-haveli-and-daman-and-diu"},"features":[{"type":"Feature","properties":{"DISTRICT":"Dadra & Nagar Haveli","ST_NM":"Dadra and Nagar Haveli and Daman and Diu","ST_CEN_CD":26,"DT_CEN_CD":1,"censuscode":496},"geometry":{"type":"Polygon","coordinates":[[[73.20657,20.12216],[73.20935,20.09766],[73.17592,20.05312],[73.12942,20.08454],[73.05021,20.09943],[73.04229,20.06807],[72.99956,20.11083],[73.00689,20.13538],[72.97852,20.11368],[72.96245,20.13128],[72.97602,20.17176],[72.96382,20.22628],[72.91148,20.27492],[72.93527,20.2939],[72.97352,20.2721],[72.97993,20.29249],[73.01009,20.29126],[73.00947,20.31775],[73.01615,20.29447],[73.03388,20.29144],[73.04027,20.32331],[73.08084,20.32709],[73.09744,20.36093],[73.11205,20.33308],[73.10289,20.30517],[73.15163,20.31734],[73.16741,20.31246],[73.16982,20.29],[73.14838,20.29065],[73.10039,20.23238],[73.06663,20.2301],[73.05395,20.20349],[73.06214,20.1638],[73.07622,20.15732],[73.08595,20.17453],[73.11795,20.15738],[73.14242,20.17628],[73.13221,20.20462],[73.17038,20.20878],[73.21952,20.18442],[73.1863,20.15628],[73.20116,20.12376],[73.20657,20.12216]]]}},{"type":"Feature","properties":{"DISTRICT":"Daman","ST_NM":"Dadra and Nagar Haveli and Daman and Diu","ST_CEN_CD":25,"DT_CEN_CD":2,"censuscode":495},"geometry":{"type":"Polygon","coordinates":[[[72.80198,20.37417],[72.84461,20.47456],[72.88248,20.46277],[72.89281,20.44167],[72.8734,20.44421],[72.85932,20.42437],[72.90261,20.41524],[72.88632,20.39337],[72.89354,20.37215],[72.80622,20.37272],[72.80198,20.37417]]]}},{"type":"Feature","properties":{"DISTRICT":"Diu","ST_NM":"Dadra and Nagar Haveli and Daman and Diu","ST_CEN_CD":25,"DT_CEN_CD":1,"censuscode":494},"geometry":{"type":"MultiPolygon","coordinates":[[[[70.92425,20.7385],[70.99764,20.71403],[70.97708,20.70153],[70.92347,20.71153],[70.91402,20.69903],[70.87348,20.70986],[70.88236,20.72875],[70.92413,20.73913],[70.92425,20.7385]]],[[[71.00895,20.74437],[70.98681,20.72208],[71.00528,20.74664],[71.00895,20.74437]]],[[[71.1507,20.77222],[71.14557,20.75708],[71.1507,20.77223],[71.1507,20.77222]]]]}}]}
