{"type":"FeatureCollection","properties":{"source":"DataMeet Community Maps Project - Districts/Census_2011","state":"Daman & Diu","stateSlug":"daman-and-diu"},"features":[{"type":"Feature","properties":{"DISTRICT":"Daman","ST_NM":"Daman & Diu","ST_CEN_CD":25,"DT_CEN_CD":2,"censuscode":495},"geometry":{"type":"Polygon","coordinates":[[[72.80198,20.37417],[72.84461,20.47456],[72.88248,20.46277],[72.89281,20.44167],[72.8734,20.44421],[72.85932,20.42437],[72.90261,20.41524],[72.88632,20.39337],[72.89354,20.37215],[72.80622,20.37272],[72.80198,20.37417]]]}},{"type":"Feature","properties":{"DISTRICT":"Diu","ST_NM":"Daman & Diu","ST_CEN_CD":25,"DT_CEN_CD":1,"censuscode":494},"geometry":{"type":"MultiPolygon","coordinates":[[[[70.92425,20.7385],[70.99764,20.71403],[70.97708,20.70153],[70.92347,20.71153],[70.91402,20.69903],[70.87348,20.70986],[70.88236,20.72875],[70.92413,20.73913],[70.92425,20.7385]]],[[[71.00895,20.74437],[70.98681,20.72208],[71.00528,20.74664],[71.00895,20.74437]]],[[[71.1507,20.77222],[71.14557,20.75708],[71.1507,20.77223],[71.1507,20.77222]]]]}}]}
