{"type":"FeatureCollection","properties":{"source":"DataMeet Community Maps Project - Districts/Census_2011","state":"Delhi","stateSlug":"delhi"},"features":[{"type":"Feature","properties":{"DISTRICT":"Central","ST_NM":"Delhi","ST_CEN_CD":7,"DT_CEN_CD":6,"censuscode":95},"geometry":{"type":"Polygon","coordinates":[[[77.26042,28.62286],[77.22051,28.64111],[77.18672,28.62564],[77.18692,28.66024],[77.25299,28.65374],[77.25889,28.62403],[77.26042,28.62286]]]}},{"type":"Feature","properties":{"DISTRICT":"East","ST_NM":"Delhi","ST_CEN_CD":7,"DT_CEN_CD":4,"censuscode":93},"geometry":{"type":"Polygon","coordinates":[[[77.30482,28.57678],[77.26455,28.60747],[77.25057,28.66299],[77.32807,28.67386],[77.3213,28.63919],[77.34625,28.60339],[77.30491,28.57696],[77.30482,28.57678]]]}},{"type":"Feature","properties":{"DISTRICT":"New Delhi","ST_NM":"Delhi","ST_CEN_CD":7,"DT_CEN_CD":5,"censuscode":94},"geometry":{"type":"Polygon","coordinates":[[[77.26042,28.62286],[77.26455,28.60747],[77.21301,28.57689],[77.17354,28.59329],[77.20081,28.63912],[77.25705,28.62268],[77.26042,28.62286]]]}},{"type":"Feature","properties":{"DISTRICT":"North","ST_NM":"Delhi","ST_CEN_CD":7,"DT_CEN_CD":2,"censuscode":91},"geometry":{"type":"Polygon","coordinates":[[[77.21434,28.78352],[77.24602,28.73389],[77.25299,28.65374],[77.23154,28.64788],[77.1675,28.66253],[77.18254,28.68941],[77.21811,28.69858],[77.21998,28.71471],[77.16603,28.74334],[77.21292,28.78407],[77.21434,28.78352]]]}},{"type":"Feature","properties":{"DISTRICT":"North East","ST_NM":"Delhi","ST_CEN_CD":7,"DT_CEN_CD":3,"censuscode":92},"geometry":{"type":"Polygon","coordinates":[[[77.25066,28.66244],[77.24602,28.73389],[77.21434,28.78352],[77.23493,28.78227],[77.29509,28.70703],[77.3337,28.71042],[77.33555,28.67704],[77.25057,28.66299],[77.25066,28.66244]]]}},{"type":"Feature","properties":{"DISTRICT":"North West","ST_NM":"Delhi","ST_CEN_CD":7,"DT_CEN_CD":1,"censuscode":90},"geometry":{"type":"Polygon","coordinates":[[[77.17093,28.66833],[76.96372,28.69481],[76.95117,28.71189],[76.95237,28.81557],[76.99364,28.83396],[77.04171,28.83161],[77.05999,28.868],[77.08612,28.87932],[77.13884,28.86013],[77.14946,28.8364],[77.17491,28.85535],[77.21515,28.85759],[77.22393,28.80816],[77.20488,28.81002],[77.21052,28.78652],[77.16603,28.74334],[77.22092,28.70619],[77.17659,28.67255],[77.17093,28.66833]]]}},{"type":"Feature","properties":{"DISTRICT":"South","ST_NM":"Delhi","ST_CEN_CD":7,"DT_CEN_CD":9,"censuscode":98},"geometry":{"type":"Polygon","coordinates":[[[77.26455,28.60747],[77.30482,28.57678],[77.30514,28.55573],[77.34765,28.50346],[77.31673,28.48519],[77.2879,28.49268],[77.25244,28.47915],[77.2355,28.45857],[77.25034,28.4234],[77.17538,28.40305],[77.12793,28.43706],[77.11505,28.48279],[77.16877,28.5084],[77.2129,28.58182],[77.25887,28.60792],[77.26455,28.60747]]]}},{"type":"Feature","properties":{"DISTRICT":"South West","ST_NM":"Delhi","ST_CEN_CD":7,"DT_CEN_CD":8,"censuscode":97},"geometry":{"type":"Polygon","coordinates":[[[77.18253,28.64817],[77.17354,28.59329],[77.21397,28.56738],[77.13466,28.48676],[77.11505,28.48279],[77.08219,28.51497],[77.05845,28.50995],[77.01578,28.53752],[77.00562,28.53166],[77.01519,28.50919],[76.9781,28.52235],[76.88889,28.50391],[76.88586,28.52326],[76.84717,28.5519],[76.84464,28.58632],[76.86445,28.58725],[76.88766,28.63253],[76.94367,28.63249],[76.92728,28.65213],[76.93955,28.66928],[77.03824,28.61278],[77.11304,28.61357],[77.18175,28.64927],[77.18253,28.64817]]]}},{"type":"Feature","properties":{"DISTRICT":"West","ST_NM":"Delhi","ST_CEN_CD":7,"DT_CEN_CD":7,"censuscode":96},"geometry":{"type":"Polygon","coordinates":[[[77.17093,28.66833],[77.18825,28.65106],[77.11304,28.61357],[77.03824,28.61278],[76.95208,28.66994],[76.97816,28.69553],[76.99864,28.68113],[77.09836,28.68758],[77.16689,28.67303],[77.17093,28.66833]]]}}]}
