{"type":"FeatureCollection","properties":{"source":"DataMeet Community Maps Project - Districts/Census_2011","state":"Goa","stateSlug":"goa"},"features":[{"type":"Feature","properties":{"DISTRICT":"North Goa","ST_NM":"Goa","ST_CEN_CD":30,"DT_CEN_CD":1,"censuscode":585},"geometry":{"type":"Polygon","coordinates":[[[74.11877,15.65246],[74.1664,15.65423],[74.18318,15.68315],[74.2064,15.65122],[74.23834,15.66782],[74.26201,15.61182],[74.24772,15.56809],[74.28085,15.52829],[74.17668,15.43854],[74.12666,15.43762],[74.07258,15.41133],[74.10351,15.36816],[74.08474,15.32597],[74.10744,15.28575],[74.09552,15.27022],[74.06135,15.29738],[74.01435,15.30402],[74.00531,15.34726],[73.95959,15.37109],[73.94976,15.3997],[73.92347,15.40436],[73.94052,15.40761],[73.92626,15.4156],[73.93605,15.43614],[73.89782,15.41759],[73.84785,15.45182],[73.78565,15.46163],[73.80678,15.46313],[73.80734,15.48261],[73.83376,15.5051],[73.7672,15.49459],[73.73038,15.59845],[73.76651,15.63273],[73.73222,15.61475],[73.69086,15.70624],[73.69969,15.7215],[73.67573,15.72797],[73.72776,15.71934],[73.74909,15.73483],[73.78423,15.72575],[73.82426,15.73984],[73.85687,15.79959],[73.87836,15.77236],[73.87393,15.75142],[73.93716,15.74361],[73.96326,15.68937],[73.96121,15.64646],[73.99081,15.6133],[74.0202,15.60679],[74.03162,15.62302],[74.11548,15.6474],[74.11877,15.65246]]]}},{"type":"Feature","properties":{"DISTRICT":"South Goa","ST_NM":"Goa","ST_CEN_CD":30,"DT_CEN_CD":2,"censuscode":586},"geometry":{"type":"MultiPolygon","coordinates":[[[[74.27612,15.44546],[74.27625,15.391],[74.32221,15.36966],[74.31719,15.33202],[74.3356,15.29539],[74.27664,15.28374],[74.25109,15.26008],[74.30051,15.22569],[74.31585,15.18659],[74.28334,15.14566],[74.27209,15.09845],[74.29624,15.04246],[74.25545,14.99337],[74.26392,14.96927],[74.20536,14.92405],[74.17372,14.95565],[74.15939,14.94204],[74.16875,14.91154],[74.13257,14.92305],[74.08802,14.89598],[74.04234,14.91512],[74.05459,14.9623],[74.03726,14.97856],[74.04569,14.98709],[73.98403,15.0258],[73.984,15.05478],[73.91391,15.08374],[73.91603,15.10703],[73.95831,15.14436],[73.9591,15.18502],[73.94707,15.14513],[73.87933,15.36335],[73.84305,15.36016],[73.78368,15.41117],[73.81287,15.39903],[73.8189,15.41213],[73.94976,15.3997],[73.95959,15.37109],[74.00531,15.34726],[74.01435,15.30402],[74.06135,15.29738],[74.09552,15.27022],[74.10744,15.28575],[74.08474,15.32597],[74.10351,15.36816],[74.07709,15.39181],[74.07633,15.41587],[74.10968,15.41914],[74.12666,15.43762],[74.17668,15.43854],[74.19851,15.46734],[74.24978,15.49183],[74.27348,15.4531],[74.27612,15.44546]]]]}}]}
