{"type":"FeatureCollection","properties":{"source":"DataMeet Community Maps Project - Districts/Census_2011","state":"Gujarat","stateSlug":"gujarat"},"features":[{"type":"Feature","properties":{"DISTRICT":"Ahmadabad","ST_NM":"Gujarat","ST_CEN_CD":24,"DT_CEN_CD":7,"censuscode":474},"geometry":{"type":"MultiPolygon","coordinates":[[[[72.03456,23.50527],[72.02583,23.47749],[72.05303,23.44355],[72.09831,23.45878],[72.16698,23.44056],[72.18762,23.41264],[72.2153,23.43424],[72.23484,23.42333],[72.26225,23.46012],[72.29828,23.41338],[72.26124,23.36973],[72.26418,23.34597],[72.20806,23.30816],[72.19849,23.27671],[72.17839,23.27414],[72.1844,23.21496],[72.16925,23.19089],[72.18717,23.14365],[72.16309,23.1373],[72.163,23.10341],[72.23837,23.11716],[72.28314,23.07939],[72.29378,23.04013],[72.32426,23.06129],[72.30875,23.09463],[72.33607,23.10727],[72.38242,23.07717],[72.38842,23.05212],[72.42762,23.06504],[72.43191,23.04413],[72.44619,23.04447],[72.47259,23.06399],[72.45896,23.08187],[72.49869,23.09903],[72.48804,23.14438],[72.51039,23.15667],[72.52893,23.14735],[72.54008,23.16429],[72.54175,23.13277],[72.56537,23.13277],[72.56396,23.10943],[72.59981,23.08909],[72.70164,23.10983],[72.7646,23.09318],[72.77957,23.08111],[72.7671,23.05893],[72.79713,23.05338],[72.84084,22.99303],[72.84327,22.96522],[72.79151,22.9078],[72.7261,22.91209],[72.69275,22.87961],[72.65029,22.89711],[72.60844,22.88521],[72.60962,22.81461],[72.57165,22.8247],[72.52357,22.79756],[72.53963,22.71062],[72.51921,22.701],[72.54278,22.68873],[72.53178,22.67679],[72.54968,22.6645],[72.53688,22.62562],[72.50978,22.63002],[72.4702,22.57944],[72.42609,22.57183],[72.43811,22.49981],[72.36042,22.44969],[72.36756,22.4062],[72.34181,22.38543],[72.3981,22.35461],[72.37486,22.32875],[72.33398,22.19979],[72.35653,22.14842],[72.34986,22.12653],[72.31624,22.14653],[72.31764,22.1807],[72.29431,22.20236],[72.3232,22.12264],[72.26651,21.97191],[72.24153,22.04959],[72.28653,22.0743],[72.29792,22.06347],[72.30014,22.10875],[72.27736,22.0907],[72.26542,22.10542],[72.27819,22.08042],[72.23319,22.05375],[72.23264,22.01764],[72.18597,22.01958],[72.17237,22.04153],[72.20042,22.0043],[72.23097,22.00764],[72.22736,21.98851],[72.19997,21.98529],[72.16907,21.99706],[72.12476,22.05749],[72.07707,22.06078],[72.06015,22.10526],[72.03191,22.12365],[72.01912,22.10364],[71.90621,22.12477],[71.90138,22.10533],[71.85057,22.09542],[71.84069,22.131],[71.75817,22.1331],[71.73399,22.18204],[71.65631,22.21625],[71.63426,22.20215],[71.62085,22.21872],[71.64937,22.24697],[71.61752,22.27899],[71.60734,22.33823],[71.62232,22.34427],[71.61993,22.38053],[71.64287,22.3994],[71.66475,22.38201],[71.70283,22.39616],[71.73406,22.36067],[71.7833,22.36133],[71.78813,22.39428],[71.82708,22.39298],[71.83178,22.35579],[71.89057,22.41888],[71.91231,22.37694],[71.9271,22.37829],[71.92298,22.44936],[71.96116,22.46944],[71.95727,22.48947],[71.90679,22.48304],[71.91966,22.49926],[71.90874,22.51724],[71.93424,22.53757],[71.96472,22.53296],[71.96678,22.5092],[72.03109,22.50635],[72.05026,22.44443],[72.0844,22.43725],[72.1612,22.47945],[72.14281,22.51421],[72.18689,22.54167],[72.16876,22.56962],[72.1163,22.59876],[72.06514,22.59388],[72.06113,22.65084],[72.02678,22.67919],[72.05635,22.69356],[72.06601,22.67631],[72.08978,22.67556],[72.10638,22.72049],[72.05686,22.74739],[72.03511,22.84259],[72.02378,22.79085],[71.9834,22.8555],[72.00283,22.92343],[71.98942,22.94933],[72.02019,22.99209],[72.00893,22.99908],[72.01575,23.05625],[71.98128,23.06866],[71.94963,23.03958],[71.94853,23.06626],[71.91903,23.07482],[71.90075,23.11048],[71.91002,23.18086],[71.99034,23.21571],[71.99896,23.2494],[71.94754,23.2421],[71.928,23.26947],[71.90804,23.26501],[71.89993,23.22549],[71.87465,23.2275],[71.88008,23.31555],[71.89547,23.33288],[71.87442,23.38348],[71.95922,23.39338],[71.96943,23.46689],[71.99969,23.50366],[72.03244,23.50821],[72.03456,23.50527]]]]}},{"type":"Feature","properties":{"DISTRICT":"Amreli","ST_NM":"Gujarat","ST_CEN_CD":24,"DT_CEN_CD":13,"censuscode":480},"geometry":{"type":"MultiPolygon","coordinates":[[[[71.34976,21.98236],[71.38907,21.98145],[71.40953,21.94725],[71.44505,21.94885],[71.46411,21.92398],[71.45802,21.89386],[71.41941,21.90701],[71.41758,21.87731],[71.4524,21.86536],[71.46851,21.79874],[71.49561,21.79959],[71.59963,21.72136],[71.58869,21.659],[71.61969,21.64418],[71.62064,21.62913],[71.55733,21.62417],[71.54636,21.56024],[71.49944,21.54293],[71.4781,21.48327],[71.53113,21.44191],[71.61192,21.43771],[71.62873,21.33633],[71.56876,21.28669],[71.53228,21.28683],[71.51816,21.17494],[71.54148,21.17642],[71.60454,21.13183],[71.62989,21.08935],[71.61061,21.0548],[71.63725,21.05742],[71.63992,21.03166],[71.66614,21.02778],[71.67914,20.99736],[71.64764,20.99542],[71.63653,20.97348],[71.56514,20.94958],[71.51486,20.94819],[71.51598,20.92236],[71.43958,20.86931],[71.37791,20.87403],[71.38458,20.85708],[71.20784,20.80014],[71.2232,20.82393],[71.20597,20.87331],[71.1833,20.88167],[71.19488,20.90015],[71.18075,20.91964],[71.20573,20.9247],[71.22387,20.95706],[71.19741,20.97856],[71.14238,20.95098],[71.12651,20.96374],[71.14772,21.03177],[71.13172,21.0703],[71.00004,21.17002],[70.89209,21.18651],[70.8544,21.16725],[70.80365,21.23171],[70.8256,21.26203],[70.89128,21.26893],[70.90712,21.29843],[70.94156,21.31147],[70.92367,21.34633],[70.86587,21.31511],[70.86932,21.37444],[70.89536,21.39598],[70.91378,21.38461],[70.94788,21.39696],[70.92358,21.46204],[70.88644,21.44139],[70.86727,21.46486],[70.83171,21.45628],[70.83149,21.49205],[70.80702,21.49529],[70.8043,21.51368],[70.83913,21.50945],[70.85043,21.53139],[70.8875,21.52724],[70.89251,21.54241],[70.86184,21.6007],[70.79321,21.66525],[70.80726,21.71049],[70.76906,21.7087],[70.77976,21.7307],[70.82137,21.73219],[70.81864,21.74294],[70.88523,21.73456],[70.8996,21.76636],[70.93478,21.74519],[70.96463,21.75003],[70.98404,21.72552],[71.0278,21.73781],[71.04677,21.75602],[71.04705,21.82308],[71.08334,21.8228],[71.10889,21.85322],[71.10362,21.86974],[71.05903,21.84882],[71.03099,21.87167],[71.05881,21.8812],[71.06388,21.90701],[71.11526,21.91899],[71.12887,21.94345],[71.19727,21.96831],[71.19868,22.00005],[71.18433,22.00969],[71.24758,22.0093],[71.25708,21.96003],[71.2934,21.96],[71.27241,22.01012],[71.30707,22.04198],[71.34415,21.98475],[71.34976,21.98236]]],[[[70.74808,20.96748],[70.82651,20.97583],[70.86083,20.96054],[70.88225,20.90841],[70.8648,20.87837],[70.79703,20.85654],[70.82183,20.83765],[70.87663,20.82987],[70.8742,20.79979],[70.84763,20.80022],[70.84306,20.78694],[70.87403,20.70486],[70.84125,20.70597],[70.8382,20.69014],[70.70348,20.73792],[70.67347,20.76459],[70.66625,20.75236],[70.64028,20.76653],[70.66216,20.7899],[70.65835,20.84983],[70.69727,20.91781],[70.71378,20.99408],[70.74232,20.97112],[70.74808,20.96748]]],[[[70.7759,21.75382],[70.75868,21.76726],[70.77656,21.80197],[70.80087,21.77504],[70.78287,21.75563],[70.7759,21.75382]]],[[[70.76435,21.67251],[70.77689,21.66169],[70.7693,21.64396],[70.7395,21.64435],[70.73712,21.66458],[70.76169,21.6746],[70.76435,21.67251]]],[[[70.87793,21.40976],[70.86804,21.3902],[70.84515,21.40768],[70.87957,21.41468],[70.87793,21.40976]]],[[[71.65442,21.10853],[71.63873,21.08904],[71.6529,21.11245],[71.65442,21.10853]]]]}},{"type":"Feature","properties":{"DISTRICT":"Anand","ST_NM":"Gujarat","ST_CEN_CD":24,"DT_CEN_CD":15,"censuscode":482},"geometry":{"type":"MultiPolygon","coordinates":[[[[73.05631,22.72778],[73.0573,22.71667],[73.13445,22.71982],[73.16173,22.68085],[73.20432,22.68148],[73.20611,22.65464],[73.23032,22.63379],[73.15952,22.58703],[73.13933,22.5271],[73.09241,22.50679],[73.09385,22.45439],[73.06761,22.42602],[73.07287,22.39069],[73.04963,22.36469],[73.06287,22.31343],[73.00026,22.25818],[72.97838,22.24774],[72.95098,22.26267],[72.95204,22.28824],[72.92553,22.30458],[72.90806,22.25946],[72.84375,22.28237],[72.75597,22.23097],[72.68792,22.23847],[72.63541,22.28458],[72.54125,22.2432],[72.53736,22.27375],[72.55375,22.27819],[72.54264,22.28097],[72.48597,22.19736],[72.47375,22.20125],[72.49264,22.23709],[72.47764,22.23514],[72.49292,22.24819],[72.4707,22.23875],[72.43514,22.30125],[72.38764,22.31264],[72.41236,22.35847],[72.39375,22.38264],[72.34181,22.38543],[72.36756,22.4062],[72.37126,22.44335],[72.35708,22.43956],[72.37725,22.47184],[72.416,22.47632],[72.44039,22.50441],[72.42609,22.57183],[72.4702,22.57944],[72.50831,22.61483],[72.53376,22.56888],[72.55487,22.56615],[72.57811,22.50207],[72.65607,22.49978],[72.67178,22.50485],[72.66958,22.52417],[72.64534,22.52669],[72.64581,22.5407],[72.67807,22.58316],[72.70835,22.5867],[72.68977,22.62554],[72.78539,22.64093],[72.8309,22.62252],[72.82903,22.5933],[72.86767,22.61845],[72.86784,22.58269],[72.91381,22.58991],[72.92756,22.62208],[72.98475,22.65185],[73.00863,22.72172],[73.05387,22.73625],[73.05631,22.72778]]],[[[72.38764,22.29875],[72.4157,22.28958],[72.41653,22.22736],[72.39987,22.19931],[72.37736,22.22625],[72.37986,22.25736],[72.36041,22.26819],[72.37292,22.31466],[72.38764,22.29903],[72.38764,22.29875]]],[[[72.35987,22.26042],[72.37097,22.24514],[72.36208,22.20514],[72.39153,22.16792],[72.37597,22.14986],[72.35765,22.19292],[72.34403,22.16847],[72.35653,22.14842],[72.33312,22.19274],[72.35987,22.26069],[72.35987,22.26042]]],[[[72.3707,22.23514],[72.37653,22.20375],[72.36347,22.21403],[72.36958,22.23514],[72.3707,22.23514]]],[[[72.40057,22.35542],[72.39375,22.34431],[72.39903,22.35542],[72.40057,22.35542]]]]}},{"type":"Feature","properties":{"DISTRICT":"Banas Kantha","ST_NM":"Gujarat","ST_CEN_CD":24,"DT_CEN_CD":2,"censuscode":469},"geometry":{"type":"Polygon","coordinates":[[[72.26847,24.62413],[72.30948,24.61075],[72.34834,24.61987],[72.32039,24.58869],[72.27355,24.60197],[72.24516,24.5822],[72.26583,24.55213],[72.28428,24.5602],[72.28932,24.54034],[72.33136,24.54594],[72.32925,24.56048],[72.35236,24.55424],[72.38072,24.50214],[72.43706,24.50573],[72.43114,24.46199],[72.45912,24.4085],[72.50227,24.4112],[72.49521,24.4516],[72.5064,24.44866],[72.53946,24.50806],[72.58345,24.47358],[72.69249,24.458],[72.68861,24.42007],[72.72768,24.36194],[72.86366,24.36615],[72.91955,24.32652],[72.96119,24.35123],[72.9686,24.30322],[73.02994,24.28064],[72.91727,24.03712],[72.86516,24.01627],[72.85113,24.03766],[72.82157,24.03526],[72.79213,24.09346],[72.74919,24.06806],[72.71842,24.08877],[72.65523,24.05409],[72.64088,24.0671],[72.62283,24.04082],[72.64502,23.98944],[72.59153,23.97655],[72.57912,23.93455],[72.47832,23.9302],[72.46586,23.96479],[72.4361,23.96413],[72.4271,23.97889],[72.36747,23.96712],[72.35414,24.02502],[72.27416,24.04791],[72.25961,24.07244],[72.23074,24.06533],[72.21652,24.10416],[72.23373,24.1177],[72.22686,24.12988],[72.20465,24.1407],[72.18702,24.10385],[72.15935,24.11542],[72.15664,24.1379],[72.13433,24.14143],[72.10039,24.113],[72.15386,24.11438],[72.16437,24.07462],[72.13842,24.04389],[72.09794,24.04781],[72.10039,24.02124],[72.08311,24.03253],[72.0661,24.02063],[72.03075,24.05506],[72.01505,24.04009],[72.01961,24.01851],[72.04716,23.99786],[72.00108,23.96725],[71.98433,23.99744],[71.92605,24.00832],[71.92767,23.97854],[71.94604,23.97194],[71.92936,23.94893],[71.97232,23.89211],[71.88961,23.87958],[71.85812,23.84893],[71.80794,23.85465],[71.76698,23.83129],[71.71555,23.86984],[71.71665,23.92626],[71.67926,23.96935],[71.60786,23.94174],[71.58752,23.9766],[71.49154,23.97047],[71.49243,24.01342],[71.47762,24.02321],[71.44332,23.98292],[71.44469,23.94102],[71.41375,23.92627],[71.39508,23.9625],[71.37332,23.95297],[71.28782,23.99053],[71.32769,24.04943],[71.31643,24.06963],[71.34339,24.1188],[71.33657,24.13332],[71.27878,24.13377],[71.29003,24.15252],[71.27627,24.16179],[71.2899,24.1757],[71.32313,24.14826],[71.37171,24.18987],[71.33858,24.18249],[71.29912,24.23604],[71.31485,24.24162],[71.28963,24.26058],[71.31213,24.25481],[71.30585,24.30383],[71.32184,24.32185],[71.39508,24.34915],[71.38237,24.39329],[71.33038,24.39527],[71.35133,24.4329],[71.32869,24.44343],[71.34932,24.51766],[71.2596,24.51198],[71.26653,24.5455],[71.31145,24.55867],[71.31347,24.58796],[71.2889,24.61281],[71.31295,24.64543],[71.34818,24.65903],[71.37453,24.62655],[71.48028,24.67838],[71.52909,24.68327],[71.60895,24.67476],[71.65397,24.63717],[71.79194,24.67399],[71.80805,24.65809],[71.80463,24.62522],[71.85137,24.60742],[71.86967,24.67838],[71.91341,24.67043],[71.91205,24.64928],[71.9375,24.62977],[71.98678,24.65598],[71.99471,24.68581],[72.04631,24.70848],[72.07916,24.69959],[72.07869,24.65531],[72.11041,24.63583],[72.14469,24.63646],[72.17992,24.61168],[72.22418,24.635],[72.25488,24.62277],[72.26847,24.62413]]]}},{"type":"Feature","properties":{"DISTRICT":"Bharuch","ST_NM":"Gujarat","ST_CEN_CD":24,"DT_CEN_CD":21,"censuscode":488},"geometry":{"type":"MultiPolygon","coordinates":[[[[72.65792,21.47014],[72.67467,21.52126],[72.74236,21.55014],[72.64161,21.52626],[72.60792,21.58296],[72.6282,21.61681],[72.70097,21.65181],[72.7232,21.63875],[72.78736,21.64514],[72.83514,21.66792],[72.77986,21.66319],[72.73625,21.68958],[72.60042,21.68153],[72.54737,21.65847],[72.52403,21.68014],[72.51792,21.71458],[72.54041,21.73569],[72.55653,21.80208],[72.61674,21.86807],[72.62874,21.90906],[72.60835,21.93242],[72.63676,21.95417],[72.58851,21.9229],[72.57953,21.88441],[72.51838,21.87829],[72.50486,21.98097],[72.55097,22.15819],[72.58209,22.20097],[72.61486,22.21764],[72.75403,22.1732],[72.80875,22.24597],[72.85125,22.23486],[72.8823,22.17574],[72.91855,22.19067],[72.92864,22.18159],[72.91766,22.16204],[72.88532,22.16618],[72.86606,22.1504],[72.88396,22.09589],[72.92236,22.0581],[72.91251,22.04471],[72.98078,22.04726],[73.02542,21.99691],[73.05742,22.01058],[73.07573,22.00105],[73.05171,21.97586],[73.05147,21.93851],[73.01799,21.94074],[72.997,21.92862],[72.99999,21.91251],[73.05004,21.93374],[73.0569,21.92125],[73.09121,21.92855],[73.0661,21.91217],[73.06317,21.88076],[73.1283,21.87573],[73.21041,21.8198],[73.24878,21.84148],[73.22679,21.91609],[73.26764,21.92981],[73.30008,21.88948],[73.30171,21.83232],[73.3341,21.83403],[73.33904,21.80863],[73.39411,21.77318],[73.40875,21.74674],[73.39443,21.71773],[73.46676,21.71876],[73.50449,21.67764],[73.47573,21.65511],[73.48428,21.60997],[73.44315,21.55539],[73.45117,21.52261],[73.34768,21.5103],[73.32441,21.48511],[73.30694,21.50437],[73.27445,21.50551],[73.24157,21.49104],[73.19556,21.50399],[73.121,21.48188],[73.10425,21.50491],[73.08009,21.50319],[73.08015,21.54073],[73.05556,21.56468],[73.03898,21.53231],[73.05349,21.48068],[73.02646,21.4801],[73.01917,21.5226],[72.98935,21.5368],[72.98462,21.51946],[72.94256,21.51057],[72.95293,21.48048],[72.92456,21.46495],[72.90596,21.42839],[72.87232,21.4318],[72.87191,21.45221],[72.79336,21.42019],[72.78753,21.45333],[72.7617,21.44841],[72.73878,21.46999],[72.68624,21.44681],[72.69431,21.46625],[72.64514,21.43375],[72.65764,21.47015],[72.65792,21.47014]]],[[[72.71736,21.66542],[72.75097,21.65292],[72.7168,21.64459],[72.71736,21.66514],[72.71736,21.66542]]],[[[72.59264,21.63847],[72.61153,21.63569],[72.59902,21.61736],[72.59264,21.6382],[72.59264,21.63847]]]]}},{"type":"Feature","properties":{"DISTRICT":"Bhavnagar","ST_NM":"Gujarat","ST_CEN_CD":24,"DT_CEN_CD":14,"censuscode":481},"geometry":{"type":"MultiPolygon","coordinates":[[[[71.59516,22.35011],[71.61752,22.27899],[71.64937,22.24697],[71.6218,22.22764],[71.62788,22.20538],[71.65631,22.21625],[71.73399,22.18204],[71.75817,22.1331],[71.84069,22.131],[71.85057,22.09542],[71.90138,22.10533],[71.90621,22.12477],[72.01912,22.10364],[72.03191,22.12365],[72.06015,22.10526],[72.07707,22.06078],[72.12476,22.05749],[72.16907,21.99706],[72.22736,21.98851],[72.22125,21.95653],[72.1918,21.94236],[72.14653,21.98347],[72.16097,21.96181],[72.14709,21.95486],[72.19014,21.93708],[72.22014,21.94792],[72.2532,21.89736],[72.26598,21.74181],[72.2457,21.79236],[72.20264,21.82514],[72.18292,21.82375],[72.20514,21.82236],[72.24125,21.78736],[72.30597,21.63181],[72.26903,21.57375],[72.23514,21.45653],[72.12153,21.32542],[72.10902,21.28292],[72.09291,21.28736],[72.0982,21.26403],[72.08125,21.24847],[72.09097,21.22653],[72.11236,21.22264],[72.11375,21.19653],[72.01819,21.15431],[72.00819,21.13264],[71.98986,21.14153],[71.97681,21.12097],[71.89931,21.10931],[71.80209,21.06292],[71.80681,21.03792],[71.71514,21.02042],[71.67958,20.99736],[71.66614,21.02778],[71.63992,21.03166],[71.63725,21.05742],[71.61061,21.0548],[71.62989,21.08935],[71.60454,21.13183],[71.54148,21.17642],[71.51816,21.17494],[71.53228,21.28683],[71.56876,21.28669],[71.62873,21.33633],[71.61192,21.43771],[71.53113,21.44191],[71.4781,21.48327],[71.49944,21.54293],[71.54636,21.56024],[71.55733,21.62417],[71.62064,21.62913],[71.61969,21.64418],[71.58869,21.659],[71.59963,21.72136],[71.49561,21.79959],[71.46851,21.79874],[71.4524,21.86536],[71.41645,21.88532],[71.41941,21.90701],[71.45802,21.89386],[71.46148,21.93008],[71.39152,21.96302],[71.39219,21.97812],[71.45386,22.00015],[71.45423,22.03026],[71.50569,22.05517],[71.4903,22.06965],[71.50037,22.11096],[71.46973,22.13702],[71.4788,22.18433],[71.42708,22.2085],[71.45756,22.23037],[71.45464,22.2551],[71.43342,22.26101],[71.43937,22.28902],[71.48712,22.30212],[71.52968,22.34323],[71.55742,22.3402],[71.56974,22.32008],[71.58993,22.35236],[71.59516,22.35011]],[[71.63468,21.09329],[71.65436,21.09843],[71.64981,21.11589],[71.64189,21.09637],[71.63468,21.09329]]],[[[72.29542,22.02705],[72.27098,21.96764],[72.27514,21.92986],[72.26014,21.97286],[72.29252,22.02412],[72.29542,22.02705]]],[[[72.35319,21.61347],[72.35875,21.57986],[72.35299,21.61347],[72.35319,21.61347]]],[[[72.27431,21.74958],[72.28764,21.70736],[72.27375,21.74958],[72.27431,21.74958]]],[[[72.35486,21.9432],[72.36042,21.92458],[72.34792,21.92819],[72.35403,21.9432],[72.35486,21.9432]]]]}},{"type":"Feature","properties":{"DISTRICT":"Dohad","ST_NM":"Gujarat","ST_CEN_CD":24,"DT_CEN_CD":18,"censuscode":485},"geometry":{"type":"Polygon","coordinates":[[[73.9072,23.04579],[73.93648,23.09901],[73.989,23.07981],[74.02319,23.09334],[73.99004,23.11685],[74.00341,23.15083],[73.98254,23.16018],[73.99215,23.19038],[73.97182,23.20484],[73.99193,23.21218],[74.01196,23.33247],[74.02978,23.33045],[74.04156,23.29418],[74.09892,23.29376],[74.13109,23.26743],[74.13674,23.22479],[74.11968,23.18957],[74.15239,23.15571],[74.1839,23.15045],[74.20495,23.18994],[74.24354,23.1861],[74.28567,23.11654],[74.28002,23.09282],[74.34677,23.028],[74.36837,22.97498],[74.3391,22.96247],[74.35951,22.93086],[74.39792,22.89711],[74.44919,22.92167],[74.47663,22.85631],[74.46256,22.81277],[74.43674,22.80717],[74.43675,22.78327],[74.40043,22.7285],[74.37825,22.63649],[74.26222,22.6428],[74.21045,22.5655],[74.18663,22.56548],[74.19173,22.55495],[74.14969,22.51556],[74.02029,22.57082],[73.96998,22.54042],[73.9375,22.54222],[73.90819,22.50766],[73.84803,22.51453],[73.81122,22.54704],[73.86151,22.56224],[73.85016,22.58981],[73.80032,22.60646],[73.82804,22.63211],[73.80203,22.67659],[73.82802,22.68583],[73.85089,22.73463],[73.82302,22.76503],[73.85169,22.78259],[73.84036,22.84412],[73.8718,22.84585],[73.90737,22.93401],[73.88968,22.94823],[73.93058,22.97826],[73.90396,22.98982],[73.90871,23.04366],[73.9072,23.04579]]]}},{"type":"Feature","properties":{"DISTRICT":"Gandhinagar","ST_NM":"Gujarat","ST_CEN_CD":24,"DT_CEN_CD":6,"censuscode":473},"geometry":{"type":"Polygon","coordinates":[[[72.66374,23.55475],[72.68511,23.55537],[72.69928,23.52562],[72.77761,23.53633],[72.77991,23.51095],[72.80173,23.50223],[72.81822,23.46117],[72.79624,23.42293],[72.80369,23.40503],[72.77345,23.41237],[72.72612,23.39193],[72.74805,23.38849],[72.76326,23.35285],[72.80716,23.35144],[72.80304,23.31715],[72.91243,23.31891],[72.91137,23.29522],[72.88414,23.29059],[72.91977,23.28657],[72.9417,23.23887],[72.99998,23.29665],[73.01835,23.27867],[72.99231,23.25053],[72.98667,23.17349],[72.97326,23.16284],[73.01523,23.16072],[73.03099,23.13657],[72.98114,23.12864],[72.96259,23.07423],[72.92821,23.07717],[72.89727,23.021],[72.84679,23.01137],[72.84084,22.99303],[72.79713,23.05338],[72.7671,23.05893],[72.77957,23.08111],[72.7646,23.09318],[72.70164,23.10983],[72.59981,23.08909],[72.56396,23.10943],[72.56537,23.13277],[72.54175,23.13277],[72.54008,23.16429],[72.52893,23.14735],[72.51039,23.15667],[72.48804,23.14438],[72.49869,23.09903],[72.45896,23.08187],[72.47259,23.06399],[72.44619,23.04447],[72.43191,23.04413],[72.42762,23.06504],[72.38842,23.05212],[72.38242,23.07717],[72.33607,23.10727],[72.35484,23.12164],[72.37063,23.09649],[72.42681,23.14249],[72.38518,23.16196],[72.41743,23.20384],[72.44523,23.19629],[72.42519,23.24173],[72.4467,23.25267],[72.42354,23.25771],[72.41528,23.28508],[72.43125,23.30449],[72.47354,23.30029],[72.45882,23.30908],[72.47734,23.31023],[72.47182,23.33989],[72.52114,23.35049],[72.50485,23.3852],[72.54189,23.43067],[72.53585,23.4592],[72.5816,23.46238],[72.59175,23.51879],[72.62447,23.50804],[72.63605,23.56329],[72.66306,23.55883],[72.66374,23.55475]]]}},{"type":"Feature","properties":{"DISTRICT":"Jamnagar","ST_NM":"Gujarat","ST_CEN_CD":24,"DT_CEN_CD":10,"censuscode":477},"geometry":{"type":"MultiPolygon","coordinates":[[[[70.43653,22.96423],[70.48735,22.93281],[70.57943,22.91509],[70.662,22.83134],[70.64232,22.82261],[70.64796,22.78671],[70.61477,22.76463],[70.64402,22.70452],[70.61269,22.6914],[70.61289,22.64812],[70.57396,22.63133],[70.54728,22.56375],[70.55754,22.54003],[70.57334,22.55227],[70.60153,22.5296],[70.57032,22.51994],[70.5447,22.53125],[70.5263,22.51214],[70.53488,22.49509],[70.57528,22.5098],[70.58583,22.48603],[70.54107,22.47736],[70.55003,22.46164],[70.53441,22.45703],[70.50151,22.48873],[70.49936,22.45317],[70.46586,22.46727],[70.44563,22.4326],[70.4601,22.41802],[70.5036,22.42671],[70.47399,22.37574],[70.52779,22.3403],[70.49733,22.32178],[70.47274,22.32606],[70.47064,22.31179],[70.52155,22.24544],[70.54642,22.23004],[70.57492,22.23815],[70.58425,22.20953],[70.61173,22.19388],[70.58037,22.18342],[70.58466,22.16784],[70.56139,22.14329],[70.5865,22.11268],[70.54967,22.08069],[70.55987,22.07421],[70.54759,22.04797],[70.56794,22.02919],[70.50285,21.99578],[70.49741,22.01256],[70.51818,22.01858],[70.52142,22.04788],[70.45661,22.0523],[70.45274,22.03712],[70.41493,22.02862],[70.32881,22.04857],[70.3263,22.01754],[70.29623,22.00926],[70.30234,21.9937],[70.26414,22.00231],[70.25164,21.96765],[70.20639,21.96171],[70.21525,21.90764],[70.1951,21.89303],[70.17789,21.89429],[70.16678,21.93629],[70.1446,21.94084],[70.12729,21.86501],[70.09103,21.83541],[70.10918,21.82377],[70.08124,21.81817],[70.08976,21.80002],[70.03008,21.79124],[70.07506,21.73237],[70.05032,21.69812],[70.02113,21.70781],[70.01159,21.79895],[69.99048,21.80803],[69.92815,21.77783],[69.88118,21.76726],[69.86985,21.77998],[69.86714,21.7354],[69.84648,21.73039],[69.81759,21.74026],[69.81523,21.82246],[69.73994,21.83138],[69.71405,21.79289],[69.68803,21.81859],[69.66543,21.81168],[69.64531,21.83626],[69.63213,21.80258],[69.61636,21.80263],[69.61122,21.86334],[69.65747,21.86911],[69.66731,21.92233],[69.682,21.92534],[69.68628,21.90963],[69.72339,21.9375],[69.7166,21.97435],[69.68935,21.97742],[69.68404,21.95843],[69.65167,21.95445],[69.65701,21.9217],[69.64234,21.91741],[69.61232,21.9456],[69.56543,21.94022],[69.53246,21.88841],[69.488,21.89367],[69.48642,21.85392],[69.44897,21.8508],[69.42821,21.88218],[69.40376,21.88968],[69.37403,21.82765],[69.23625,21.93847],[68.95403,22.24375],[68.93598,22.31209],[68.9568,22.36653],[69.00598,22.4382],[69.06736,22.48014],[69.08542,22.47236],[69.04375,22.43264],[69.06931,22.3957],[69.10264,22.41014],[69.12903,22.39792],[69.19403,22.42375],[69.20431,22.40181],[69.17875,22.37792],[69.15792,22.31292],[69.20264,22.26653],[69.23264,22.25792],[69.31986,22.29125],[69.3343,22.33042],[69.41931,22.31569],[69.48847,22.33792],[69.52375,22.38569],[69.49819,22.43569],[69.5507,22.40486],[69.56181,22.3557],[69.57569,22.36847],[69.59125,22.36097],[69.57569,22.31903],[69.5818,22.34625],[69.60486,22.35125],[69.60736,22.33847],[69.60902,22.34931],[69.60681,22.32569],[69.61792,22.36847],[69.65459,22.35903],[69.66402,22.39375],[69.6993,22.39597],[69.69791,22.44292],[69.6718,22.43931],[69.6718,22.4507],[69.70348,22.44708],[69.7282,22.47375],[69.74459,22.43069],[69.75569,22.42625],[69.75958,22.44153],[69.79764,22.39986],[69.82292,22.42736],[69.83459,22.47543],[69.83625,22.45403],[69.86042,22.44681],[69.90041,22.46792],[69.91403,22.45625],[69.91319,22.48958],[69.93819,22.51375],[69.95736,22.49542],[69.94597,22.52847],[69.98292,22.53486],[69.97625,22.5432],[70.0268,22.55097],[70.02348,22.53958],[70.03902,22.56292],[70.0857,22.54486],[70.16292,22.55153],[70.19431,22.58292],[70.19737,22.61681],[70.24292,22.66264],[70.25292,22.73347],[70.27597,22.73125],[70.30319,22.75764],[70.30042,22.7782],[70.35374,22.8707],[70.38514,22.90986],[70.41348,22.9182],[70.43653,22.96378],[70.43653,22.96423]]],[[[70.00375,22.5932],[70.02486,22.58625],[70.02708,22.56792],[69.99264,22.5482],[69.95792,22.54958],[69.96514,22.57792],[70.00375,22.59292],[70.00375,22.5932]]],[[[69.62764,22.45949],[69.65708,22.42819],[69.63653,22.40653],[69.58819,22.43708],[69.62764,22.45958],[69.62764,22.45949]]],[[[69.91875,22.5532],[69.94153,22.51792],[69.89653,22.51181],[69.86236,22.52708],[69.89514,22.52292],[69.91681,22.5532],[69.91875,22.5532]]],[[[69.1368,22.47764],[69.1468,22.46319],[69.11097,22.46403],[69.10847,22.43736],[69.08486,22.42096],[69.09348,22.46153],[69.13514,22.47764],[69.1368,22.47764]]],[[[69.32429,22.52764],[69.36375,22.51236],[69.33514,22.50736],[69.32181,22.52764],[69.32429,22.52764]]],[[[69.30209,22.47403],[69.32681,22.45708],[69.30125,22.45292],[69.30125,22.47403],[69.30209,22.47403]]],[[[70.52826,22.38917],[70.50395,22.39132],[70.52193,22.41767],[70.52885,22.39553],[70.52826,22.38917]]],[[[70.53183,22.43542],[70.51056,22.45617],[70.53789,22.43609],[70.53183,22.43542]]],[[[69.94431,22.55125],[69.95319,22.53681],[69.93875,22.53848],[69.94431,22.55097],[69.94431,22.55125]]],[[[69.33542,22.38903],[69.33208,22.37264],[69.32264,22.38097],[69.33486,22.38903],[69.33542,22.38903]]],[[[69.94875,22.60597],[69.96375,22.59903],[69.94847,22.60597],[69.94875,22.60597]]],[[[69.45264,22.35819],[69.43736,22.35431],[69.45166,22.35819],[69.45264,22.35819]]],[[[70.01125,22.55375],[69.99597,22.54875],[70.00958,22.55375],[70.01125,22.55375]]],[[[70.02431,22.5532],[70.01153,22.54958],[70.02375,22.5532],[70.02431,22.5532]]]]}},{"type":"Feature","properties":{"DISTRICT":"Junagadh","ST_NM":"Gujarat","ST_CEN_CD":24,"DT_CEN_CD":12,"censuscode":479},"geometry":{"type":"MultiPolygon","coordinates":[[[[70.14076,21.66127],[70.15044,21.64742],[70.12707,21.63725],[70.1388,21.61205],[70.22684,21.63631],[70.2621,21.61299],[70.26889,21.57687],[70.24503,21.56571],[70.25856,21.52613],[70.29407,21.54613],[70.30147,21.58705],[70.36622,21.59776],[70.36722,21.63691],[70.43681,21.65854],[70.44458,21.67358],[70.45774,21.64852],[70.49125,21.64769],[70.54531,21.67397],[70.54394,21.64434],[70.56227,21.61977],[70.57817,21.63033],[70.60878,21.62106],[70.65359,21.64856],[70.70154,21.60545],[70.72062,21.61055],[70.73183,21.64081],[70.7693,21.64396],[70.79321,21.66525],[70.86184,21.6007],[70.89356,21.53477],[70.85043,21.53139],[70.83913,21.50945],[70.8043,21.51368],[70.80702,21.49529],[70.83149,21.49205],[70.83171,21.45628],[70.86727,21.46486],[70.88644,21.44139],[70.92358,21.46204],[70.94788,21.39696],[70.91378,21.38461],[70.89536,21.39598],[70.86932,21.37444],[70.86587,21.31511],[70.92367,21.34633],[70.94156,21.31147],[70.90712,21.29843],[70.89128,21.26893],[70.8256,21.26203],[70.80365,21.23171],[70.8544,21.16725],[70.89209,21.18651],[71.00004,21.17002],[71.13172,21.0703],[71.14772,21.03177],[71.12651,20.96374],[71.14238,20.95098],[71.19741,20.97856],[71.22387,20.95706],[71.20573,20.9247],[71.18075,20.91964],[71.19488,20.90015],[71.1833,20.88167],[71.20597,20.87331],[71.2232,20.82393],[71.20736,20.79347],[71.15569,20.77847],[71.14557,20.75708],[71.08598,20.75625],[71.06541,20.73375],[70.92195,20.74435],[70.87375,20.72708],[70.84306,20.78694],[70.84763,20.80022],[70.8742,20.79979],[70.87663,20.82987],[70.82183,20.83765],[70.79703,20.85654],[70.88082,20.89078],[70.86764,20.95035],[70.82651,20.97583],[70.75111,20.96644],[70.72165,20.99572],[70.65835,20.84983],[70.66216,20.7899],[70.64028,20.76653],[70.61459,20.76986],[70.43903,20.85264],[70.41709,20.88708],[70.37236,20.89569],[70.25819,20.97264],[70.23959,20.99264],[70.24764,21.00042],[70.21153,21.01042],[69.98264,21.2257],[70.0282,21.27505],[69.97722,21.29324],[69.97897,21.33229],[69.94271,21.36879],[69.94529,21.39434],[69.98495,21.42079],[69.98287,21.43514],[70.02993,21.43448],[70.05101,21.45018],[70.04214,21.47238],[69.9957,21.47769],[69.98105,21.53032],[70.00306,21.54304],[69.96729,21.59187],[69.98607,21.60041],[69.9926,21.57815],[70.03142,21.60093],[70.06341,21.58358],[70.06749,21.60802],[70.0404,21.60743],[70.03639,21.64869],[70.05447,21.6353],[70.106,21.64433],[70.11968,21.679],[70.13746,21.66171],[70.14076,21.66127]],[[70.86193,21.40872],[70.84583,21.4038],[70.86804,21.3902],[70.87937,21.41762],[70.86605,21.41299],[70.86193,21.40872]]]]}},{"type":"Feature","properties":{"DISTRICT":"Kachchh","ST_NM":"Gujarat","ST_CEN_CD":24,"DT_CEN_CD":1,"censuscode":468},"geometry":{"type":"MultiPolygon","coordinates":[[[[71.30738,24.55469],[71.26653,24.5455],[71.2596,24.51198],[71.34932,24.51766],[71.32869,24.44343],[71.35133,24.4329],[71.33038,24.39527],[71.38237,24.39329],[71.39508,24.34915],[71.32184,24.32185],[71.30585,24.30383],[71.31213,24.25481],[71.28963,24.26058],[71.31485,24.24162],[71.29912,24.23604],[71.33858,24.18249],[71.37171,24.18987],[71.32313,24.14826],[71.2899,24.1757],[71.27627,24.16179],[71.29003,24.15252],[71.27878,24.13377],[71.33657,24.13332],[71.34339,24.1188],[71.31643,24.06963],[71.32769,24.04943],[71.28618,23.99842],[71.31612,23.98165],[71.28976,23.94674],[71.29501,23.92668],[71.25272,23.93097],[71.23959,23.91768],[71.2118,23.9305],[71.10014,23.90081],[71.06203,23.83558],[71.06131,23.80314],[71.04288,23.79817],[71.07071,23.73043],[71.05911,23.70873],[71.06901,23.68964],[71.03366,23.64884],[71.08494,23.5991],[71.09027,23.6215],[71.1393,23.62887],[71.13669,23.6606],[71.17821,23.71063],[71.15318,23.71239],[71.14666,23.73012],[71.17399,23.73938],[71.21441,23.72823],[71.22834,23.65724],[71.37785,23.64979],[71.39346,23.60387],[71.42183,23.62765],[71.42185,23.5673],[71.47009,23.55738],[71.44918,23.539],[71.44836,23.47214],[71.51789,23.52832],[71.50861,23.4755],[71.53258,23.48151],[71.53137,23.46658],[71.5864,23.4525],[71.59688,23.43148],[71.5845,23.36302],[71.62473,23.35749],[71.64477,23.33228],[71.63347,23.30808],[71.6485,23.29111],[71.66922,23.2937],[71.61813,23.22945],[71.62598,23.20447],[71.67618,23.17249],[71.70044,23.18543],[71.71442,23.17701],[71.70976,23.15036],[71.64254,23.17409],[71.62085,23.16222],[71.62491,23.14505],[71.5938,23.13742],[71.53378,23.16595],[71.45272,23.14503],[71.39257,23.15447],[71.3592,23.17895],[71.33583,23.1666],[71.3178,23.18765],[71.31229,23.16884],[71.29954,23.18364],[71.28047,23.17249],[71.28383,23.15467],[71.22128,23.14821],[71.1932,23.19084],[71.15906,23.18153],[71.13836,23.20896],[71.06981,23.17539],[70.98603,23.17358],[70.96239,23.15619],[70.95602,23.17297],[70.94905,23.15657],[70.96385,23.13639],[70.9452,23.13134],[70.92964,23.13593],[70.94026,23.15218],[70.92905,23.15998],[70.8901,23.15921],[70.90133,23.13289],[70.875,23.12104],[70.87493,23.1374],[70.82506,23.15502],[70.85632,23.12842],[70.82427,23.07881],[70.831,23.1258],[70.81509,23.13573],[70.81656,23.16164],[70.78603,23.14995],[70.79004,23.16432],[70.76436,23.16655],[70.75598,23.13949],[70.68571,23.11424],[70.62577,23.0612],[70.5989,23.06002],[70.60061,23.03522],[70.56346,23.03116],[70.54068,22.95931],[70.43847,22.96743],[70.47542,23.02153],[70.48487,23.07736],[70.43736,23.06236],[70.39625,23.02542],[70.38264,22.99792],[70.39458,22.99542],[70.38709,22.94875],[70.35068,22.93097],[70.2793,22.94875],[70.23764,22.97959],[70.22708,22.96597],[70.19936,22.99298],[70.22514,22.96014],[70.1618,22.94264],[70.11986,22.96458],[70.14125,23.01258],[70.11208,22.97153],[70.12653,22.94653],[70.09097,22.95264],[70.09986,22.93819],[70.11125,22.94958],[70.13903,22.94125],[70.13208,22.92458],[70.03264,22.89542],[69.93708,22.89319],[69.90569,22.86625],[69.86681,22.87292],[69.86208,22.85847],[69.85375,22.8682],[69.80156,22.85062],[69.75236,22.81959],[69.70348,22.72792],[69.70597,22.74042],[69.66236,22.75681],[69.66681,22.77736],[69.6593,22.75653],[69.64291,22.76597],[69.63375,22.79542],[69.64125,22.76653],[69.60136,22.75768],[69.56319,22.77375],[69.55514,22.79236],[69.54815,22.77935],[69.48458,22.78792],[69.49756,22.78231],[69.46958,22.77375],[69.35208,22.81764],[69.3557,22.82875],[69.26681,22.82403],[69.1907,22.84125],[68.81458,23.06736],[68.75931,23.08042],[68.58486,23.22236],[68.59903,23.24042],[68.60125,23.21847],[68.63069,23.21319],[68.63986,23.22236],[68.61903,23.21986],[68.60375,23.24293],[68.64042,23.24458],[68.67181,23.27014],[68.64069,23.26653],[68.62959,23.29514],[68.69477,23.30986],[68.65875,23.30347],[68.66792,23.32542],[68.65014,23.30431],[68.62458,23.33903],[68.6332,23.35208],[68.60014,23.38458],[68.6032,23.35931],[68.58097,23.38986],[68.57069,23.37513],[68.56042,23.41931],[68.5357,23.42125],[68.51598,23.47542],[68.5232,23.44653],[68.50236,23.46542],[68.50236,23.49181],[68.51903,23.48903],[68.49181,23.50097],[68.48903,23.63542],[68.5007,23.65708],[68.53902,23.66236],[68.52014,23.65458],[68.52487,23.6907],[68.63264,23.75792],[68.66625,23.80847],[68.74264,23.83708],[68.72209,23.83181],[68.73708,23.8432],[68.72903,23.85486],[68.76126,23.87542],[68.71625,23.85736],[68.66014,23.85847],[68.63736,23.83597],[68.60486,23.8382],[68.60375,23.85014],[68.53347,23.75597],[68.51542,23.78542],[68.53736,23.81514],[68.52597,23.80208],[68.51487,23.82403],[68.54681,23.83597],[68.57291,23.88097],[68.61347,23.9032],[68.63847,23.89486],[68.66319,23.91736],[68.61986,23.90653],[68.62236,23.92736],[68.59597,23.9418],[68.58847,23.92236],[68.55875,23.92403],[68.53736,23.94681],[68.54501,23.96728],[68.75255,23.96737],[68.77062,24.29816],[68.82754,24.31683],[68.85103,24.22106],[68.86792,24.21193],[68.90274,24.2746],[68.94317,24.30212],[68.98208,24.23338],[69.00519,24.22319],[69.09201,24.27233],[69.19277,24.23793],[69.30863,24.28071],[69.48445,24.2678],[69.58787,24.29133],[69.73009,24.17184],[70.01647,24.16991],[70.0656,24.19807],[70.10926,24.29457],[70.37244,24.35369],[70.57358,24.42169],[70.60003,24.40825],[70.55991,24.35238],[70.57605,24.25223],[70.66957,24.22032],[70.78288,24.22121],[70.90467,24.25951],[70.8779,24.27536],[70.87401,24.29728],[70.94905,24.35252],[70.98789,24.36671],[71.0368,24.35328],[71.12183,24.40745],[71.10902,24.43677],[70.99728,24.44839],[71.0053,24.52895],[70.98821,24.54759],[70.98869,24.59101],[71.01075,24.63674],[71.09782,24.68658],[71.2889,24.61281],[71.31347,24.58796],[71.31145,24.55867],[71.30738,24.55469]]],[[[68.35847,23.80514],[68.39792,23.78486],[68.42625,23.79486],[68.39931,23.75097],[68.41736,23.76042],[68.41846,23.7243],[68.39042,23.65431],[68.37542,23.64319],[68.38958,23.68597],[68.3468,23.59819],[68.31486,23.5832],[68.30432,23.59653],[68.29486,23.57875],[68.27431,23.59181],[68.29264,23.60014],[68.27292,23.61792],[68.27792,23.63125],[68.31375,23.62236],[68.30681,23.6307],[68.27709,23.63264],[68.26403,23.60236],[68.24208,23.60625],[68.25014,23.59069],[68.22125,23.58986],[68.22598,23.60681],[68.19708,23.59709],[68.18625,23.62431],[68.20458,23.64764],[68.31181,23.65014],[68.23125,23.64292],[68.26958,23.64958],[68.30625,23.68125],[68.31847,23.7182],[68.33403,23.71097],[68.3393,23.74264],[68.35014,23.73208],[68.33486,23.75875],[68.3568,23.80514],[68.35847,23.80514]]],[[[68.35847,23.975],[68.43403,23.96597],[68.41153,23.92598],[68.34653,23.90403],[68.33737,23.81903],[68.32097,23.80708],[68.30375,23.82458],[68.28875,23.81736],[68.29569,23.80431],[68.26569,23.79292],[68.25403,23.71875],[68.26681,23.69181],[68.23847,23.68097],[68.19264,23.73097],[68.23431,23.77486],[68.21792,23.78125],[68.21291,23.83458],[68.24541,23.85376],[68.26041,23.82486],[68.26097,23.83736],[68.28736,23.83931],[68.24958,23.84875],[68.25792,23.8707],[68.30514,23.8657],[68.31764,23.88042],[68.30236,23.86708],[68.25902,23.87514],[68.26125,23.88653],[68.28347,23.92042],[68.3382,23.92042],[68.35847,23.97458],[68.35847,23.975]]],[[[68.44375,23.96829],[68.49764,23.96747],[68.51903,23.93819],[68.50569,23.9418],[68.51847,23.92431],[68.50458,23.90847],[68.46736,23.89458],[68.47958,23.88903],[68.47236,23.86208],[68.44346,23.84847],[68.42819,23.86181],[68.45319,23.87986],[68.46291,23.93181],[68.42819,23.93653],[68.44375,23.96764],[68.44375,23.96829]]],[[[68.39569,23.8782],[68.43931,23.83903],[68.42653,23.81042],[68.41014,23.80903],[68.41153,23.82097],[68.40542,23.79319],[68.37959,23.8382],[68.40153,23.79042],[68.35514,23.81097],[68.33014,23.78736],[68.34431,23.83931],[68.39403,23.8782],[68.39569,23.8782]]],[[[68.49653,23.83097],[68.51986,23.81792],[68.51236,23.78875],[68.49847,23.79458],[68.52236,23.77542],[68.51681,23.75458],[68.48959,23.75958],[68.50736,23.74847],[68.48764,23.73708],[68.46542,23.77542],[68.47681,23.74069],[68.43736,23.73931],[68.45653,23.77403],[68.44791,23.80653],[68.49458,23.83097],[68.49653,23.83097]]],[[[68.4493,23.93847],[68.45875,23.93069],[68.44403,23.91931],[68.44209,23.87042],[68.41959,23.87097],[68.4107,23.88542],[68.42236,23.89486],[68.40847,23.88514],[68.41707,23.87236],[68.37736,23.87653],[68.34986,23.84625],[68.35597,23.89014],[68.36764,23.89069],[68.3532,23.88374],[68.35291,23.90069],[68.44736,23.93847],[68.4493,23.93847]]],[[[68.30791,23.82375],[68.32237,23.80486],[68.3243,23.73431],[68.29125,23.72764],[68.2857,23.75458],[68.29458,23.72319],[68.27403,23.70125],[68.25736,23.71597],[68.26764,23.77236],[68.30681,23.82375],[68.30791,23.82375]]],[[[68.53541,23.94597],[68.58875,23.91681],[68.51708,23.85653],[68.50208,23.87542],[68.49097,23.86625],[68.48597,23.88987],[68.51208,23.9032],[68.5257,23.89264],[68.51403,23.90458],[68.53764,23.91764],[68.53486,23.94597],[68.53541,23.94597]]],[[[68.47286,23.48042],[68.49486,23.45597],[68.48458,23.40319],[68.45819,23.41792],[68.47459,23.45986],[68.43042,23.43125],[68.4182,23.43986],[68.42125,23.42014],[68.41209,23.44347],[68.43486,23.44042],[68.44514,23.46792],[68.47236,23.48042],[68.47286,23.48042]]],[[[68.5582,23.31375],[68.57403,23.29431],[68.58847,23.29597],[68.58208,23.31014],[68.61208,23.29653],[68.61486,23.27153],[68.57236,23.26097],[68.5843,23.25375],[68.57403,23.24514],[68.54097,23.26569],[68.54097,23.28514],[68.56792,23.28125],[68.55708,23.31375],[68.5582,23.31375]]],[[[68.48514,23.59264],[68.48125,23.56125],[68.44597,23.54014],[68.43042,23.50765],[68.43542,23.55708],[68.48486,23.59264],[68.48514,23.59264]]],[[[68.57181,23.37368],[68.61069,23.3518],[68.60875,23.36431],[68.61903,23.32903],[68.57819,23.3518],[68.57181,23.37375],[68.57181,23.37368]]],[[[68.24819,23.88042],[68.23375,23.84264],[68.21597,23.84763],[68.2157,23.86653],[68.24486,23.88042],[68.24819,23.88042]]],[[[70.44847,23.05208],[70.41375,22.98985],[70.41458,23.01931],[70.4482,23.05208],[70.44847,23.05208]]],[[[68.45625,23.62486],[68.46653,23.60098],[68.44041,23.58653],[68.43459,23.61625],[68.45569,23.62486],[68.45625,23.62486]]],[[[68.50597,23.34236],[68.53764,23.31847],[68.50236,23.32375],[68.50403,23.34236],[68.50597,23.34236]]],[[[68.48458,23.62792],[68.49097,23.60431],[68.46819,23.59264],[68.48208,23.62792],[68.48458,23.62792]]],[[[68.54347,23.40375],[68.56736,23.37597],[68.55569,23.36042],[68.54625,23.39681],[68.5282,23.39069],[68.54292,23.40375],[68.54347,23.40375]]],[[[68.58847,23.31903],[68.61875,23.29931],[68.58709,23.31903],[68.58847,23.31903]]],[[[70.48236,23.06542],[70.44625,23.02514],[70.48153,23.06542],[70.48236,23.06542]]],[[[68.50681,23.45654],[68.5257,23.43625],[68.51347,23.44792],[68.52097,23.43708],[68.50291,23.42931],[68.50613,23.45653],[68.50681,23.45654]]],[[[68.45847,23.60042],[68.46763,23.59181],[68.45125,23.5732],[68.45569,23.60042],[68.45847,23.60042]]],[[[68.47931,23.55542],[68.45319,23.52875],[68.47876,23.55542],[68.47931,23.55542]]],[[[68.46736,23.73986],[68.48764,23.72903],[68.4593,23.72486],[68.46403,23.73986],[68.46736,23.73986]]],[[[70.44153,23.04958],[70.41458,23.02264],[70.44097,23.04958],[70.44153,23.04958]]],[[[68.46709,23.49764],[68.47125,23.48042],[68.45959,23.47958],[68.46653,23.49764],[68.46709,23.49764]]],[[[68.4818,23.50069],[68.47958,23.47792],[68.48125,23.50069],[68.4818,23.50069]]],[[[68.21653,23.77931],[68.21764,23.75569],[68.21625,23.77931],[68.21653,23.77931]]],[[[70.45514,22.9957],[70.43264,22.97875],[70.45486,22.9957],[70.45514,22.9957]]],[[[68.49875,23.48931],[68.48208,23.47792],[68.49792,23.48931],[68.49875,23.48931]]],[[[69.63848,22.76486],[69.66709,22.75181],[69.63764,22.76486],[69.63848,22.76486]]],[[[68.34958,23.80042],[68.34042,23.77708],[68.34903,23.80042],[68.34958,23.80042]]],[[[68.60514,23.80959],[68.59514,23.79681],[68.60403,23.80959],[68.60514,23.80959]]],[[[68.52375,23.40514],[68.52736,23.38625],[68.52319,23.40514],[68.52375,23.40514]]],[[[68.60902,23.23125],[68.61292,23.22125],[68.60653,23.23125],[68.60902,23.23125]]],[[[68.5332,23.87375],[68.52403,23.85847],[68.53264,23.87375],[68.5332,23.87375]]],[[[70.45903,23.05764],[70.44959,23.04319],[70.45819,23.05764],[70.45903,23.05764]]],[[[68.49903,23.47597],[68.50014,23.45514],[68.49597,23.47597],[68.49903,23.47597]]],[[[68.63486,23.31375],[68.64625,23.30736],[68.63431,23.31375],[68.63486,23.31375]]],[[[68.41458,23.40986],[68.42347,23.40069],[68.41347,23.40986],[68.41458,23.40986]]],[[[68.53514,23.38764],[68.53542,23.37125],[68.5343,23.38764],[68.53514,23.38764]]],[[[68.50125,23.45348],[68.4968,23.44403],[68.50097,23.45348],[68.50125,23.45348]]],[[[68.52597,23.9493],[68.51458,23.94958],[68.5257,23.94931],[68.52597,23.9493]]],[[[68.48681,23.74597],[68.48236,23.73597],[68.48653,23.74597],[68.48681,23.74597]]],[[[68.57931,23.38542],[68.58709,23.37597],[68.57818,23.38542],[68.57931,23.38542]]],[[[68.62708,23.32181],[68.62791,23.31153],[68.62681,23.32181],[68.62708,23.32181]]],[[[68.54986,23.41486],[68.54153,23.40543],[68.54958,23.41486],[68.54986,23.41486]]]]}},{"type":"Feature","properties":{"DISTRICT":"Kheda","ST_NM":"Gujarat","ST_CEN_CD":24,"DT_CEN_CD":16,"censuscode":483},"geometry":{"type":"Polygon","coordinates":[[[73.47631,23.28638],[73.47593,23.27099],[73.52619,23.2855],[73.53572,23.24964],[73.57202,23.27357],[73.57672,23.24921],[73.54417,23.22478],[73.55764,23.20387],[73.57424,23.21152],[73.57349,23.19712],[73.53658,23.18632],[73.51116,23.14674],[73.4417,23.14279],[73.43021,23.15572],[73.38344,23.13286],[73.37526,23.10829],[73.42444,23.09909],[73.41485,23.02912],[73.43585,23.02765],[73.45186,22.96825],[73.36955,22.89463],[73.38761,22.85421],[73.36272,22.79527],[73.26083,22.76706],[73.26287,22.65711],[73.23032,22.63379],[73.20611,22.65464],[73.20432,22.68148],[73.16173,22.68085],[73.13445,22.71982],[73.0573,22.71667],[73.05387,22.73625],[73.0297,22.73283],[73.0061,22.71893],[72.97603,22.64047],[72.92756,22.62208],[72.91381,22.58991],[72.86784,22.58269],[72.86767,22.61845],[72.82903,22.5933],[72.8309,22.62252],[72.7426,22.64416],[72.72573,22.62681],[72.68977,22.62554],[72.70835,22.5867],[72.67807,22.58316],[72.64581,22.5407],[72.67178,22.50485],[72.57357,22.50702],[72.55487,22.56615],[72.53376,22.56888],[72.50739,22.61931],[72.51532,22.63229],[72.53688,22.62562],[72.54968,22.6645],[72.53178,22.67679],[72.54278,22.68873],[72.51921,22.701],[72.53963,22.71062],[72.52436,22.75301],[72.53446,22.76799],[72.51961,22.78391],[72.57165,22.8247],[72.60962,22.81461],[72.60844,22.88521],[72.65029,22.89711],[72.69275,22.87961],[72.7261,22.91209],[72.79151,22.9078],[72.84327,22.96522],[72.83292,22.98182],[72.84679,23.01137],[72.89727,23.021],[72.92821,23.07717],[72.96259,23.07423],[72.98114,23.12864],[73.02609,23.13081],[73.02242,23.17136],[73.06873,23.16111],[73.1374,23.20525],[73.1574,23.1894],[73.17005,23.14496],[73.20609,23.1446],[73.2131,23.1098],[73.24614,23.07118],[73.27382,23.05881],[73.29629,23.08151],[73.32914,23.08235],[73.3409,23.12891],[73.37384,23.13839],[73.3764,23.17268],[73.34367,23.20084],[73.38345,23.22042],[73.38369,23.24446],[73.46933,23.28805],[73.47631,23.28638]]]}},{"type":"Feature","properties":{"DISTRICT":"Mahesana","ST_NM":"Gujarat","ST_CEN_CD":24,"DT_CEN_CD":4,"censuscode":471},"geometry":{"type":"Polygon","coordinates":[[[72.79701,24.07326],[72.82157,24.03526],[72.85113,24.03766],[72.86516,24.01627],[72.84846,23.97064],[72.81576,23.94477],[72.82751,23.92671],[72.80213,23.91264],[72.78809,23.83312],[72.80895,23.80024],[72.79757,23.73975],[72.83347,23.66962],[72.81761,23.6336],[72.84072,23.6025],[72.80535,23.56802],[72.83007,23.54034],[72.82602,23.49668],[72.77991,23.51095],[72.76942,23.53923],[72.69928,23.52562],[72.68001,23.55882],[72.63605,23.56329],[72.62877,23.51072],[72.59821,23.52281],[72.5816,23.46238],[72.53585,23.4592],[72.54189,23.43067],[72.50485,23.3852],[72.52114,23.35049],[72.47182,23.33989],[72.47734,23.31023],[72.45882,23.30908],[72.47354,23.30029],[72.43125,23.30449],[72.41528,23.28508],[72.42354,23.25771],[72.4467,23.25267],[72.42519,23.24173],[72.44523,23.19629],[72.41743,23.20384],[72.38518,23.16196],[72.39497,23.14835],[72.42798,23.15117],[72.41824,23.13152],[72.37063,23.09649],[72.34314,23.12502],[72.30875,23.09463],[72.32045,23.05453],[72.29378,23.04013],[72.28314,23.07939],[72.23837,23.11716],[72.163,23.10341],[72.16309,23.1373],[72.18717,23.14365],[72.16925,23.19089],[72.1844,23.21496],[72.17839,23.27414],[72.19849,23.27671],[72.20806,23.30816],[72.26418,23.34597],[72.26124,23.36973],[72.29828,23.41338],[72.26225,23.46012],[72.23484,23.42333],[72.2153,23.43424],[72.18762,23.41264],[72.16698,23.44056],[72.09831,23.45878],[72.05303,23.44355],[72.02583,23.47749],[72.03244,23.50821],[71.98268,23.5109],[71.95787,23.57976],[71.94131,23.58857],[72.00635,23.63484],[72.04809,23.6256],[72.0604,23.57468],[72.09771,23.58545],[72.10254,23.61112],[72.16288,23.61791],[72.18719,23.63904],[72.21973,23.62965],[72.24215,23.64258],[72.28967,23.61767],[72.3085,23.66914],[72.26864,23.69438],[72.28922,23.74395],[72.32021,23.75737],[72.29555,23.77185],[72.31571,23.8141],[72.2924,23.86089],[72.31625,23.86184],[72.33017,23.88961],[72.39387,23.88183],[72.43177,23.91166],[72.47024,23.89706],[72.47832,23.93021],[72.57912,23.93455],[72.59153,23.97655],[72.64502,23.98944],[72.62283,24.04082],[72.64088,24.0671],[72.65523,24.05409],[72.71842,24.08877],[72.73821,24.06786],[72.76938,24.0729],[72.77637,24.09312],[72.79211,24.08174],[72.79701,24.07326]]]}},{"type":"Feature","properties":{"DISTRICT":"Narmada","ST_NM":"Gujarat","ST_CEN_CD":24,"DT_CEN_CD":20,"censuscode":487},"geometry":{"type":"Polygon","coordinates":[[[73.61744,22.07169],[73.64729,22.07203],[73.66135,22.04101],[73.68097,22.05096],[73.66716,22.01426],[73.6895,22.01134],[73.69066,21.99309],[73.71078,22.0008],[73.70396,21.97457],[73.78498,21.95927],[73.78035,21.9414],[73.79403,21.93012],[73.80322,21.94882],[73.8085,21.92712],[73.8592,21.94992],[73.87337,21.9211],[73.89306,21.9242],[73.93335,21.88871],[73.94412,21.86895],[73.93124,21.86177],[73.80496,21.82214],[73.83948,21.78944],[73.82564,21.76168],[73.89093,21.69901],[73.89263,21.66601],[73.86468,21.63758],[73.78172,21.62394],[73.81737,21.59953],[73.85501,21.49467],[73.9049,21.51895],[73.95183,21.51521],[73.96093,21.53779],[73.98527,21.52106],[73.97296,21.48682],[73.98612,21.47649],[73.97143,21.46036],[73.88488,21.45034],[73.81815,21.39978],[73.78242,21.4115],[73.70038,21.39484],[73.67652,21.47264],[73.59573,21.48274],[73.55609,21.47116],[73.47954,21.49304],[73.49119,21.51175],[73.45117,21.52261],[73.44315,21.55539],[73.48428,21.60997],[73.47573,21.65511],[73.50449,21.67764],[73.46676,21.71876],[73.39443,21.71773],[73.40875,21.74674],[73.36777,21.8005],[73.33904,21.80863],[73.3341,21.83403],[73.30171,21.83232],[73.30008,21.88948],[73.34822,21.87449],[73.36678,21.92771],[73.43337,21.91403],[73.45162,21.97604],[73.50764,21.96275],[73.50366,22.03686],[73.6163,22.07729],[73.61744,22.07169]]]}},{"type":"Feature","properties":{"DISTRICT":"Navsari","ST_NM":"Gujarat","ST_CEN_CD":24,"DT_CEN_CD":23,"censuscode":490},"geometry":{"type":"Polygon","coordinates":[[[72.8098,21.06434],[72.84455,21.03562],[72.89359,21.06162],[72.91885,21.04253],[72.96441,21.06969],[72.9651,21.05668],[72.99618,21.05425],[72.99303,21.06982],[73.00956,21.06684],[73.00718,21.02243],[73.08539,20.96683],[73.09396,20.93633],[73.12661,20.9205],[73.12557,20.89707],[73.16747,20.89985],[73.19798,20.86003],[73.24949,20.8484],[73.25758,20.81743],[73.30268,20.81682],[73.31529,20.8832],[73.38477,20.82455],[73.49916,20.81819],[73.48646,20.79736],[73.49179,20.75697],[73.43912,20.70076],[73.44838,20.69304],[73.43165,20.66451],[73.39524,20.65209],[73.4096,20.63019],[73.3846,20.61346],[73.26028,20.58121],[73.21562,20.60359],[73.20073,20.59076],[73.15071,20.6068],[73.0744,20.59997],[73.07503,20.65157],[73.03548,20.66695],[73.04664,20.70228],[73.01346,20.72256],[72.97314,20.74268],[72.9551,20.71927],[72.9309,20.73433],[72.86868,20.72088],[72.84502,20.73106],[72.78239,20.92964],[72.84577,20.94752],[72.80704,20.95348],[72.76375,20.92051],[72.72202,21.03998],[72.72619,21.05261],[72.75508,21.05186],[72.6977,21.06142],[72.80029,21.07484],[72.8098,21.06434]]]}},{"type":"Feature","properties":{"DISTRICT":"Panch Mahals","ST_NM":"Gujarat","ST_CEN_CD":24,"DT_CEN_CD":17,"censuscode":484},"geometry":{"type":"Polygon","coordinates":[[[73.70597,23.44308],[73.72252,23.41122],[73.76128,23.45706],[73.77965,23.43308],[73.82885,23.44513],[73.891,23.33544],[73.93578,23.33966],[73.95946,23.37959],[73.98778,23.33579],[74.01196,23.33247],[73.99193,23.21218],[73.97182,23.20484],[73.99215,23.19038],[73.98254,23.16018],[74.00341,23.15083],[73.99004,23.11685],[74.02319,23.09334],[73.989,23.07981],[73.95553,23.1021],[73.91928,23.08434],[73.90396,22.98982],[73.93058,22.97826],[73.88968,22.94823],[73.90737,22.93401],[73.8718,22.84585],[73.84036,22.84412],[73.85169,22.78259],[73.82302,22.76503],[73.85089,22.73463],[73.82802,22.68583],[73.80203,22.67659],[73.82804,22.63211],[73.80032,22.60646],[73.85016,22.58981],[73.86151,22.56224],[73.74214,22.53487],[73.7329,22.41314],[73.73822,22.38953],[73.77098,22.38205],[73.7541,22.34526],[73.72945,22.3348],[73.73085,22.28995],[73.71216,22.30168],[73.69213,22.284],[73.63451,22.30027],[73.65885,22.33467],[73.7044,22.348],[73.64388,22.38437],[73.63127,22.38631],[73.61355,22.34371],[73.63057,22.32265],[73.46604,22.35749],[73.47264,22.37754],[73.4401,22.39751],[73.44474,22.42171],[73.42259,22.42652],[73.42994,22.4732],[73.40691,22.50365],[73.42055,22.5475],[73.37343,22.5531],[73.38939,22.61362],[73.36511,22.62745],[73.372,22.64576],[73.39673,22.64205],[73.41603,22.65908],[73.39162,22.6863],[73.38643,22.73834],[73.42727,22.75827],[73.42706,22.77392],[73.40598,22.78988],[73.40736,22.80901],[73.3791,22.7953],[73.38029,22.75667],[73.35119,22.78927],[73.3872,22.85136],[73.37203,22.89938],[73.45186,22.96825],[73.43585,23.02765],[73.41485,23.02912],[73.42444,23.09909],[73.37526,23.10829],[73.38344,23.13286],[73.43021,23.15572],[73.4417,23.14279],[73.51116,23.14674],[73.53658,23.18632],[73.57349,23.19712],[73.57424,23.21152],[73.55764,23.20387],[73.54417,23.22478],[73.57672,23.24921],[73.57202,23.27357],[73.52893,23.25118],[73.52619,23.2855],[73.62102,23.39853],[73.6289,23.4511],[73.64941,23.43917],[73.70059,23.45437],[73.70597,23.44308]]]}},{"type":"Feature","properties":{"DISTRICT":"Patan","ST_NM":"Gujarat","ST_CEN_CD":24,"DT_CEN_CD":3,"censuscode":470},"geometry":{"type":"Polygon","coordinates":[[[72.47024,23.89706],[72.43177,23.91166],[72.39387,23.88183],[72.33017,23.88961],[72.31625,23.86184],[72.2924,23.86089],[72.31571,23.8141],[72.29555,23.77185],[72.32021,23.75737],[72.28922,23.74395],[72.26864,23.69438],[72.3085,23.66914],[72.28967,23.61767],[72.24215,23.64258],[72.21973,23.62965],[72.18719,23.63904],[72.16288,23.61791],[72.10254,23.61112],[72.09771,23.58545],[72.0604,23.57468],[72.04809,23.6256],[72.00635,23.63484],[71.94131,23.58857],[71.95787,23.57976],[71.96957,23.53148],[71.86357,23.47507],[71.84354,23.43078],[71.79827,23.40028],[71.763,23.40935],[71.77825,23.45766],[71.73011,23.4758],[71.7274,23.49513],[71.5948,23.50432],[71.50861,23.4755],[71.51789,23.52832],[71.44836,23.47214],[71.44918,23.539],[71.47009,23.55738],[71.42185,23.5673],[71.42183,23.62765],[71.39346,23.60387],[71.37785,23.64979],[71.22834,23.65724],[71.20962,23.73243],[71.14666,23.73012],[71.15318,23.71239],[71.17821,23.71063],[71.13669,23.6606],[71.14251,23.63291],[71.09027,23.6215],[71.08494,23.5991],[71.03366,23.64884],[71.06901,23.68964],[71.05911,23.70873],[71.07071,23.73043],[71.04288,23.79817],[71.06131,23.80314],[71.06203,23.83558],[71.10014,23.90081],[71.2118,23.9305],[71.23959,23.91768],[71.25272,23.93097],[71.29501,23.92668],[71.28976,23.94674],[71.31612,23.98165],[71.37332,23.95297],[71.39508,23.9625],[71.41375,23.92627],[71.44469,23.94102],[71.44332,23.98292],[71.48252,24.02357],[71.49154,23.97047],[71.58752,23.9766],[71.60786,23.94174],[71.68791,23.96585],[71.69674,23.93469],[71.71665,23.92626],[71.71555,23.86984],[71.76698,23.83129],[71.80794,23.85465],[71.85225,23.84687],[71.88961,23.87958],[71.97232,23.89211],[71.92936,23.94893],[71.94604,23.97194],[71.92767,23.97854],[71.92719,24.00952],[71.98433,23.99744],[72.00108,23.96725],[72.04716,23.99786],[72.01961,24.01851],[72.01505,24.04009],[72.03075,24.05506],[72.0661,24.02063],[72.08311,24.03253],[72.10039,24.02124],[72.09794,24.04781],[72.13842,24.04389],[72.16437,24.07462],[72.15386,24.11438],[72.10039,24.113],[72.13433,24.14143],[72.15664,24.1379],[72.15935,24.11542],[72.18702,24.10385],[72.20465,24.1407],[72.22686,24.12988],[72.22263,24.0736],[72.25961,24.07244],[72.27416,24.04791],[72.35414,24.02502],[72.36747,23.96712],[72.4271,23.97889],[72.4361,23.96413],[72.46586,23.96479],[72.47834,23.94693],[72.47106,23.90693],[72.47024,23.89706]]]}},{"type":"Feature","properties":{"DISTRICT":"Porbandar","ST_NM":"Gujarat","ST_CEN_CD":24,"DT_CEN_CD":11,"censuscode":478},"geometry":{"type":"Polygon","coordinates":[[[70.07506,21.73237],[70.08933,21.70306],[70.11917,21.70536],[70.14077,21.68533],[70.14795,21.66166],[70.11968,21.679],[70.106,21.64433],[70.05447,21.6353],[70.03639,21.64869],[70.0404,21.60743],[70.06749,21.60802],[70.06341,21.58358],[70.03142,21.60093],[69.9926,21.57815],[69.98607,21.60041],[69.96729,21.59187],[70.00306,21.54304],[69.98105,21.53032],[69.9957,21.47769],[70.04214,21.47238],[70.05101,21.45018],[70.02993,21.43448],[69.98287,21.43514],[69.98495,21.42079],[69.94426,21.39104],[69.95006,21.35457],[69.97897,21.33229],[69.97722,21.29324],[70.0282,21.27505],[69.98181,21.2268],[69.7782,21.45791],[69.79986,21.45208],[69.80486,21.46403],[69.79569,21.45264],[69.77514,21.45986],[69.61375,21.62764],[69.59097,21.63847],[69.58764,21.62097],[69.59097,21.63542],[69.37403,21.82765],[69.40376,21.88968],[69.42821,21.88218],[69.44897,21.8508],[69.48953,21.85483],[69.488,21.89367],[69.53246,21.88841],[69.56543,21.94022],[69.61232,21.9456],[69.63367,21.91787],[69.65188,21.91959],[69.65167,21.95445],[69.68404,21.95843],[69.69488,21.9775],[69.7166,21.97435],[69.72339,21.9375],[69.68628,21.90963],[69.682,21.92534],[69.66731,21.92233],[69.65747,21.86911],[69.61122,21.86334],[69.61636,21.80263],[69.63213,21.80258],[69.64531,21.83626],[69.66543,21.81168],[69.68803,21.81859],[69.71405,21.79289],[69.73994,21.83138],[69.81523,21.82246],[69.81759,21.74026],[69.84648,21.73039],[69.86714,21.7354],[69.86985,21.77998],[69.88118,21.76726],[69.92815,21.77783],[69.99048,21.80803],[70.01159,21.79895],[70.02489,21.70399],[70.05032,21.69812],[70.07381,21.72902],[70.07506,21.73237]]]}},{"type":"Feature","properties":{"DISTRICT":"Rajkot","ST_NM":"Gujarat","ST_CEN_CD":24,"DT_CEN_CD":9,"censuscode":476},"geometry":{"type":"Polygon","coordinates":[[[70.77421,23.16233],[70.79004,23.16432],[70.78603,23.14995],[70.81656,23.16164],[70.81509,23.13573],[70.831,23.1258],[70.82427,23.07881],[70.85632,23.12842],[70.82506,23.15502],[70.87493,23.1374],[70.875,23.12104],[70.90133,23.13289],[70.8901,23.15921],[70.93604,23.1585],[70.92964,23.13593],[70.9452,23.13134],[70.96385,23.13639],[70.94905,23.15657],[70.95602,23.17297],[70.96239,23.15619],[70.98603,23.17358],[71.04491,23.17101],[71.04676,23.11451],[71.06365,23.09489],[71.04035,23.08313],[71.02454,23.10344],[71.00007,23.10362],[70.96254,23.02697],[70.94608,23.02887],[70.95204,23.00275],[70.99591,22.9678],[70.99563,22.92013],[71.01808,22.87805],[70.97437,22.83339],[70.99212,22.78747],[71.02862,22.79977],[71.04553,22.76866],[71.12353,22.75601],[71.1669,22.70019],[71.12795,22.65229],[71.12916,22.63339],[71.11018,22.63941],[71.10111,22.62639],[71.09661,22.56703],[71.06181,22.5376],[71.09457,22.51169],[71.11437,22.54586],[71.13108,22.54476],[71.16436,22.49009],[71.13111,22.47834],[71.095,22.4004],[71.03525,22.43934],[70.9822,22.41205],[71.03378,22.39416],[71.01213,22.35371],[71.02224,22.32938],[71.05786,22.30973],[71.06043,22.27742],[71.08078,22.25656],[71.11278,22.25462],[71.11318,22.22819],[71.15817,22.18159],[71.11351,22.12915],[71.1352,22.12262],[71.17529,22.14478],[71.17123,22.15954],[71.21068,22.18587],[71.23189,22.16441],[71.28942,22.16363],[71.29715,22.1812],[71.27949,22.21482],[71.21398,22.22263],[71.20973,22.24257],[71.23197,22.27674],[71.27706,22.27191],[71.30195,22.25225],[71.30674,22.28106],[71.3419,22.25928],[71.36295,22.29463],[71.37008,22.27439],[71.3877,22.27542],[71.38889,22.22262],[71.42095,22.23248],[71.43342,22.26101],[71.45574,22.25361],[71.45756,22.23037],[71.42708,22.2085],[71.4788,22.18433],[71.46973,22.13702],[71.50037,22.11096],[71.4903,22.06965],[71.50569,22.05517],[71.45423,22.03026],[71.44919,21.99585],[71.39219,21.97812],[71.34415,21.98475],[71.32903,22.02563],[71.29963,22.04197],[71.27241,22.01012],[71.2934,21.96],[71.25708,21.96003],[71.24758,22.0093],[71.18433,22.00969],[71.19868,22.00005],[71.19727,21.96831],[71.12887,21.94345],[71.11526,21.91899],[71.06388,21.90701],[71.05881,21.8812],[71.03099,21.87167],[71.05903,21.84882],[71.10362,21.86974],[71.10889,21.85322],[71.08334,21.8228],[71.04705,21.82308],[71.04677,21.75602],[71.0278,21.73781],[70.98404,21.72552],[70.96463,21.75003],[70.93478,21.74519],[70.8996,21.76636],[70.88523,21.73456],[70.78633,21.73423],[70.76906,21.7087],[70.80726,21.71049],[70.79557,21.66835],[70.73712,21.66458],[70.72391,21.61573],[70.70154,21.60545],[70.65359,21.64856],[70.60878,21.62106],[70.57817,21.63033],[70.56227,21.61977],[70.54394,21.64434],[70.54531,21.67397],[70.49125,21.64769],[70.45774,21.64852],[70.44458,21.67358],[70.43681,21.65854],[70.36722,21.63691],[70.36622,21.59776],[70.30147,21.58705],[70.29407,21.54613],[70.25856,21.52613],[70.24503,21.56571],[70.26889,21.57687],[70.2621,21.61299],[70.22684,21.63631],[70.1388,21.61205],[70.12707,21.63725],[70.15044,21.64742],[70.14451,21.68122],[70.11917,21.70536],[70.08933,21.70306],[70.08324,21.73392],[70.03008,21.79124],[70.08976,21.80002],[70.08124,21.81817],[70.10918,21.82377],[70.09103,21.83541],[70.12729,21.86501],[70.1446,21.94084],[70.16678,21.93629],[70.17789,21.89429],[70.1951,21.89303],[70.21525,21.90764],[70.20639,21.96171],[70.25164,21.96765],[70.26414,22.00231],[70.30234,21.9937],[70.29623,22.00926],[70.3263,22.01754],[70.32881,22.04857],[70.41493,22.02862],[70.45274,22.03712],[70.45661,22.0523],[70.52142,22.04788],[70.51818,22.01858],[70.49741,22.01256],[70.50285,21.99578],[70.56794,22.02919],[70.54759,22.04797],[70.55987,22.07421],[70.54967,22.08069],[70.5865,22.11268],[70.56139,22.14329],[70.58466,22.16784],[70.58037,22.18342],[70.61173,22.19388],[70.58425,22.20953],[70.57492,22.23815],[70.54642,22.23004],[70.52155,22.24544],[70.47064,22.31179],[70.47274,22.32606],[70.49733,22.32178],[70.52779,22.3403],[70.47399,22.37574],[70.5036,22.42671],[70.4601,22.41802],[70.44563,22.4326],[70.46586,22.46727],[70.49936,22.45317],[70.50151,22.48873],[70.53441,22.45703],[70.55003,22.46164],[70.54107,22.47736],[70.58583,22.48603],[70.57528,22.5098],[70.53488,22.49509],[70.5263,22.51214],[70.5447,22.53125],[70.57032,22.51994],[70.60153,22.5296],[70.57334,22.55227],[70.55754,22.54003],[70.54728,22.56375],[70.57396,22.63133],[70.61289,22.64812],[70.61269,22.6914],[70.64402,22.70452],[70.61477,22.76463],[70.64796,22.78671],[70.64232,22.82261],[70.662,22.83134],[70.57943,22.91509],[70.48735,22.93281],[70.43653,22.96431],[70.47626,22.97318],[70.54068,22.95931],[70.56346,23.03116],[70.60061,23.03522],[70.5989,23.06002],[70.62577,23.0612],[70.68571,23.11424],[70.75598,23.13949],[70.77197,23.16308],[70.77421,23.16233]],[[70.76369,21.78288],[70.7689,21.74999],[70.80087,21.77504],[70.77783,21.80139],[70.76647,21.79504],[70.76369,21.78288]],[[70.51468,22.38652],[70.53506,22.40203],[70.52983,22.41744],[70.50833,22.38835],[70.51468,22.38652]],[[70.52242,22.45652],[70.51056,22.45617],[70.53789,22.43609],[70.52921,22.44614],[70.52242,22.45652]]]}},{"type":"Feature","properties":{"DISTRICT":"Sabar Kantha","ST_NM":"Gujarat","ST_CEN_CD":24,"DT_CEN_CD":5,"censuscode":472},"geometry":{"type":"Polygon","coordinates":[[[73.36643,23.81357],[73.35705,23.79085],[73.37184,23.76584],[73.39605,23.7831],[73.41657,23.77841],[73.47541,23.70795],[73.50474,23.70225],[73.49718,23.63277],[73.50956,23.61572],[73.52837,23.61241],[73.5736,23.65416],[73.61545,23.65014],[73.65725,23.62155],[73.63347,23.54672],[73.65474,23.50278],[73.6401,23.49547],[73.62102,23.39853],[73.52619,23.2855],[73.47593,23.27099],[73.47631,23.28638],[73.45305,23.28275],[73.38369,23.24446],[73.38345,23.22042],[73.34367,23.20084],[73.3764,23.17268],[73.37384,23.13839],[73.3409,23.12891],[73.32914,23.08235],[73.29629,23.08151],[73.27382,23.05881],[73.24614,23.07118],[73.2131,23.1098],[73.20609,23.1446],[73.17005,23.14496],[73.1574,23.1894],[73.1374,23.20525],[73.06873,23.16111],[72.97326,23.16284],[72.98667,23.17349],[72.99231,23.25053],[73.01835,23.27867],[72.99998,23.29665],[72.9417,23.23887],[72.91977,23.28657],[72.88414,23.29059],[72.91137,23.29522],[72.91243,23.31891],[72.80304,23.31715],[72.80716,23.35144],[72.76326,23.35285],[72.74805,23.38849],[72.72626,23.3861],[72.77345,23.41237],[72.80199,23.4026],[72.79624,23.42293],[72.81822,23.46117],[72.79911,23.49514],[72.82602,23.49668],[72.83007,23.54034],[72.80573,23.57632],[72.8406,23.6058],[72.81761,23.6336],[72.83256,23.6749],[72.79511,23.75415],[72.80895,23.80024],[72.78768,23.82429],[72.80213,23.91264],[72.82751,23.92671],[72.81576,23.94477],[72.84846,23.97064],[72.85476,24.00909],[72.91727,24.03712],[72.94827,24.12767],[73.02806,24.26749],[73.02907,24.28434],[72.9686,24.30322],[72.96119,24.35123],[72.98735,24.36401],[72.96006,24.39233],[72.98662,24.42096],[72.97704,24.45115],[73.00897,24.48243],[73.01804,24.46512],[73.0473,24.4652],[73.0908,24.49458],[73.10467,24.42612],[73.08119,24.39432],[73.16634,24.35032],[73.20751,24.37499],[73.22805,24.36418],[73.20752,24.33379],[73.18937,24.34318],[73.17694,24.30112],[73.14117,24.30755],[73.07715,24.19167],[73.11,24.13832],[73.21988,24.09772],[73.19656,24.04479],[73.2418,24.01017],[73.28717,24.02675],[73.32884,24.07295],[73.33159,24.11439],[73.37002,24.12733],[73.36609,24.08718],[73.41029,24.05018],[73.40147,23.98967],[73.416,23.98176],[73.42103,23.93014],[73.39235,23.91594],[73.35814,23.86107],[73.36869,23.8211],[73.36643,23.81357]]]}},{"type":"Feature","properties":{"DISTRICT":"Surat","ST_NM":"Gujarat","ST_CEN_CD":24,"DT_CEN_CD":25,"censuscode":492},"geometry":{"type":"MultiPolygon","coordinates":[[[[73.08009,21.50319],[73.10425,21.50491],[73.121,21.48188],[73.19556,21.50399],[73.24157,21.49104],[73.27445,21.50551],[73.30694,21.50437],[73.32441,21.48511],[73.34768,21.5103],[73.45288,21.52254],[73.49119,21.51175],[73.47954,21.49304],[73.49386,21.48616],[73.55609,21.47116],[73.65474,21.47794],[73.69015,21.44867],[73.70038,21.39484],[73.67309,21.38161],[73.5374,21.36561],[73.52748,21.34667],[73.51001,21.37578],[73.45583,21.3803],[73.4369,21.34027],[73.44272,21.26776],[73.41857,21.27746],[73.36731,21.26426],[73.37281,21.22493],[73.28429,21.19268],[73.27426,21.13414],[73.23646,21.12805],[73.25433,21.09243],[73.19805,21.07361],[73.20724,21.0125],[73.24115,20.98572],[73.21271,20.95476],[73.25714,20.94454],[73.26023,20.92144],[73.29053,20.92941],[73.31811,20.90441],[73.29632,20.81453],[73.25758,20.81743],[73.24949,20.8484],[73.19798,20.86003],[73.16747,20.89985],[73.12557,20.89707],[73.12661,20.9205],[73.09396,20.93633],[73.08539,20.96683],[73.00718,21.02243],[73.00956,21.06684],[72.99303,21.06982],[72.99618,21.05425],[72.9651,21.05668],[72.96441,21.06969],[72.91885,21.04253],[72.89359,21.06162],[72.84455,21.03562],[72.80029,21.07484],[72.6977,21.06142],[72.7207,21.14319],[72.68125,21.15847],[72.6618,21.14764],[72.6518,21.07708],[72.62458,21.09181],[72.61847,21.22264],[72.6532,21.2268],[72.60958,21.22986],[72.58903,21.29848],[72.63597,21.37153],[72.64849,21.36542],[72.63958,21.37597],[72.62319,21.36514],[72.62542,21.38153],[72.69733,21.45987],[72.73878,21.46999],[72.76711,21.44673],[72.78113,21.45728],[72.79336,21.42019],[72.87191,21.45221],[72.87232,21.4318],[72.90596,21.42839],[72.92456,21.46495],[72.95293,21.48048],[72.94256,21.51057],[72.99667,21.53585],[73.01917,21.5226],[73.01894,21.49047],[73.04205,21.47548],[73.05681,21.48558],[73.03898,21.53231],[73.05556,21.56468],[73.08186,21.53047],[73.08009,21.50319]]],[[[72.67653,21.1557],[72.71042,21.14069],[72.68902,21.08986],[72.66514,21.14208],[72.67458,21.1557],[72.67653,21.1557]]],[[[72.60042,21.38708],[72.58764,21.36736],[72.59986,21.38708],[72.60042,21.38708]]],[[[72.6282,21.41736],[72.61264,21.3957],[72.62764,21.41736],[72.6282,21.41736]]],[[[72.64764,21.07625],[72.65736,21.06514],[72.64659,21.07625],[72.64764,21.07625]]],[[[72.67208,21.11514],[72.67625,21.09708],[72.67124,21.11514],[72.67208,21.11514]]],[[[72.70208,21.12236],[72.69958,21.11236],[72.7018,21.12236],[72.70208,21.12236]]]]}},{"type":"Feature","properties":{"DISTRICT":"Surendranagar","ST_NM":"Gujarat","ST_CEN_CD":24,"DT_CEN_CD":8,"censuscode":475},"geometry":{"type":"Polygon","coordinates":[[[71.99969,23.50366],[71.96943,23.46689],[71.95922,23.39338],[71.87442,23.38348],[71.89547,23.33288],[71.88008,23.31555],[71.87465,23.2275],[71.89993,23.22549],[71.90804,23.26501],[71.928,23.26947],[71.94754,23.2421],[71.99896,23.2494],[71.99034,23.21571],[71.91002,23.18086],[71.90075,23.11048],[71.91903,23.07482],[71.94853,23.06626],[71.94963,23.03958],[71.98128,23.06866],[72.01575,23.05625],[72.00893,22.99908],[72.02019,22.99209],[71.98942,22.94933],[72.00283,22.92343],[71.9834,22.8555],[72.02378,22.79085],[72.03511,22.84259],[72.05686,22.74739],[72.10638,22.72049],[72.08978,22.67556],[72.06601,22.67631],[72.05635,22.69356],[72.02678,22.67919],[72.06113,22.65084],[72.06514,22.59388],[72.1163,22.59876],[72.18599,22.54996],[72.14281,22.51421],[72.1612,22.47945],[72.0844,22.43725],[72.05377,22.44235],[72.03109,22.50635],[71.96678,22.5092],[71.96926,22.5282],[71.93896,22.5393],[71.90874,22.51724],[71.91966,22.49926],[71.90679,22.48304],[71.95727,22.48947],[71.96116,22.46944],[71.92298,22.44936],[71.93352,22.38081],[71.91231,22.37694],[71.89057,22.41888],[71.83178,22.35579],[71.82708,22.39298],[71.78813,22.39428],[71.7833,22.36133],[71.73406,22.36067],[71.70283,22.39616],[71.66475,22.38201],[71.64287,22.3994],[71.61993,22.38053],[71.62106,22.34314],[71.5872,22.35168],[71.56974,22.32008],[71.55742,22.3402],[71.52311,22.33994],[71.48712,22.30212],[71.43937,22.28902],[71.42095,22.23248],[71.4002,22.22379],[71.38601,22.22514],[71.3877,22.27542],[71.37008,22.27439],[71.36605,22.29404],[71.3419,22.25928],[71.30674,22.28106],[71.30195,22.25225],[71.27706,22.27191],[71.23197,22.27674],[71.20973,22.24257],[71.21398,22.22263],[71.27643,22.21722],[71.29715,22.1812],[71.28942,22.16363],[71.23189,22.16441],[71.21068,22.18587],[71.17123,22.15954],[71.17529,22.14478],[71.12382,22.12254],[71.11303,22.13276],[71.15817,22.18159],[71.11318,22.22819],[71.11278,22.25462],[71.08078,22.25656],[71.06043,22.27742],[71.05786,22.30973],[71.02224,22.32938],[71.01213,22.35371],[71.03378,22.39416],[70.9822,22.41205],[71.03525,22.43934],[71.095,22.4004],[71.13111,22.47834],[71.16282,22.48203],[71.13108,22.54476],[71.11437,22.54586],[71.09457,22.51169],[71.06181,22.5376],[71.09661,22.56703],[71.10111,22.62639],[71.11018,22.63941],[71.12916,22.63339],[71.12795,22.65229],[71.1669,22.70019],[71.12353,22.75601],[71.04553,22.76866],[71.02862,22.79977],[70.98767,22.7919],[70.97418,22.837],[71.01808,22.87805],[70.99563,22.92013],[70.99591,22.9678],[70.95193,23.00289],[70.94693,23.03134],[70.96254,23.02697],[71.00007,23.10362],[71.02454,23.10344],[71.04035,23.08313],[71.06365,23.09489],[71.04676,23.11451],[71.04491,23.17101],[71.13836,23.20896],[71.15906,23.18153],[71.1932,23.19084],[71.22128,23.14821],[71.28383,23.15467],[71.28047,23.17249],[71.29954,23.18364],[71.31229,23.16884],[71.3178,23.18765],[71.33583,23.1666],[71.3592,23.17895],[71.39257,23.15447],[71.45272,23.14503],[71.53378,23.16595],[71.5938,23.13742],[71.62491,23.14505],[71.62085,23.16222],[71.64254,23.17409],[71.70976,23.15036],[71.71442,23.17701],[71.70044,23.18543],[71.67618,23.17249],[71.62598,23.20447],[71.61813,23.22945],[71.66922,23.2937],[71.6485,23.29111],[71.63347,23.30808],[71.64477,23.33228],[71.62473,23.35749],[71.5845,23.36302],[71.59477,23.43714],[71.5637,23.46632],[71.52831,23.46842],[71.53258,23.48151],[71.5948,23.50432],[71.7274,23.49513],[71.73011,23.4758],[71.77825,23.45766],[71.763,23.40935],[71.79827,23.40028],[71.83523,23.42182],[71.88114,23.48585],[71.92997,23.49976],[71.9696,23.5315],[71.98661,23.50775],[71.99969,23.50366]]]}},{"type":"Feature","properties":{"DISTRICT":"Tapi","ST_NM":"Gujarat","ST_CEN_CD":24,"DT_CEN_CD":26,"censuscode":493},"geometry":{"type":"Polygon","coordinates":[[[74.08573,21.55513],[74.17822,21.56003],[74.20062,21.52768],[74.23471,21.54872],[74.2657,21.53404],[74.30573,21.56568],[74.31156,21.54152],[74.33133,21.53857],[74.32913,21.51816],[74.30508,21.47958],[74.24914,21.46149],[74.22644,21.47829],[74.21801,21.45747],[74.124,21.46209],[74.10197,21.44672],[74.07304,21.45644],[74.06204,21.48057],[74.04329,21.41811],[73.96316,21.39083],[73.94726,21.40116],[73.94278,21.29638],[73.88605,21.26132],[73.82601,21.26643],[73.81252,21.20288],[73.8297,21.19417],[73.81627,21.17094],[73.78995,21.18078],[73.77723,21.16413],[73.73505,21.16622],[73.73007,21.13742],[73.6745,21.15131],[73.62942,21.13191],[73.63048,21.15238],[73.60615,21.17533],[73.58117,21.1672],[73.58166,21.15349],[73.62208,21.14091],[73.62169,21.11942],[73.65081,21.12029],[73.65301,21.10762],[73.68655,21.10019],[73.70386,21.1182],[73.73223,21.10047],[73.74601,21.11321],[73.73242,21.09399],[73.74091,21.03914],[73.75945,21.03919],[73.76824,21.00959],[73.8012,21.02166],[73.80991,20.99515],[73.84375,21.00048],[73.90025,20.98216],[73.90921,20.96384],[73.89556,20.96073],[73.89006,20.93204],[73.81488,20.94953],[73.79603,20.95766],[73.78794,20.98651],[73.71455,21.00708],[73.65985,21.00566],[73.64148,20.97313],[73.61094,20.9936],[73.59642,20.95916],[73.59361,20.99716],[73.55652,21.01113],[73.53114,20.93604],[73.4932,20.91239],[73.49916,20.81819],[73.45472,20.81278],[73.37128,20.8318],[73.33512,20.85754],[73.31811,20.90441],[73.29053,20.92941],[73.26023,20.92144],[73.25714,20.94454],[73.21271,20.95476],[73.24115,20.98572],[73.20724,21.0125],[73.19805,21.07361],[73.25433,21.09243],[73.23646,21.12805],[73.27426,21.13414],[73.28429,21.19268],[73.37281,21.22493],[73.36731,21.26426],[73.41857,21.27746],[73.44272,21.26776],[73.4369,21.34027],[73.45583,21.3803],[73.51001,21.37578],[73.52748,21.34667],[73.5374,21.36561],[73.6076,21.36525],[73.71508,21.40433],[73.78242,21.4115],[73.81815,21.39978],[73.88488,21.45034],[73.97143,21.46036],[73.98612,21.47649],[73.97296,21.48682],[73.9782,21.54074],[74.08474,21.55513],[74.08573,21.55513]]]}},{"type":"Feature","properties":{"DISTRICT":"The Dangs","ST_NM":"Gujarat","ST_CEN_CD":24,"DT_CEN_CD":22,"censuscode":489},"geometry":{"type":"MultiPolygon","coordinates":[[[[73.55652,21.01113],[73.59361,20.99716],[73.59642,20.95916],[73.61094,20.9936],[73.64148,20.97313],[73.65985,21.00566],[73.75065,21.00372],[73.78794,20.98651],[73.79603,20.95766],[73.86571,20.94451],[73.91653,20.90679],[73.92482,20.84745],[73.94141,20.82844],[73.93204,20.75988],[73.94325,20.74139],[73.9145,20.72265],[73.87906,20.72876],[73.85696,20.69348],[73.81587,20.69305],[73.81864,20.67285],[73.83863,20.66629],[73.83149,20.61501],[73.78005,20.60157],[73.74103,20.56672],[73.69366,20.57779],[73.65835,20.56226],[73.62688,20.58176],[73.61458,20.62477],[73.55514,20.64692],[73.5305,20.67341],[73.4904,20.65303],[73.46677,20.74052],[73.49301,20.75984],[73.48646,20.79736],[73.50342,20.85382],[73.4932,20.91239],[73.53114,20.93604],[73.55279,21.00727],[73.55652,21.01113]]],[[[73.73746,21.0808],[73.78711,21.06609],[73.81132,21.0838],[73.7962,21.04501],[73.84045,20.99306],[73.80991,20.99515],[73.8012,21.02166],[73.76824,21.00959],[73.73412,21.07203],[73.73746,21.0808]]]]}},{"type":"Feature","properties":{"DISTRICT":"Vadodara","ST_NM":"Gujarat","ST_CEN_CD":24,"DT_CEN_CD":19,"censuscode":486},"geometry":{"type":"MultiPolygon","coordinates":[[[[73.40736,22.80901],[73.42727,22.75827],[73.38643,22.73834],[73.38495,22.71527],[73.41603,22.65908],[73.39673,22.64205],[73.3697,22.64421],[73.3655,22.62448],[73.38939,22.61362],[73.37343,22.5531],[73.42055,22.5475],[73.40691,22.50365],[73.42994,22.4732],[73.42259,22.42652],[73.44474,22.42171],[73.4401,22.39751],[73.47264,22.37754],[73.46604,22.35749],[73.4855,22.34584],[73.63057,22.32265],[73.61355,22.34371],[73.63127,22.38631],[73.64388,22.38437],[73.7044,22.348],[73.65885,22.33467],[73.63451,22.30027],[73.66229,22.28486],[73.69932,22.28531],[73.71216,22.30168],[73.73085,22.28995],[73.72945,22.3348],[73.7541,22.34526],[73.77098,22.38205],[73.73822,22.38953],[73.7329,22.41314],[73.74214,22.53487],[73.80475,22.54871],[73.88493,22.5029],[73.90819,22.50766],[73.9375,22.54222],[73.96998,22.54042],[74.02029,22.57082],[74.06292,22.54914],[74.0407,22.54039],[74.03309,22.48981],[74.05487,22.50881],[74.08142,22.50675],[74.07416,22.4639],[74.0995,22.46605],[74.10118,22.43164],[74.11917,22.41902],[74.14051,22.45488],[74.15735,22.43032],[74.18306,22.44228],[74.18726,22.476],[74.20103,22.43528],[74.25056,22.43111],[74.2908,22.3925],[74.25452,22.3981],[74.2421,22.37562],[74.22183,22.37631],[74.22344,22.35665],[74.20315,22.36576],[74.18729,22.3201],[74.13037,22.33055],[74.10802,22.36985],[74.06792,22.35855],[74.05495,22.28408],[74.08743,22.24201],[74.07154,22.22021],[74.11868,22.21117],[74.12605,22.09603],[74.15054,22.10379],[74.17665,22.08487],[74.0933,22.01384],[74.10058,21.99733],[74.14957,21.98475],[74.14169,21.95241],[74.04198,21.92128],[73.94412,21.86895],[73.89306,21.9242],[73.8707,21.92331],[73.8592,21.94992],[73.8085,21.92712],[73.80322,21.94882],[73.79403,21.93012],[73.78035,21.9414],[73.78498,21.95927],[73.70396,21.97457],[73.71078,22.0008],[73.69066,21.99309],[73.6895,22.01134],[73.66716,22.01426],[73.68097,22.05096],[73.66135,22.04101],[73.64729,22.07203],[73.61025,22.08182],[73.57474,22.05296],[73.50366,22.03686],[73.50764,21.96275],[73.45162,21.97604],[73.43337,21.91403],[73.35435,21.92184],[73.34822,21.87449],[73.30008,21.88948],[73.26764,21.92981],[73.24352,21.92987],[73.22474,21.90997],[73.2521,21.86238],[73.22852,21.82331],[73.18524,21.82931],[73.1283,21.87573],[73.06317,21.88076],[73.0661,21.91217],[73.09121,21.92855],[73.0569,21.92125],[73.05004,21.93374],[72.99807,21.91459],[73.01799,21.94074],[73.05147,21.93851],[73.05171,21.97586],[73.07573,22.00105],[73.05742,22.01058],[73.02542,21.99691],[72.98078,22.04726],[72.91251,22.04471],[72.92236,22.0581],[72.88396,22.09589],[72.86606,22.1504],[72.88532,22.16618],[72.91766,22.16204],[72.92864,22.18159],[72.91855,22.19067],[72.8823,22.17574],[72.86475,22.22569],[72.91043,22.24319],[72.92553,22.30458],[72.97838,22.24774],[73.06049,22.30891],[73.04963,22.36469],[73.07287,22.39069],[73.06761,22.42602],[73.09385,22.45439],[73.09241,22.50679],[73.13933,22.5271],[73.15952,22.58703],[73.2658,22.66006],[73.26083,22.76706],[73.35119,22.78927],[73.38029,22.75667],[73.37859,22.79415],[73.3984,22.80624],[73.40736,22.80901]],[[74.17774,22.3934],[74.17261,22.41867],[74.15897,22.41304],[74.17932,22.39059],[74.17774,22.3934]]],[[[72.85514,22.27183],[72.90986,22.26014],[72.8668,22.24264],[72.85514,22.2718],[72.85514,22.27183]]]]}},{"type":"Feature","properties":{"DISTRICT":"Valsad","ST_NM":"Gujarat","ST_CEN_CD":24,"DT_CEN_CD":24,"censuscode":491},"geometry":{"type":"Polygon","coordinates":[[[73.40756,20.6259],[73.43203,20.59481],[73.47264,20.58325],[73.47357,20.54303],[73.49259,20.53989],[73.46398,20.51374],[73.46765,20.49472],[73.42118,20.41417],[73.3826,20.39003],[73.38281,20.37274],[73.40611,20.38138],[73.42825,20.28195],[73.41162,20.25686],[73.41803,20.20144],[73.38916,20.19591],[73.38638,20.20907],[73.36528,20.1926],[73.35857,20.21331],[73.34374,20.19843],[73.30187,20.20722],[73.28472,20.19389],[73.28424,20.15393],[73.2499,20.12474],[73.22583,20.14112],[73.21176,20.12094],[73.19086,20.12988],[73.1863,20.15628],[73.21952,20.18442],[73.17038,20.20878],[73.13221,20.20462],[73.14242,20.17628],[73.11795,20.15738],[73.08595,20.17453],[73.07215,20.15691],[73.06011,20.22176],[73.10039,20.23238],[73.14838,20.29065],[73.16982,20.29],[73.16741,20.31246],[73.15163,20.31734],[73.10289,20.30517],[73.11156,20.33664],[73.09342,20.36058],[73.08084,20.32709],[73.04027,20.32331],[73.03388,20.29144],[73.01615,20.29447],[73.00947,20.31775],[73.01009,20.29126],[72.97993,20.29249],[72.97352,20.2721],[72.93527,20.2939],[72.91377,20.27916],[72.93007,20.24731],[72.95895,20.23439],[72.95856,20.21137],[72.86345,20.2264],[72.86087,20.20884],[72.83906,20.20857],[72.83843,20.1899],[72.82422,20.18833],[72.82399,20.14532],[72.79056,20.1492],[72.79033,20.12574],[72.72928,20.13681],[72.73753,20.19015],[72.76945,20.21248],[72.74488,20.21117],[72.73842,20.23501],[72.75985,20.33474],[72.80198,20.37417],[72.89354,20.37215],[72.88632,20.39337],[72.90331,20.41034],[72.86032,20.41961],[72.8734,20.44421],[72.89335,20.44539],[72.84461,20.47456],[72.87302,20.50641],[72.88575,20.57149],[72.84502,20.73106],[72.86868,20.72088],[72.9309,20.73433],[72.9551,20.71927],[72.97314,20.74268],[73.01346,20.72256],[73.04664,20.70228],[73.03548,20.66695],[73.07503,20.65157],[73.0744,20.59997],[73.15071,20.6068],[73.20073,20.59076],[73.21562,20.60359],[73.2705,20.58195],[73.40755,20.62589],[73.40756,20.6259]]]}}]}
