{"type":"FeatureCollection","properties":{"source":"DataMeet Community Maps Project - Districts/Census_2011","state":"Haryana","stateSlug":"haryana"},"features":[{"type":"Feature","properties":{"DISTRICT":"Ambala","ST_NM":"Haryana","ST_CEN_CD":6,"DT_CEN_CD":2,"censuscode":70},"geometry":{"type":"MultiPolygon","coordinates":[[[[77.09286,30.55578],[77.12515,30.56333],[77.14418,30.53714],[77.19846,30.52144],[77.21268,30.49603],[77.17581,30.46065],[77.16565,30.41464],[77.17961,30.4003],[77.16887,30.36226],[77.15333,30.35886],[77.17515,30.35056],[77.18984,30.31285],[77.13584,30.26901],[77.13666,30.24277],[77.15974,30.24235],[77.16429,30.22798],[77.14693,30.21359],[77.12938,30.22975],[77.07747,30.21089],[77.07527,30.19731],[77.11117,30.17562],[77.09761,30.15402],[77.07133,30.16236],[77.06512,30.1224],[77.00002,30.16445],[76.94958,30.16013],[76.94331,30.17659],[76.96024,30.19174],[76.90271,30.18864],[76.85429,30.24803],[76.83171,30.24882],[76.81344,30.21582],[76.76123,30.19277],[76.68586,30.18462],[76.64633,30.14849],[76.63482,30.16626],[76.65107,30.20191],[76.6164,30.21119],[76.62417,30.227],[76.60252,30.25018],[76.54463,30.22325],[76.55983,30.26105],[76.62207,30.26666],[76.63512,30.28743],[76.67477,30.29556],[76.68703,30.32196],[76.72761,30.32888],[76.75102,30.35561],[76.72385,30.36113],[76.7306,30.3731],[76.71267,30.38963],[76.77052,30.43487],[76.78344,30.41426],[76.82111,30.40777],[76.84515,30.42977],[76.89288,30.38203],[76.88904,30.35914],[76.91038,30.35837],[76.94412,30.39282],[76.91655,30.4025],[76.90175,30.48046],[76.93018,30.49981],[76.94603,30.47505],[76.96373,30.47564],[76.99524,30.51089],[77.04217,30.52868],[77.07008,30.57548],[77.0897,30.56022],[77.09286,30.55578]]],[[[76.61295,30.07615],[76.58864,30.07105],[76.59269,30.08281],[76.56675,30.09476],[76.63532,30.14535],[76.63863,30.10157],[76.61477,30.07725],[76.61295,30.07615]]]]}},{"type":"Feature","properties":{"DISTRICT":"Bhiwani","ST_NM":"Haryana","ST_CEN_CD":6,"DT_CEN_CD":13,"censuscode":81},"geometry":{"type":"Polygon","coordinates":[[[76.04407,29.05018],[76.0564,29.02352],[76.0889,29.03514],[76.16148,29.00645],[76.15579,29.05198],[76.18668,29.04501],[76.18509,29.01196],[76.21995,28.98088],[76.21163,28.96298],[76.23278,28.90533],[76.28633,28.89576],[76.29037,28.87522],[76.3002,28.90456],[76.35862,28.87307],[76.33258,28.80552],[76.40578,28.75147],[76.3808,28.70361],[76.40717,28.68213],[76.41002,28.65907],[76.4524,28.65387],[76.46467,28.59936],[76.43772,28.59271],[76.42617,28.54593],[76.41054,28.54741],[76.40124,28.58859],[76.34367,28.60196],[76.33027,28.50138],[76.2931,28.4979],[76.29159,28.4485],[76.26854,28.43813],[76.22039,28.46718],[76.21028,28.444],[76.17301,28.43736],[76.16366,28.4625],[76.11706,28.45081],[76.07882,28.39427],[76.02799,28.39014],[76.01675,28.43222],[75.99989,28.44014],[75.9061,28.42952],[75.89149,28.38264],[75.81089,28.41028],[75.77857,28.40373],[75.78656,28.45372],[75.63741,28.54236],[75.62645,28.59863],[75.56408,28.61112],[75.53748,28.74693],[75.50712,28.78437],[75.52205,28.83331],[75.4967,28.85642],[75.47771,28.93484],[75.50643,28.93829],[75.52493,28.97896],[75.60735,28.98112],[75.68037,28.91293],[75.76258,28.89935],[75.79654,28.927],[75.83183,28.91298],[75.85181,28.9275],[75.85833,28.96185],[75.89309,28.97687],[75.90469,29.01733],[75.92277,29.02595],[75.97475,28.99315],[75.96351,29.04028],[75.98693,29.07773],[76.03852,29.05426],[76.04407,29.05018]]]}},{"type":"Feature","properties":{"DISTRICT":"Faridabad","ST_NM":"Haryana","ST_CEN_CD":6,"DT_CEN_CD":20,"censuscode":88},"geometry":{"type":"Polygon","coordinates":[[[77.34765,28.50346],[77.48443,28.40789],[77.47668,28.39406],[77.50404,28.35263],[77.4735,28.33238],[77.50449,28.28697],[77.47449,28.2718],[77.54848,28.24873],[77.52522,28.22409],[77.52873,28.19611],[77.49872,28.20633],[77.50168,28.17943],[77.54755,28.1852],[77.54134,28.16457],[77.4852,28.17588],[77.46113,28.15838],[77.45123,28.1703],[77.41045,28.16411],[77.39169,28.19199],[77.41366,28.20141],[77.40833,28.2114],[77.37856,28.22198],[77.36186,28.2056],[77.32145,28.23462],[77.30741,28.22684],[77.27455,28.24792],[77.27982,28.26714],[77.25326,28.25964],[77.22534,28.28971],[77.15409,28.3166],[77.15201,28.38637],[77.25034,28.4234],[77.2355,28.45857],[77.25244,28.47915],[77.2879,28.49268],[77.31673,28.48519],[77.34437,28.50558],[77.34765,28.50346]]]}},{"type":"Feature","properties":{"DISTRICT":"Fatehabad","ST_NM":"Haryana","ST_CEN_CD":6,"DT_CEN_CD":10,"censuscode":78},"geometry":{"type":"Polygon","coordinates":[[[75.9494,29.73013],[75.93766,29.68371],[75.95152,29.66685],[75.95991,29.56546],[75.93357,29.57994],[75.91243,29.5525],[75.89483,29.55426],[75.8932,29.5365],[75.87171,29.53971],[75.8642,29.55765],[75.82927,29.51222],[75.78296,29.52449],[75.75402,29.48268],[75.72213,29.47524],[75.73191,29.44984],[75.71404,29.43058],[75.63277,29.41978],[75.59232,29.33582],[75.58085,29.36419],[75.53153,29.36219],[75.51029,29.40229],[75.48205,29.39032],[75.48142,29.40487],[75.41693,29.4134],[75.42295,29.38379],[75.38663,29.37826],[75.38131,29.35556],[75.40419,29.33119],[75.39782,29.31964],[75.34803,29.30565],[75.30532,29.32036],[75.26401,29.29293],[75.2862,29.27121],[75.28091,29.25178],[75.23584,29.25759],[75.22668,29.32433],[75.26685,29.35313],[75.22193,29.38412],[75.2239,29.39817],[75.30091,29.44137],[75.27468,29.50823],[75.29959,29.52028],[75.3147,29.58121],[75.29043,29.60779],[75.31745,29.6302],[75.32773,29.66835],[75.36048,29.65686],[75.34542,29.69149],[75.38891,29.70887],[75.40748,29.75859],[75.45414,29.78369],[75.45466,29.80537],[75.52207,29.75741],[75.54061,29.77005],[75.56683,29.76312],[75.57918,29.73986],[75.62366,29.74363],[75.63586,29.77039],[75.66694,29.77318],[75.70799,29.75224],[75.71656,29.80569],[75.78236,29.82235],[75.80677,29.80403],[75.83979,29.80918],[75.87446,29.74908],[75.90797,29.75223],[75.94472,29.72916],[75.9494,29.73013]]]}},{"type":"Feature","properties":{"DISTRICT":"Gurgaon","ST_NM":"Haryana","ST_CEN_CD":6,"DT_CEN_CD":18,"censuscode":86},"geometry":{"type":"Polygon","coordinates":[[[76.66657,28.37812],[76.69762,28.36087],[76.73401,28.36991],[76.70881,28.40308],[76.70955,28.49111],[76.74429,28.465],[76.79493,28.46712],[76.82551,28.50286],[76.95422,28.50843],[76.9781,28.52235],[77.01519,28.50919],[77.00562,28.53166],[77.01578,28.53752],[77.11738,28.48852],[77.12215,28.44488],[77.17538,28.40305],[77.15042,28.38329],[77.15409,28.3166],[77.24171,28.27262],[77.19939,28.24482],[77.17866,28.19953],[77.07988,28.22796],[77.07026,28.212],[77.05355,28.22016],[77.05653,28.24138],[77.01938,28.24954],[77.00406,28.32624],[76.97777,28.33421],[76.90726,28.30053],[76.91824,28.2788],[76.90137,28.25768],[76.87544,28.26872],[76.85494,28.23456],[76.80489,28.24875],[76.7829,28.22582],[76.72224,28.26245],[76.68209,28.26284],[76.68629,28.31499],[76.65742,28.32042],[76.66511,28.37149],[76.66657,28.37812]]]}},{"type":"Feature","properties":{"DISTRICT":"Hisar","ST_NM":"Haryana","ST_CEN_CD":6,"DT_CEN_CD":12,"censuscode":80},"geometry":{"type":"Polygon","coordinates":[[[75.95991,29.56546],[75.93606,29.50341],[76.00184,29.479],[75.99349,29.45214],[76.03465,29.41579],[76.07906,29.43457],[76.09404,29.40121],[76.13222,29.38866],[76.17902,29.40604],[76.25062,29.36965],[76.24735,29.35336],[76.2073,29.355],[76.18348,29.33508],[76.20724,29.32071],[76.18872,29.27701],[76.23462,29.20842],[76.29134,29.18811],[76.31401,29.10758],[76.28719,29.06973],[76.23457,29.05238],[76.2398,28.99675],[76.21995,28.98088],[76.1928,28.99527],[76.18668,29.04501],[76.16722,29.05354],[76.15578,29.0519],[76.16148,29.00645],[76.0889,29.03514],[76.0564,29.02352],[76.04407,29.05018],[75.98693,29.07773],[75.96351,29.04028],[75.97475,28.99315],[75.92277,29.02595],[75.90469,29.01733],[75.89309,28.97687],[75.85833,28.96185],[75.85181,28.9275],[75.83183,28.91298],[75.78649,28.9248],[75.76258,28.89935],[75.68037,28.91293],[75.62526,28.97702],[75.53081,28.97744],[75.51412,29.01199],[75.44368,29.0135],[75.43927,29.06172],[75.38961,29.06741],[75.38975,29.10784],[75.4053,29.12554],[75.37022,29.1398],[75.37809,29.16714],[75.40984,29.18603],[75.39536,29.21842],[75.40504,29.25912],[75.36725,29.25187],[75.35452,29.22341],[75.32413,29.23329],[75.33354,29.28753],[75.2862,29.27121],[75.26401,29.29293],[75.30532,29.32036],[75.34803,29.30565],[75.39782,29.31964],[75.40419,29.33119],[75.38131,29.35556],[75.38663,29.37826],[75.42295,29.38379],[75.41693,29.4134],[75.48142,29.40487],[75.48205,29.39032],[75.51029,29.40229],[75.53153,29.36219],[75.58085,29.36419],[75.59232,29.33582],[75.63277,29.41978],[75.71404,29.43058],[75.73191,29.44984],[75.72213,29.47524],[75.75402,29.48268],[75.78296,29.52449],[75.82927,29.51222],[75.8642,29.55765],[75.87171,29.53971],[75.8932,29.5365],[75.89483,29.55426],[75.91243,29.5525],[75.93357,29.57994],[75.94579,29.57173],[75.95991,29.56546]]]}},{"type":"Feature","properties":{"DISTRICT":"Jhajjar","ST_NM":"Haryana","ST_CEN_CD":6,"DT_CEN_CD":15,"censuscode":83},"geometry":{"type":"Polygon","coordinates":[[[76.9189,28.82261],[76.95237,28.81557],[76.95117,28.71189],[76.9645,28.70021],[76.9571,28.67201],[76.92728,28.65213],[76.94367,28.63249],[76.88766,28.63253],[76.86445,28.58725],[76.84464,28.58632],[76.84717,28.5519],[76.88586,28.52326],[76.88889,28.50391],[76.82551,28.50286],[76.81331,28.47601],[76.76058,28.46288],[76.70955,28.49111],[76.70809,28.40824],[76.73427,28.38235],[76.72577,28.35989],[76.66657,28.37812],[76.62185,28.42811],[76.55928,28.38448],[76.51869,28.40315],[76.51527,28.42629],[76.44959,28.42728],[76.43831,28.45941],[76.40559,28.46723],[76.38492,28.46493],[76.39937,28.44326],[76.37562,28.42806],[76.34981,28.43602],[76.34277,28.46396],[76.33127,28.43193],[76.31514,28.44011],[76.29067,28.4253],[76.2844,28.48269],[76.2931,28.4979],[76.33027,28.50138],[76.34367,28.60196],[76.40124,28.58859],[76.41054,28.54741],[76.42617,28.54593],[76.43772,28.59271],[76.46467,28.59936],[76.4524,28.65387],[76.41002,28.65907],[76.41851,28.72237],[76.53574,28.74743],[76.59009,28.74157],[76.60137,28.78297],[76.64782,28.80647],[76.63386,28.82514],[76.64699,28.83726],[76.67509,28.79282],[76.7116,28.78587],[76.71076,28.76689],[76.76527,28.76563],[76.77864,28.74279],[76.82262,28.78456],[76.79452,28.80474],[76.79895,28.81549],[76.84556,28.80812],[76.90288,28.86207],[76.91716,28.83386],[76.9189,28.82261]]]}},{"type":"Feature","properties":{"DISTRICT":"Jind","ST_NM":"Haryana","ST_CEN_CD":6,"DT_CEN_CD":9,"censuscode":77},"geometry":{"type":"Polygon","coordinates":[[[76.61253,29.47448],[76.64221,29.4727],[76.65813,29.49305],[76.75601,29.4676],[76.73362,29.39257],[76.64763,29.36345],[76.64222,29.29478],[76.68197,29.27032],[76.61151,29.29013],[76.56165,29.28297],[76.56645,29.23027],[76.55157,29.20979],[76.47721,29.24265],[76.51431,29.16517],[76.4903,29.14386],[76.45548,29.06239],[76.40485,29.08088],[76.30151,29.08679],[76.31401,29.10758],[76.29134,29.18811],[76.23462,29.20842],[76.18872,29.27701],[76.20724,29.32071],[76.18348,29.33508],[76.2073,29.355],[76.24735,29.35336],[76.25062,29.36965],[76.17902,29.40604],[76.13222,29.38866],[76.09404,29.40121],[76.07906,29.43457],[76.03465,29.41579],[75.99349,29.45214],[76.00184,29.479],[75.93606,29.50341],[75.96242,29.55161],[75.95152,29.66685],[75.93766,29.68371],[75.9494,29.73013],[75.98329,29.72893],[76.02841,29.75259],[76.05232,29.74525],[76.08527,29.77769],[76.08864,29.80224],[76.12738,29.7928],[76.21923,29.83957],[76.22154,29.80378],[76.17709,29.6864],[76.19492,29.66899],[76.20117,29.61904],[76.23742,29.61509],[76.24489,29.57614],[76.27324,29.54729],[76.30764,29.57828],[76.34531,29.58161],[76.37041,29.57583],[76.37214,29.54396],[76.39121,29.53511],[76.4841,29.5418],[76.47994,29.51851],[76.50923,29.48516],[76.4852,29.48251],[76.45405,29.42082],[76.45406,29.40417],[76.47094,29.39946],[76.5124,29.40848],[76.55229,29.45783],[76.60811,29.47338],[76.61253,29.47448]]]}},{"type":"Feature","properties":{"DISTRICT":"Kaithal","ST_NM":"Haryana","ST_CEN_CD":6,"DT_CEN_CD":5,"censuscode":73},"geometry":{"type":"MultiPolygon","coordinates":[[[[76.44819,30.13322],[76.46651,30.09637],[76.42421,30.04407],[76.44202,30.02103],[76.47479,30.02267],[76.45783,29.96894],[76.4826,29.95575],[76.47051,29.91191],[76.52222,29.89692],[76.55431,29.85769],[76.59653,29.87699],[76.59271,29.91233],[76.65823,29.95672],[76.68191,29.94787],[76.69053,29.91665],[76.69837,29.9299],[76.75562,29.92494],[76.72974,29.88417],[76.70032,29.89533],[76.67711,29.86404],[76.69159,29.85177],[76.68906,29.8257],[76.71622,29.8125],[76.68711,29.76283],[76.6901,29.70333],[76.7125,29.68245],[76.70065,29.66988],[76.68347,29.68382],[76.60277,29.62835],[76.53415,29.6137],[76.54824,29.581],[76.49163,29.51455],[76.47994,29.51851],[76.4841,29.5418],[76.37661,29.53942],[76.37041,29.57583],[76.34531,29.58161],[76.30764,29.57828],[76.27324,29.54729],[76.24489,29.57614],[76.23742,29.61509],[76.20117,29.61904],[76.17607,29.69393],[76.22154,29.80378],[76.22082,29.84646],[76.25325,29.86529],[76.19585,29.88494],[76.19328,29.91963],[76.17754,29.92508],[76.19023,29.94268],[76.2152,29.94049],[76.20238,30.01286],[76.22694,30.02355],[76.20989,30.03438],[76.26666,30.101],[76.20222,30.13517],[76.22362,30.13157],[76.21731,30.15589],[76.25626,30.11831],[76.33462,30.10454],[76.36069,30.12396],[76.33767,30.14559],[76.35489,30.14977],[76.39619,30.12008],[76.41351,30.15398],[76.39291,30.17954],[76.42217,30.19856],[76.44053,30.17602],[76.44322,30.1369],[76.44819,30.13322]]]]}},{"type":"Feature","properties":{"DISTRICT":"Karnal","ST_NM":"Haryana","ST_CEN_CD":6,"DT_CEN_CD":6,"censuscode":74},"geometry":{"type":"Polygon","coordinates":[[[77.13364,29.9656],[77.1674,29.96829],[77.19265,29.93651],[77.22323,29.93586],[77.1922,29.90139],[77.19445,29.86843],[77.16421,29.78841],[77.13007,29.77071],[77.12467,29.74375],[77.15426,29.69673],[77.13273,29.68667],[77.1429,29.65808],[77.09708,29.5959],[77.12111,29.54804],[77.09624,29.52865],[77.1312,29.49234],[77.13464,29.44833],[77.01573,29.44687],[76.91763,29.48085],[76.90246,29.46801],[76.8687,29.49044],[76.83699,29.46911],[76.80609,29.4819],[76.75558,29.46642],[76.65813,29.49305],[76.64221,29.4727],[76.55229,29.45783],[76.5124,29.40848],[76.45406,29.40417],[76.4852,29.48251],[76.50923,29.48516],[76.49282,29.51465],[76.54824,29.581],[76.53415,29.6137],[76.60277,29.62835],[76.68347,29.68382],[76.70065,29.66988],[76.7125,29.68245],[76.6901,29.70333],[76.68711,29.76283],[76.71622,29.8125],[76.68906,29.8257],[76.69159,29.85177],[76.67692,29.86083],[76.69423,29.8927],[76.72974,29.88417],[76.76291,29.93412],[76.79477,29.94473],[76.83835,29.90988],[76.8594,29.93219],[76.94551,29.92248],[76.9812,29.96415],[77.05893,29.9441],[77.09439,29.94926],[77.11494,29.99079],[77.13629,29.97913],[77.13364,29.9656]]]}},{"type":"Feature","properties":{"DISTRICT":"Kurukshetra","ST_NM":"Haryana","ST_CEN_CD":6,"DT_CEN_CD":4,"censuscode":72},"geometry":{"type":"Polygon","coordinates":[[[77.09233,30.10062],[77.07709,30.07198],[77.11303,30.04326],[77.10608,30.01964],[77.12444,30.00463],[77.09439,29.94926],[77.02286,29.94486],[76.9812,29.96415],[76.94551,29.92248],[76.8594,29.93219],[76.83835,29.90988],[76.79477,29.94473],[76.75562,29.92494],[76.69837,29.9299],[76.69053,29.91665],[76.68191,29.94787],[76.65823,29.95672],[76.59271,29.91233],[76.59653,29.87699],[76.55431,29.85769],[76.52222,29.89692],[76.47051,29.91191],[76.4826,29.95575],[76.45783,29.96894],[76.47479,30.02267],[76.44202,30.02103],[76.42421,30.04407],[76.46651,30.09637],[76.50265,30.09323],[76.51294,30.07268],[76.56675,30.09476],[76.59269,30.08281],[76.58864,30.07105],[76.61295,30.07615],[76.63863,30.10157],[76.63968,30.15106],[76.68586,30.18462],[76.80764,30.21197],[76.83171,30.24882],[76.8657,30.2438],[76.86391,30.22776],[76.90271,30.18864],[76.96024,30.19174],[76.94331,30.17659],[76.94958,30.16013],[77.00002,30.16445],[77.08794,30.10448],[77.09233,30.10062]]]}},{"type":"Feature","properties":{"DISTRICT":"Mahendragarh","ST_NM":"Haryana","ST_CEN_CD":6,"DT_CEN_CD":16,"censuscode":84},"geometry":{"type":"Polygon","coordinates":[[[76.2453,28.45522],[76.25919,28.43617],[76.29159,28.4485],[76.2843,28.40851],[76.30265,28.40221],[76.30052,28.38266],[76.36647,28.34119],[76.37098,28.32522],[76.35003,28.30363],[76.34733,28.22599],[76.31064,28.20467],[76.31635,28.1788],[76.2852,28.16813],[76.36402,28.12371],[76.34794,28.10498],[76.30572,28.09637],[76.36294,28.06945],[76.34504,28.02492],[76.32481,28.01627],[76.29831,28.02521],[76.29832,28.04442],[76.27315,28.06409],[76.18547,28.05471],[76.22193,28.02709],[76.18232,28.01735],[76.16294,27.99445],[76.18745,27.96826],[76.17434,27.91048],[76.20653,27.89437],[76.20094,27.85929],[76.2311,27.83627],[76.18065,27.80284],[76.09579,27.86395],[76.08777,27.84657],[76.05727,27.8434],[75.97065,27.86037],[75.98506,27.9049],[75.93644,27.9125],[75.93623,27.93746],[75.9462,27.94679],[75.97085,27.93262],[75.99425,27.97676],[75.96322,27.98434],[75.96418,27.99671],[75.99692,27.99998],[75.97783,28.02664],[76.01797,28.03235],[76.01329,28.05018],[76.04361,28.0696],[76.02364,28.0845],[76.00985,28.05639],[75.98529,28.04788],[75.99,28.07591],[75.94399,28.08928],[75.95043,28.10138],[75.99914,28.12387],[76.00274,28.1463],[76.03588,28.16838],[76.07453,28.16339],[76.07319,28.14007],[76.10108,28.1508],[76.07383,28.19458],[76.05328,28.19857],[76.06125,28.21988],[76.01942,28.23746],[76.02701,28.27668],[75.97595,28.31989],[75.96297,28.31435],[75.96465,28.33419],[75.93571,28.34096],[75.93072,28.3648],[75.90546,28.37599],[75.89997,28.41738],[75.9061,28.42952],[75.99989,28.44014],[76.01675,28.43222],[76.02799,28.39014],[76.07882,28.39427],[76.11706,28.45081],[76.16366,28.4625],[76.17301,28.43736],[76.21028,28.444],[76.22039,28.46718],[76.24316,28.46071],[76.2453,28.45522]]]}},{"type":"Feature","properties":{"DISTRICT":"Mewat","ST_NM":"Haryana","ST_CEN_CD":6,"DT_CEN_CD":19,"censuscode":87},"geometry":{"type":"Polygon","coordinates":[[[77.19306,28.1805],[77.16574,28.18315],[77.13287,28.13091],[77.14614,28.11428],[77.13161,28.07252],[77.10048,28.06399],[77.11532,28.04624],[77.11044,28.01187],[77.07448,27.98616],[77.19471,27.94059],[77.2586,27.87721],[77.28374,27.86964],[77.30722,27.88767],[77.33626,27.83212],[77.29777,27.82357],[77.28592,27.80117],[77.27134,27.81055],[77.24332,27.78026],[77.20263,27.81642],[77.17741,27.7794],[77.18942,27.80315],[77.15936,27.81007],[77.16013,27.78632],[77.13519,27.77099],[77.04691,27.81463],[77.02921,27.77271],[77.07593,27.75832],[77.08777,27.73295],[77.06173,27.72243],[77.03748,27.74396],[77.00202,27.73631],[76.97884,27.65176],[76.94253,27.66974],[76.91364,27.65064],[76.88922,27.69406],[76.92291,27.69548],[76.89243,27.7256],[76.91231,27.82735],[76.93519,27.82889],[76.94751,27.91371],[76.92778,27.91955],[76.92742,27.99231],[76.9708,28.13871],[76.89309,28.18643],[76.90892,28.19953],[76.87523,28.20631],[76.85494,28.23456],[76.87544,28.26872],[76.89487,28.25679],[76.91453,28.27026],[76.90347,28.29545],[76.93069,28.32061],[76.95298,28.31603],[76.97777,28.33421],[77.00406,28.32624],[77.01938,28.24954],[77.05653,28.24138],[77.05355,28.22016],[77.1348,28.22126],[77.19296,28.19708],[77.19306,28.1805]]]}},{"type":"Feature","properties":{"DISTRICT":"Palwal","ST_NM":"Haryana","ST_CEN_CD":6,"DT_CEN_CD":21,"censuscode":89},"geometry":{"type":"Polygon","coordinates":[[[77.28055,28.2596],[77.27862,28.24396],[77.36186,28.2056],[77.37856,28.22198],[77.40833,28.2114],[77.41366,28.20141],[77.39169,28.19199],[77.41045,28.16411],[77.51946,28.16736],[77.49673,28.13576],[77.50914,28.12169],[77.50174,28.09234],[77.48766,28.10231],[77.47828,28.08034],[77.48846,28.03848],[77.54454,27.98762],[77.51886,27.96763],[77.54521,27.95984],[77.54539,27.94359],[77.52842,27.92618],[77.48685,27.93453],[77.47895,27.88905],[77.45494,27.87275],[77.42137,27.89051],[77.41059,27.87626],[77.42142,27.85342],[77.3382,27.84639],[77.30722,27.88767],[77.28374,27.86964],[77.2586,27.87721],[77.19471,27.94059],[77.07448,27.98616],[77.11044,28.01187],[77.11532,28.04624],[77.10048,28.06399],[77.13161,28.07252],[77.14614,28.11428],[77.13287,28.13091],[77.16574,28.18315],[77.19306,28.1805],[77.197,28.19347],[77.178,28.20416],[77.19939,28.24482],[77.23919,28.26866],[77.25842,28.25771],[77.26041,28.27033],[77.27982,28.26714],[77.28055,28.2596]]]}},{"type":"Feature","properties":{"DISTRICT":"Panchkula","ST_NM":"Haryana","ST_CEN_CD":6,"DT_CEN_CD":1,"censuscode":69},"geometry":{"type":"Polygon","coordinates":[[[76.85065,30.87512],[76.86594,30.86691],[76.91575,30.89342],[76.96722,30.80726],[76.99254,30.79481],[77.01146,30.81029],[77.00204,30.77305],[77.02647,30.73814],[77.04712,30.75133],[77.09026,30.74061],[77.16512,30.68623],[77.17071,30.5952],[77.09757,30.55057],[77.07008,30.57548],[77.04217,30.52868],[76.94603,30.47505],[76.93299,30.52056],[76.89797,30.53633],[76.91891,30.55429],[76.9116,30.58435],[76.92368,30.60177],[76.87166,30.63665],[76.87539,30.67533],[76.85297,30.65285],[76.83191,30.65668],[76.83084,30.68674],[76.84952,30.71038],[76.83599,30.73623],[76.86016,30.78869],[76.84117,30.82879],[76.81463,30.83878],[76.77602,30.88977],[76.82377,30.92671],[76.83617,30.88438],[76.85065,30.87512]]]}},{"type":"Feature","properties":{"DISTRICT":"Panipat","ST_NM":"Haryana","ST_CEN_CD":6,"DT_CEN_CD":7,"censuscode":75},"geometry":{"type":"Polygon","coordinates":[[[76.80609,29.4819],[76.83699,29.46911],[76.8687,29.49044],[76.90246,29.46801],[76.91763,29.48085],[77.01573,29.44687],[77.14898,29.44155],[77.13704,29.4056],[77.15794,29.38472],[77.1278,29.36754],[77.13475,29.33992],[77.16502,29.33039],[77.14044,29.26769],[77.15493,29.23821],[77.13609,29.21975],[77.1432,29.16665],[77.02936,29.18291],[77.01189,29.19147],[77.00915,29.22013],[76.90447,29.21672],[76.88398,29.19281],[76.80113,29.22653],[76.78569,29.27373],[76.71121,29.25105],[76.64222,29.29478],[76.64999,29.36879],[76.73362,29.39257],[76.75558,29.46642],[76.80609,29.48188],[76.80609,29.4819]]]}},{"type":"Feature","properties":{"DISTRICT":"Rewari","ST_NM":"Haryana","ST_CEN_CD":6,"DT_CEN_CD":17,"censuscode":85},"geometry":{"type":"Polygon","coordinates":[[[76.39312,28.46817],[76.43831,28.45941],[76.44959,28.42728],[76.51527,28.42629],[76.51869,28.40315],[76.55928,28.38448],[76.60451,28.40386],[76.61514,28.42892],[76.62998,28.42424],[76.66453,28.38917],[76.65742,28.32042],[76.68629,28.31499],[76.68209,28.26284],[76.72224,28.26245],[76.7829,28.22582],[76.80489,28.24875],[76.83202,28.24422],[76.86341,28.22005],[76.81038,28.20645],[76.80039,28.15208],[76.74794,28.12393],[76.71874,28.12727],[76.69088,28.0927],[76.65989,28.09171],[76.66864,28.01398],[76.60745,28.00482],[76.54655,27.96558],[76.54699,28.03416],[76.46213,28.04481],[76.4664,28.05711],[76.50612,28.05983],[76.45704,28.08833],[76.46944,28.10705],[76.50633,28.10173],[76.47957,28.14989],[76.38523,28.13331],[76.30793,28.19818],[76.34733,28.22599],[76.35003,28.30363],[76.37098,28.32522],[76.34808,28.36444],[76.3064,28.37683],[76.30265,28.40221],[76.2843,28.40851],[76.3117,28.43942],[76.33464,28.43506],[76.34277,28.46396],[76.34981,28.43602],[76.37562,28.42806],[76.39937,28.44326],[76.38492,28.46493],[76.39312,28.46817]]]}},{"type":"Feature","properties":{"DISTRICT":"Rohtak","ST_NM":"Haryana","ST_CEN_CD":6,"DT_CEN_CD":14,"censuscode":82},"geometry":{"type":"Polygon","coordinates":[[[76.55426,29.08551],[76.57186,29.06322],[76.6787,29.06271],[76.7287,29.01928],[76.72974,28.96776],[76.76643,28.9581],[76.78371,28.9273],[76.82752,28.92071],[76.81223,28.86456],[76.90288,28.86207],[76.84556,28.80812],[76.79895,28.81549],[76.79452,28.80474],[76.82262,28.78456],[76.78536,28.74293],[76.76527,28.76563],[76.71076,28.76689],[76.7116,28.78587],[76.67509,28.79282],[76.64699,28.83726],[76.63386,28.82514],[76.64782,28.80647],[76.60137,28.78297],[76.59009,28.74157],[76.45314,28.73719],[76.41851,28.72237],[76.40588,28.68125],[76.38053,28.70909],[76.40578,28.75147],[76.33258,28.80552],[76.35862,28.87307],[76.3002,28.90456],[76.29037,28.87522],[76.28633,28.89576],[76.23278,28.90533],[76.21163,28.96298],[76.2398,28.99675],[76.23457,29.05238],[76.30151,29.08679],[76.40485,29.08088],[76.44647,29.05991],[76.47911,29.09634],[76.50551,29.08079],[76.54011,29.1043],[76.55061,29.09239],[76.55426,29.08551]]]}},{"type":"Feature","properties":{"DISTRICT":"Sirsa","ST_NM":"Haryana","ST_CEN_CD":6,"DT_CEN_CD":11,"censuscode":79},"geometry":{"type":"Polygon","coordinates":[[[75.18875,29.83497],[75.21109,29.82801],[75.20807,29.79421],[75.24105,29.74996],[75.20367,29.72313],[75.2052,29.68566],[75.16767,29.66066],[75.18313,29.62797],[75.23102,29.60433],[75.2209,29.58018],[75.23316,29.54388],[75.28479,29.55876],[75.30205,29.54772],[75.29959,29.52028],[75.27468,29.50823],[75.30091,29.44137],[75.2421,29.41921],[75.22163,29.39148],[75.26685,29.35313],[75.22668,29.32433],[75.24437,29.24942],[75.23255,29.23244],[75.18909,29.26622],[75.10146,29.22685],[75.07164,29.23673],[75.04891,29.28504],[74.99993,29.26973],[74.96198,29.28],[74.94902,29.30292],[74.95992,29.32418],[74.93616,29.36282],[74.85011,29.40247],[74.81849,29.39694],[74.76543,29.3545],[74.65888,29.37116],[74.65042,29.32997],[74.60434,29.32719],[74.60534,29.36109],[74.5665,29.41767],[74.53998,29.42409],[74.53782,29.44868],[74.55158,29.46569],[74.5877,29.45765],[74.62336,29.52612],[74.57551,29.56264],[74.61479,29.75211],[74.59605,29.7678],[74.53512,29.74078],[74.48124,29.74358],[74.47458,29.78716],[74.5011,29.82609],[74.54203,29.83878],[74.56313,29.86511],[74.54332,29.90218],[74.51464,29.90739],[74.53435,29.95119],[74.59549,29.91421],[74.6567,29.90396],[74.64964,29.92182],[74.70071,29.96852],[74.73394,29.96103],[74.81125,29.99159],[74.8597,29.95801],[74.89161,29.96717],[74.90446,29.95171],[74.89531,29.93789],[74.92585,29.94788],[74.99994,29.85492],[75.04762,29.88017],[75.07563,29.87737],[75.09503,29.91345],[75.11439,29.87144],[75.09134,29.84765],[75.11721,29.82473],[75.10021,29.80487],[75.13499,29.80376],[75.15174,29.77509],[75.16924,29.78229],[75.16554,29.81791],[75.18619,29.83314],[75.18875,29.83497]]]}},{"type":"Feature","properties":{"DISTRICT":"Sonipat","ST_NM":"Haryana","ST_CEN_CD":6,"DT_CEN_CD":8,"censuscode":76},"geometry":{"type":"Polygon","coordinates":[[[76.72974,28.96776],[76.7287,29.01928],[76.6787,29.06271],[76.57186,29.06322],[76.54011,29.1043],[76.51242,29.08053],[76.47911,29.09634],[76.4903,29.14386],[76.51431,29.16517],[76.47721,29.24265],[76.55157,29.20979],[76.56645,29.23027],[76.56165,29.28297],[76.61151,29.29013],[76.71121,29.25105],[76.7767,29.27736],[76.80113,29.22653],[76.82748,29.20891],[76.88398,29.19281],[76.90447,29.21672],[77.00915,29.22013],[77.01189,29.19147],[77.02936,29.18291],[77.1432,29.16665],[77.14931,29.12961],[77.13272,29.1006],[77.22463,29.00141],[77.20063,28.95039],[77.21583,28.93117],[77.20721,28.91564],[77.23162,28.89881],[77.19215,28.88451],[77.19399,28.857],[77.15265,28.8372],[77.13884,28.86013],[77.08612,28.87932],[77.05999,28.868],[77.04171,28.83161],[76.99364,28.83396],[76.95829,28.81255],[76.9189,28.82261],[76.91075,28.85722],[76.89193,28.86796],[76.81933,28.85914],[76.82752,28.92071],[76.78371,28.9273],[76.76643,28.9581],[76.74365,28.95986],[76.72974,28.96776]]]}},{"type":"Feature","properties":{"DISTRICT":"Yamunanagar","ST_NM":"Haryana","ST_CEN_CD":6,"DT_CEN_CD":3,"censuscode":71},"geometry":{"type":"Polygon","coordinates":[[[77.21208,30.48006],[77.26488,30.47988],[77.27664,30.46211],[77.32376,30.449],[77.35917,30.45725],[77.41366,30.41403],[77.46373,30.46049],[77.46649,30.4356],[77.42896,30.40808],[77.44802,30.39892],[77.49996,30.40781],[77.52304,30.44402],[77.55601,30.39236],[77.60511,30.36594],[77.58334,30.30629],[77.53968,30.27738],[77.48599,30.18366],[77.42793,30.15179],[77.41054,30.11382],[77.42696,30.1022],[77.28275,30.04351],[77.27541,29.99729],[77.22323,29.93586],[77.20001,29.93389],[77.1674,29.96829],[77.13364,29.9656],[77.11727,29.99047],[77.12424,30.01279],[77.10608,30.01964],[77.11303,30.04326],[77.07709,30.07198],[77.09233,30.10062],[77.06523,30.12258],[77.07133,30.16236],[77.09761,30.15402],[77.11117,30.17562],[77.07527,30.19731],[77.07747,30.21089],[77.12938,30.22975],[77.14693,30.21359],[77.16429,30.22798],[77.15974,30.24235],[77.13666,30.24277],[77.13584,30.26901],[77.18984,30.31285],[77.17515,30.35056],[77.15333,30.35886],[77.16887,30.36226],[77.17961,30.4003],[77.16565,30.41464],[77.17581,30.46065],[77.19637,30.49017],[77.21268,30.49603],[77.21337,30.48457],[77.21208,30.48006]]]}}]}
