{"type":"FeatureCollection","properties":{"source":"DataMeet Community Maps Project - Districts/Census_2011","state":"Himachal Pradesh","stateSlug":"himachal-pradesh"},"features":[{"type":"Feature","properties":{"DISTRICT":"Bilaspur","ST_NM":"Himachal Pradesh","ST_CEN_CD":2,"DT_CEN_CD":8,"censuscode":30},"geometry":{"type":"Polygon","coordinates":[[[76.7298,31.58543],[76.73283,31.5199],[76.7671,31.52009],[76.78632,31.50171],[76.80413,31.42264],[76.88059,31.41185],[76.88353,31.38832],[76.86518,31.38108],[76.87607,31.33134],[76.92803,31.30217],[76.87192,31.25692],[76.88351,31.22385],[76.77905,31.22047],[76.73262,31.24019],[76.69409,31.21705],[76.6494,31.20982],[76.63026,31.22632],[76.59456,31.21326],[76.61564,31.24783],[76.58457,31.27714],[76.54893,31.25238],[76.55121,31.281],[76.53209,31.25937],[76.5283,31.28016],[76.50259,31.27051],[76.48075,31.30738],[76.44513,31.28006],[76.4623,31.30319],[76.39339,31.38857],[76.40454,31.39473],[76.39881,31.42697],[76.435,31.41148],[76.47189,31.42441],[76.47922,31.44186],[76.46453,31.44636],[76.45897,31.48604],[76.53294,31.46127],[76.56052,31.42933],[76.61423,31.41871],[76.6272,31.44517],[76.60797,31.49065],[76.62206,31.57349],[76.70539,31.59899],[76.72899,31.58718],[76.7298,31.58543]]]}},{"type":"Feature","properties":{"DISTRICT":"Chamba","ST_NM":"Himachal Pradesh","ST_CEN_CD":2,"DT_CEN_CD":1,"censuscode":23},"geometry":{"type":"Polygon","coordinates":[[[76.57371,33.20634],[76.60404,33.20365],[76.61738,33.17312],[76.64478,33.16178],[76.74775,33.17858],[76.73591,33.08305],[76.78715,32.98835],[76.7798,32.96123],[76.79127,32.96083],[76.76326,32.92971],[76.71917,32.92283],[76.71753,32.89025],[76.67091,32.84575],[76.61242,32.85423],[76.51325,32.80316],[76.47338,32.80531],[76.44387,32.85376],[76.37719,32.81976],[76.37552,32.79685],[76.44269,32.65956],[76.51669,32.66691],[76.59364,32.64246],[76.60447,32.61038],[76.6315,32.60303],[76.6299,32.57418],[76.70553,32.57326],[76.70083,32.54636],[76.71491,32.53816],[76.73967,32.56071],[76.88323,32.51994],[76.8538,32.4763],[76.86534,32.46114],[76.78688,32.40625],[76.77821,32.36206],[76.75407,32.3583],[76.78571,32.31664],[76.77213,32.30854],[76.77131,32.2212],[76.73712,32.18769],[76.70934,32.1987],[76.67339,32.17898],[76.62503,32.19248],[76.5901,32.22108],[76.42452,32.26449],[76.35583,32.32664],[76.2949,32.34014],[76.25473,32.39432],[76.22325,32.39552],[76.16646,32.35379],[76.16278,32.29818],[76.18656,32.27268],[76.18173,32.22737],[76.12261,32.2284],[76.1198,32.2568],[76.08658,32.27111],[76.03109,32.27048],[76.01699,32.29085],[76.01975,32.33791],[75.97462,32.3909],[75.93774,32.39553],[75.9269,32.40871],[75.94798,32.41631],[75.94726,32.43029],[75.86691,32.50766],[75.88864,32.57603],[75.93988,32.64353],[75.91292,32.69102],[75.92895,32.75714],[75.89036,32.8139],[75.81128,32.87065],[75.81504,32.91995],[75.83822,32.93396],[75.88393,32.93061],[75.95055,32.88449],[76.00425,32.90068],[76.09923,32.96881],[76.11079,33.00487],[76.25455,33.0324],[76.29244,33.10383],[76.40223,33.18264],[76.48678,33.17951],[76.56531,33.20903],[76.57371,33.20634]]]}},{"type":"Feature","properties":{"DISTRICT":"Hamirpur","ST_NM":"Himachal Pradesh","ST_CEN_CD":2,"DT_CEN_CD":6,"censuscode":28},"geometry":{"type":"Polygon","coordinates":[[[76.64071,31.87466],[76.62543,31.7756],[76.63674,31.74977],[76.67386,31.7321],[76.69368,31.68223],[76.7277,31.66488],[76.71556,31.6307],[76.7298,31.58543],[76.70539,31.59899],[76.62206,31.57349],[76.60797,31.49065],[76.6272,31.44517],[76.61423,31.41871],[76.56052,31.42933],[76.53294,31.46127],[76.45897,31.48604],[76.39437,31.62014],[76.31488,31.71865],[76.30114,31.78257],[76.35265,31.79342],[76.37006,31.77759],[76.39922,31.79757],[76.41273,31.78472],[76.44032,31.81011],[76.46146,31.80533],[76.45916,31.81817],[76.47409,31.81078],[76.46782,31.82703],[76.51994,31.84396],[76.51688,31.85825],[76.55244,31.88207],[76.60604,31.89402],[76.64071,31.87466]]]}},{"type":"Feature","properties":{"DISTRICT":"Kangra","ST_NM":"Himachal Pradesh","ST_CEN_CD":2,"DT_CEN_CD":2,"censuscode":24},"geometry":{"type":"Polygon","coordinates":[[[77.07467,32.39696],[77.03072,32.30675],[77.03168,32.24741],[77.05241,32.22601],[76.99497,32.18686],[76.98867,32.11089],[76.94618,32.11235],[76.94388,32.06661],[76.84235,32.04112],[76.79247,32.07464],[76.73067,32.02923],[76.67969,32.04813],[76.66278,32.03065],[76.69408,31.9326],[76.6782,31.87344],[76.59209,31.89616],[76.52333,31.86418],[76.51994,31.84396],[76.47026,31.82925],[76.47409,31.81078],[76.45916,31.81817],[76.46146,31.80533],[76.44032,31.81011],[76.41273,31.78472],[76.39922,31.79757],[76.37006,31.77759],[76.35265,31.79342],[76.31441,31.77809],[76.30128,31.78792],[76.31956,31.73127],[76.28964,31.68662],[76.20378,31.7729],[76.11493,31.80549],[76.08266,31.84442],[76.03813,31.86393],[75.95898,31.85623],[75.90942,31.94873],[75.88106,31.96783],[75.81,31.98776],[75.70476,32.06102],[75.6643,32.07677],[75.61341,32.0657],[75.59364,32.08144],[75.6462,32.11919],[75.67695,32.16436],[75.63535,32.18498],[75.63778,32.23455],[75.69117,32.26382],[75.7518,32.27344],[75.85956,32.37892],[75.9269,32.40871],[75.99139,32.3756],[76.01975,32.33791],[76.01699,32.29085],[76.03109,32.27048],[76.1198,32.2568],[76.12261,32.2284],[76.18173,32.22737],[76.18656,32.27268],[76.16278,32.29818],[76.16646,32.35379],[76.22325,32.39552],[76.25473,32.39432],[76.2949,32.34014],[76.35583,32.32664],[76.42452,32.26449],[76.5901,32.22108],[76.67339,32.17898],[76.70934,32.1987],[76.73975,32.18868],[76.77131,32.2212],[76.77213,32.30854],[76.78571,32.31664],[76.75407,32.3583],[76.77821,32.36206],[76.78688,32.40625],[76.86534,32.46114],[76.90883,32.46719],[76.89146,32.43881],[76.91779,32.43571],[76.91915,32.41669],[76.95369,32.42469],[76.95258,32.40321],[77.05877,32.42917],[77.07868,32.40054],[77.07467,32.39696]]]}},{"type":"Feature","properties":{"DISTRICT":"Kinnaur","ST_NM":"Himachal Pradesh","ST_CEN_CD":2,"DT_CEN_CD":12,"censuscode":34},"geometry":{"type":"Polygon","coordinates":[[[78.66791,32.08905],[78.74813,32.00322],[78.78775,31.99535],[78.74596,31.90206],[78.73817,31.83275],[78.711,31.8126],[78.70762,31.78875],[78.74091,31.7592],[78.72753,31.73659],[78.7505,31.68727],[78.79578,31.68511],[78.8028,31.65278],[78.8472,31.61505],[78.8132,31.57131],[78.73707,31.53611],[78.72254,31.51625],[78.73231,31.48],[78.76469,31.48574],[78.81118,31.44782],[78.79202,31.39626],[78.84979,31.36745],[78.8445,31.32516],[78.92227,31.25406],[78.93099,31.22001],[78.98716,31.17716],[79.01176,31.11008],[78.88649,31.10209],[78.83388,31.14204],[78.81027,31.19992],[78.66285,31.18961],[78.64964,31.21686],[78.61056,31.23138],[78.58176,31.22875],[78.55223,31.20171],[78.48518,31.19879],[78.45928,31.23928],[78.43461,31.25498],[78.41265,31.2429],[78.38443,31.28306],[78.30674,31.28593],[78.29537,31.29275],[78.30179,31.31513],[78.24459,31.34213],[78.2147,31.32561],[78.16423,31.34461],[78.15329,31.35994],[78.16325,31.38378],[78.10362,31.41978],[77.96367,31.40252],[77.90271,31.44303],[77.86951,31.504],[77.84092,31.50699],[77.83916,31.57956],[77.81429,31.61097],[77.82493,31.63809],[77.78346,31.69494],[77.75078,31.71385],[77.76296,31.76205],[77.84912,31.75478],[77.86683,31.78334],[77.92116,31.74813],[77.93666,31.74874],[77.94554,31.78477],[78.03325,31.76098],[78.08352,31.78752],[78.08999,31.85839],[78.18919,31.87217],[78.18452,31.91581],[78.20252,31.93294],[78.30278,31.92697],[78.34342,31.93418],[78.37141,31.96037],[78.45304,31.938],[78.46055,31.95916],[78.42013,31.98958],[78.44415,32.05279],[78.48383,32.04208],[78.54262,32.06349],[78.60557,32.05255],[78.65345,32.06973],[78.66517,32.08925],[78.66791,32.08905]]]}},{"type":"Feature","properties":{"DISTRICT":"Kullu","ST_NM":"Himachal Pradesh","ST_CEN_CD":2,"DT_CEN_CD":4,"censuscode":26},"geometry":{"type":"Polygon","coordinates":[[[77.86683,31.78334],[77.84912,31.75478],[77.76296,31.76205],[77.75078,31.71385],[77.68587,31.70353],[77.64875,31.66047],[77.66341,31.63473],[77.64858,31.61304],[77.65614,31.57833],[77.69928,31.54192],[77.70899,31.50241],[77.67096,31.46277],[77.62818,31.44603],[77.62998,31.39098],[77.55421,31.38653],[77.52566,31.35125],[77.42994,31.34152],[77.38666,31.36134],[77.38421,31.41183],[77.33137,31.4579],[77.30194,31.55746],[77.30584,31.66183],[77.27383,31.70116],[77.21746,31.72099],[77.1804,31.84161],[77.05953,31.83487],[77.06129,31.85609],[76.97857,31.98351],[76.97718,32.02371],[76.94397,32.04465],[76.94618,32.11235],[76.98867,32.11089],[76.99497,32.18686],[77.05241,32.22601],[77.03168,32.24741],[77.03072,32.30675],[77.07467,32.39696],[77.15081,32.41601],[77.19626,32.40136],[77.32637,32.32159],[77.34756,32.28395],[77.34504,32.25385],[77.37006,32.22272],[77.42852,32.19397],[77.46305,32.1989],[77.47394,32.22806],[77.525,32.1999],[77.54547,32.22277],[77.68799,32.10575],[77.74466,32.09161],[77.76409,32.04078],[77.79174,32.01832],[77.77581,32.00752],[77.80105,31.98581],[77.76966,31.94319],[77.78392,31.91522],[77.80678,31.89565],[77.86903,31.88269],[77.83923,31.84865],[77.86372,31.7903],[77.86683,31.78334]]]}},{"type":"Feature","properties":{"DISTRICT":"Lahul & Spiti","ST_NM":"Himachal Pradesh","ST_CEN_CD":2,"DT_CEN_CD":3,"censuscode":25},"geometry":{"type":"Polygon","coordinates":[[[76.79634,33.2549],[76.82081,33.23577],[76.84643,33.24548],[76.82127,33.1929],[76.82135,33.15468],[76.86227,33.11115],[76.89506,33.11305],[76.93522,33.03231],[77.01614,32.98801],[77.05304,32.99808],[77.09259,32.97165],[77.12089,32.98548],[77.15413,32.97868],[77.16381,32.91214],[77.19152,32.92924],[77.2459,32.89355],[77.25644,32.86309],[77.27593,32.87428],[77.32274,32.85187],[77.34541,32.81762],[77.37405,32.82298],[77.37731,32.85734],[77.40518,32.88328],[77.44343,32.88138],[77.47291,32.85938],[77.50232,32.88417],[77.53736,32.88499],[77.60185,32.94139],[77.67131,32.95694],[77.68328,32.98359],[77.73057,32.96929],[77.80814,32.90274],[77.7793,32.86212],[77.86546,32.82557],[77.89866,32.77246],[77.93291,32.76308],[77.92086,32.69002],[78.00001,32.58325],[78.05328,32.58864],[78.05147,32.63235],[78.0829,32.62098],[78.11104,32.65886],[78.13914,32.63901],[78.17026,32.67571],[78.23069,32.66581],[78.25439,32.6913],[78.31361,32.70942],[78.30558,32.73447],[78.38936,32.75844],[78.39575,32.71586],[78.38098,32.6685],[78.40657,32.61966],[78.31423,32.57395],[78.3167,32.52566],[78.29598,32.50432],[78.32782,32.47225],[78.41194,32.52485],[78.46256,32.49415],[78.45555,32.45259],[78.49553,32.42199],[78.53617,32.41461],[78.48131,32.3483],[78.48328,32.28002],[78.45625,32.24245],[78.5565,32.24589],[78.60996,32.21452],[78.61068,32.17823],[78.59124,32.15443],[78.61635,32.1161],[78.66474,32.10284],[78.65961,32.0738],[78.60557,32.05255],[78.54262,32.06349],[78.48383,32.04208],[78.44924,32.05514],[78.42013,31.98958],[78.46055,31.95916],[78.45697,31.93962],[78.37141,31.96037],[78.34342,31.93418],[78.30278,31.92697],[78.20252,31.93294],[78.18452,31.91581],[78.18919,31.87217],[78.08999,31.85839],[78.08352,31.78752],[78.02606,31.7603],[77.94554,31.78477],[77.93666,31.74874],[77.8992,31.75303],[77.84833,31.80575],[77.84087,31.85538],[77.86903,31.88269],[77.80678,31.89565],[77.77341,31.93468],[77.80105,31.98581],[77.77581,32.00752],[77.79174,32.01832],[77.76409,32.04078],[77.74466,32.09161],[77.68799,32.10575],[77.54547,32.22277],[77.525,32.1999],[77.47394,32.22806],[77.46305,32.1989],[77.42285,32.19454],[77.35744,32.23265],[77.32238,32.32539],[77.19626,32.40136],[77.15081,32.41601],[77.07467,32.39696],[77.07851,32.41732],[77.05877,32.42917],[76.95258,32.40321],[76.95369,32.42469],[76.91915,32.41669],[76.91779,32.43571],[76.89146,32.43881],[76.90883,32.46719],[76.85577,32.46956],[76.88323,32.51994],[76.87337,32.53154],[76.80204,32.53417],[76.73967,32.56071],[76.71491,32.53816],[76.70083,32.54636],[76.70553,32.57326],[76.6299,32.57418],[76.6315,32.60303],[76.60447,32.61038],[76.59364,32.64246],[76.51669,32.66691],[76.44269,32.65956],[76.42927,32.70616],[76.40358,32.72758],[76.37719,32.81976],[76.44387,32.85376],[76.47338,32.80531],[76.51325,32.80316],[76.61242,32.85423],[76.67091,32.84575],[76.71753,32.89025],[76.71917,32.92283],[76.76326,32.92971],[76.79127,32.96083],[76.7798,32.96123],[76.78715,32.98835],[76.75677,33.02566],[76.73576,33.09697],[76.74852,33.18444],[76.77788,33.22384],[76.7734,33.2487],[76.79598,33.25486],[76.79634,33.2549]]]}},{"type":"Feature","properties":{"DISTRICT":"Mandi","ST_NM":"Himachal Pradesh","ST_CEN_CD":2,"DT_CEN_CD":5,"censuscode":27},"geometry":{"type":"Polygon","coordinates":[[[76.93939,32.06276],[76.97718,32.02371],[76.97857,31.98351],[77.06129,31.85609],[77.05953,31.83487],[77.1804,31.84161],[77.21746,31.72099],[77.27383,31.70116],[77.30584,31.66183],[77.30194,31.55746],[77.32627,31.47066],[77.38078,31.41789],[77.3909,31.38343],[77.38543,31.35834],[77.35789,31.35193],[77.3367,31.29819],[77.30557,31.27129],[77.27058,31.27559],[77.20461,31.24459],[77.19018,31.25515],[77.16177,31.23079],[77.0834,31.2479],[76.94346,31.33444],[76.92091,31.36703],[76.87579,31.35441],[76.86518,31.38108],[76.88353,31.38832],[76.88059,31.41185],[76.80413,31.42264],[76.78632,31.50171],[76.7671,31.52009],[76.73283,31.5199],[76.71556,31.6307],[76.7277,31.66488],[76.69368,31.68223],[76.67386,31.7321],[76.63674,31.74977],[76.62122,31.79007],[76.6364,31.86874],[76.6782,31.87344],[76.69408,31.9326],[76.66278,32.03065],[76.68852,32.05181],[76.73813,32.03009],[76.79247,32.07464],[76.84235,32.04112],[76.9298,32.0594],[76.93939,32.06276]]]}},{"type":"Feature","properties":{"DISTRICT":"Shimla","ST_NM":"Himachal Pradesh","ST_CEN_CD":2,"DT_CEN_CD":11,"censuscode":33},"geometry":{"type":"Polygon","coordinates":[[[77.77188,31.70369],[77.82493,31.63809],[77.81429,31.61097],[77.83916,31.57956],[77.84092,31.50699],[77.86951,31.504],[77.90271,31.44303],[77.96367,31.40252],[78.10362,31.41978],[78.16325,31.38378],[78.15329,31.35994],[78.16423,31.34461],[78.2147,31.32561],[78.24459,31.34213],[78.29192,31.32378],[78.29537,31.29275],[78.31351,31.28343],[78.30852,31.26122],[78.28412,31.26657],[78.24761,31.23022],[78.20253,31.21744],[78.16279,31.22684],[78.10259,31.18608],[78.04475,31.18061],[78.02899,31.15023],[77.96951,31.17414],[77.90217,31.15009],[77.85736,31.07667],[77.81507,31.05748],[77.8397,31.00346],[77.82441,31.00055],[77.81071,30.96514],[77.83142,30.94887],[77.77816,30.97235],[77.75058,30.95895],[77.75977,30.91763],[77.80757,30.92127],[77.81504,30.90801],[77.79958,30.88864],[77.80347,30.85379],[77.75587,30.87358],[77.7455,30.84605],[77.75842,30.8251],[77.71231,30.76868],[77.65783,30.80602],[77.62434,30.80809],[77.5872,30.77628],[77.54486,30.77375],[77.54859,30.79752],[77.52431,30.78287],[77.49296,30.79412],[77.49304,30.84093],[77.47742,30.86494],[77.43213,30.87216],[77.43499,30.89399],[77.41134,30.92642],[77.44248,30.94503],[77.44079,30.97586],[77.37375,31.02225],[77.24622,30.91877],[77.25202,30.94765],[77.20273,30.9698],[77.20858,30.99107],[77.18641,31.00909],[77.14888,31.0085],[77.06769,31.05059],[77.08667,31.06584],[77.07351,31.08717],[77.03918,31.06834],[77.02601,31.08734],[77.05605,31.10394],[77.0467,31.11606],[76.99281,31.11173],[77.03394,31.15893],[77.00408,31.1879],[77.02003,31.21851],[77.00478,31.23715],[77.01514,31.27165],[77.00308,31.29782],[77.0834,31.2479],[77.16177,31.23079],[77.19018,31.25515],[77.20461,31.24459],[77.27058,31.27559],[77.30557,31.27129],[77.3367,31.29819],[77.36419,31.35642],[77.40202,31.36212],[77.42994,31.34152],[77.52566,31.35125],[77.55421,31.38653],[77.62998,31.39098],[77.62818,31.44603],[77.67096,31.46277],[77.70899,31.50241],[77.69928,31.54192],[77.65614,31.57833],[77.64858,31.61304],[77.66341,31.63473],[77.64875,31.66047],[77.68587,31.70353],[77.74281,31.71493],[77.76351,31.70442],[77.77188,31.70369]]]}},{"type":"Feature","properties":{"DISTRICT":"Sirmaur","ST_NM":"Himachal Pradesh","ST_CEN_CD":2,"DT_CEN_CD":10,"censuscode":32},"geometry":{"type":"Polygon","coordinates":[[[77.70217,30.76394],[77.70542,30.74354],[77.75489,30.70584],[77.74717,30.68101],[77.79277,30.65888],[77.782,30.6466],[77.79565,30.61444],[77.77025,30.61542],[77.76803,30.59584],[77.7431,30.59349],[77.77541,30.55806],[77.81681,30.55881],[77.82573,30.53305],[77.81266,30.50639],[77.69238,30.44679],[77.58781,30.42165],[77.5754,30.40517],[77.58801,30.37962],[77.55601,30.39236],[77.52304,30.44402],[77.49996,30.40781],[77.4295,30.40364],[77.46649,30.4356],[77.46373,30.46049],[77.41366,30.41403],[77.35917,30.45725],[77.32376,30.449],[77.27664,30.46211],[77.26488,30.47988],[77.21565,30.47585],[77.19846,30.52144],[77.14418,30.53714],[77.12462,30.56297],[77.17071,30.5952],[77.16689,30.68444],[77.09026,30.74061],[77.04712,30.75133],[77.03144,30.73637],[77.01809,30.74844],[77.08132,30.79032],[77.08817,30.82861],[77.11923,30.85355],[77.1772,30.84601],[77.17999,30.86211],[77.21463,30.87632],[77.21512,30.9021],[77.23474,30.90231],[77.37375,31.02225],[77.44079,30.97586],[77.44248,30.94503],[77.41134,30.92642],[77.43499,30.89399],[77.43213,30.87216],[77.47742,30.86494],[77.49304,30.84093],[77.49296,30.79412],[77.52431,30.78287],[77.54859,30.79752],[77.54486,30.77375],[77.5872,30.77628],[77.62434,30.80809],[77.65783,30.80602],[77.6961,30.76814],[77.70217,30.76394]]]}},{"type":"Feature","properties":{"DISTRICT":"Solan","ST_NM":"Himachal Pradesh","ST_CEN_CD":2,"DT_CEN_CD":9,"censuscode":31},"geometry":{"type":"Polygon","coordinates":[[[77.00308,31.29782],[77.01514,31.27165],[77.00478,31.23715],[77.02003,31.21851],[77.00408,31.1879],[77.03394,31.15893],[76.99281,31.11173],[77.0467,31.11606],[77.05605,31.10394],[77.02601,31.08734],[77.03918,31.06834],[77.05852,31.09005],[77.07831,31.0851],[77.08667,31.06584],[77.06769,31.05059],[77.14888,31.0085],[77.18641,31.00909],[77.20858,30.99107],[77.20273,30.9698],[77.25202,30.94765],[77.23474,30.90231],[77.20606,30.88863],[77.21463,30.87632],[77.17999,30.86211],[77.1772,30.84601],[77.11923,30.85355],[77.08817,30.82861],[77.08132,30.79032],[77.02395,30.74752],[77.00204,30.77305],[77.01146,30.81029],[76.99254,30.79481],[76.96722,30.80726],[76.91575,30.89342],[76.86594,30.86691],[76.82927,30.89231],[76.82377,30.92671],[76.78337,30.90276],[76.72617,30.9599],[76.67618,30.96769],[76.62599,30.99872],[76.61263,31.05028],[76.63952,31.10698],[76.60311,31.12452],[76.60429,31.17973],[76.6197,31.19398],[76.73262,31.24019],[76.77905,31.22047],[76.88351,31.22385],[76.87192,31.25692],[76.92803,31.30217],[76.87607,31.33134],[76.87579,31.35441],[76.89164,31.36202],[76.92091,31.36703],[76.94346,31.33444],[77.0001,31.2997],[77.00308,31.29782]]]}},{"type":"Feature","properties":{"DISTRICT":"Una","ST_NM":"Himachal Pradesh","ST_CEN_CD":2,"DT_CEN_CD":7,"censuscode":29},"geometry":{"type":"Polygon","coordinates":[[[76.31388,31.72173],[76.40006,31.61051],[76.47048,31.45868],[76.46453,31.44636],[76.47922,31.44186],[76.47189,31.42441],[76.435,31.41148],[76.39881,31.42697],[76.39582,31.40805],[76.37737,31.43884],[76.37334,31.4131],[76.32995,31.3999],[76.35069,31.35044],[76.30996,31.33971],[76.30433,31.31309],[76.18666,31.30439],[76.1802,31.33916],[76.14893,31.35954],[76.16753,31.41181],[76.05835,31.60125],[76.01709,31.64492],[75.93645,31.81589],[75.98614,31.81316],[75.95898,31.85623],[76.04751,31.86155],[76.11493,31.80549],[76.20378,31.7729],[76.28964,31.68662],[76.31253,31.72009],[76.31388,31.72173]]]}}]}
