{"type":"FeatureCollection","properties":{"source":"DataMeet Community Maps Project - Districts/Census_2011","state":"Jammu and Kashmir","stateSlug":"jammu-and-kashmir"},"features":[{"type":"Feature","properties":{"DISTRICT":"Anantnag","ST_NM":"Jammu and Kashmir","ST_CEN_CD":1,"DT_CEN_CD":14,"censuscode":14},"geometry":{"type":"Polygon","coordinates":[[[75.63102,34.22268],[75.70875,34.22842],[75.70687,34.21145],[75.6702,34.20442],[75.66437,34.17555],[75.61177,34.13279],[75.61069,34.04291],[75.53384,33.99484],[75.47183,33.90445],[75.48104,33.81635],[75.54581,33.65919],[75.57372,33.51867],[75.47236,33.36355],[75.426,33.35467],[75.3487,33.39294],[75.23801,33.49526],[75.19247,33.56091],[75.15267,33.57859],[75.16093,33.62292],[75.09189,33.63728],[75.08749,33.66442],[75.13084,33.7202],[75.05501,33.82705],[75.19131,33.91678],[75.18886,34.04425],[75.14887,34.0842],[75.16955,34.11347],[75.16257,34.16765],[75.18254,34.195],[75.25638,34.17035],[75.30864,34.22514],[75.34984,34.19841],[75.45634,34.16885],[75.61905,34.21593],[75.63102,34.22268]]]}},{"type":"Feature","properties":{"DISTRICT":"Badgam","ST_NM":"Jammu and Kashmir","ST_CEN_CD":1,"DT_CEN_CD":2,"censuscode":2},"geometry":{"type":"Polygon","coordinates":[[[74.82323,34.04905],[74.87713,34.05223],[74.91218,34.03065],[74.9294,33.9817],[74.92043,33.91714],[74.80465,33.80873],[74.6073,33.73117],[74.51438,33.66281],[74.46506,33.73733],[74.41962,33.76877],[74.39382,33.82599],[74.3994,33.84644],[74.53626,33.9912],[74.70996,34.05665],[74.78716,34.06795],[74.81188,34.05473],[74.82323,34.04905]]]}},{"type":"Feature","properties":{"DISTRICT":"Bandipore","ST_NM":"Jammu and Kashmir","ST_CEN_CD":1,"DT_CEN_CD":9,"censuscode":9},"geometry":{"type":"Polygon","coordinates":[[[75.39242,34.54345],[75.39995,34.42271],[75.43362,34.3501],[75.2698,34.3672],[75.15129,34.36085],[75.0854,34.38723],[74.99627,34.45229],[74.95322,34.45514],[74.87746,34.35071],[74.83882,34.34001],[74.76732,34.33731],[74.68361,34.35643],[74.57677,34.30905],[74.54436,34.30923],[74.51506,34.39994],[74.42631,34.34451],[74.36565,34.35444],[74.41691,34.45051],[74.50427,34.47912],[74.52156,34.52689],[74.54972,34.54939],[74.53104,34.64575],[74.57879,34.71096],[74.58792,34.76029],[74.5684,34.80407],[74.60352,34.86906],[74.68191,34.77023],[74.93532,34.5856],[74.98778,34.52858],[75.08345,34.49997],[75.30461,34.51501],[75.39242,34.54345]]]}},{"type":"Feature","properties":{"DISTRICT":"Baramula","ST_NM":"Jammu and Kashmir","ST_CEN_CD":1,"DT_CEN_CD":8,"censuscode":8},"geometry":{"type":"Polygon","coordinates":[[[74.71388,34.34671],[74.68943,34.34635],[74.66572,34.30868],[74.70134,34.17354],[74.79058,34.10022],[74.82323,34.04905],[74.78716,34.06795],[74.70996,34.05665],[74.55841,34.00174],[74.4923,33.95656],[74.41337,33.85685],[74.32009,33.95562],[74.32632,33.99948],[74.29129,34.09212],[74.3325,34.15392],[74.3275,34.18945],[74.25097,34.22706],[74.06202,34.26411],[74.02002,34.28531],[74.36565,34.35444],[74.42631,34.34451],[74.51506,34.39994],[74.54436,34.30923],[74.59561,34.31576],[74.64847,34.35166],[74.70432,34.35463],[74.71388,34.34671]]]}},{"type":"Feature","properties":{"DISTRICT":"Data Not Available","ST_NM":"Jammu and Kashmir","ST_CEN_CD":99,"DT_CEN_CD":99,"censuscode":0},"geometry":{"type":"Polygon","coordinates":[[[74.7146,37.07208],[74.72824,37.02599],[74.74888,37.01218],[74.77886,37.02979],[74.84006,37.0223],[74.84605,36.98994],[74.92217,36.90609],[74.94134,36.93472],[75.01874,36.97637],[75.09596,36.94279],[75.15108,36.9671],[75.20896,37.03681],[75.3438,37.05247],[75.35199,36.98101],[75.37628,36.96045],[75.42307,36.96066],[75.41419,36.89189],[75.44404,36.88724],[75.47421,36.81075],[75.61648,36.7616],[75.75395,36.58396],[75.92336,36.50245],[76.07729,36.47427],[76.17313,36.3903],[76.25476,36.34779],[76.35241,36.35987],[76.432,36.30816],[76.45004,36.26941],[76.43325,36.25116],[76.56297,36.17307],[76.60116,36.16555],[76.64445,36.18403],[76.70374,36.12886],[76.71963,36.08321],[76.80185,36.04786],[76.80776,36.01866],[76.7697,36.00944],[76.72277,35.95343],[76.77903,35.89868],[76.80432,35.84998],[76.93522,35.78406],[77.02066,35.77464],[77.11567,35.79778],[77.16423,35.76674],[77.16728,35.73458],[77.22102,35.72824],[77.22819,35.71249],[77.27755,35.7204],[77.3152,35.69913],[77.3276,35.71909],[77.35844,35.71772],[77.40161,35.66253],[77.43104,35.65458],[77.42714,35.61054],[77.45685,35.59361],[77.46061,35.54771],[77.4866,35.53201],[77.43529,35.51739],[77.37839,35.55035],[77.32223,35.5368],[77.34869,35.49369],[77.38193,35.47653],[77.44485,35.46133],[77.48089,35.47793],[77.27933,35.14514],[77.06505,35.13983],[77.04246,35.10307],[77.04482,35.07441],[77.09446,35.04354],[77.10897,34.96159],[77.09381,34.91454],[77.04137,34.86761],[76.84741,34.83328],[76.53929,34.82543],[76.37511,34.83315],[76.34248,34.85828],[76.3075,34.86162],[76.07801,34.683],[75.8156,34.64281],[75.30461,34.51501],[75.13839,34.49907],[75.02517,34.51018],[74.98778,34.52858],[74.93532,34.5856],[74.68191,34.77023],[74.59159,34.86888],[74.40848,34.78617],[74.36817,34.75494],[74.35899,34.71238],[74.25198,34.64431],[74.17499,34.60894],[73.97745,34.5609],[73.93521,34.53457],[73.90969,34.49841],[73.90891,34.45769],[73.99367,34.29494],[74.06202,34.26411],[74.25097,34.22706],[74.3275,34.18945],[74.3325,34.15392],[74.29129,34.09212],[74.32168,34.02144],[74.32751,33.9537],[74.24287,33.99794],[74.16244,34.00998],[74.14885,33.92827],[73.94484,33.83667],[73.87682,33.70751],[73.88146,33.64983],[73.92071,33.56169],[73.97282,33.56686],[74.0042,33.5336],[74.07489,33.54014],[74.07826,33.42318],[74.15372,33.32802],[74.17329,33.2046],[74.21723,33.14609],[74.35528,33.10795],[74.41876,33.06669],[74.49103,33.0764],[74.54175,33.06319],[74.5911,33.01531],[74.58958,32.99324],[74.56545,32.99285],[74.49412,32.94589],[74.5216,32.8887],[74.46947,32.79966],[74.44363,32.77991],[74.40649,32.78275],[74.38371,32.75787],[74.30924,32.79254],[74.30175,32.82331],[74.21737,32.84527],[74.17822,32.883],[74.05998,32.90931],[74.04856,32.93235],[73.98826,32.93574],[73.99728,32.96017],[73.95833,32.98695],[73.82963,33.00745],[73.80834,32.97254],[73.78645,32.96574],[73.78871,32.99848],[73.74336,33.03935],[73.73527,33.06666],[73.68855,33.08844],[73.62789,33.08991],[73.6261,33.14005],[73.65644,33.16925],[73.65769,33.20808],[73.64092,33.22677],[73.62874,33.21571],[73.60563,33.25171],[73.60409,33.2953],[73.58206,33.3265],[73.59083,33.33695],[73.56583,33.34251],[73.55854,33.36845],[73.59142,33.42218],[73.58792,33.44354],[73.62491,33.45756],[73.59655,33.50048],[73.63312,33.53351],[73.60375,33.60763],[73.56137,33.62147],[73.56317,33.6759],[73.59763,33.71625],[73.59129,33.75415],[73.55838,33.7836],[73.5899,33.88435],[73.51649,34.00053],[73.48901,34.14477],[73.49308,34.22016],[73.47004,34.25177],[73.47858,34.29063],[73.45382,34.2783],[73.42506,34.35346],[73.39084,34.37467],[73.42018,34.41777],[73.44775,34.57423],[73.52301,34.57471],[73.55736,34.59345],[73.65086,34.56827],[73.66019,34.61044],[73.69624,34.65405],[73.66694,34.66614],[73.66745,34.68466],[73.75008,34.78715],[73.82115,34.79596],[73.84971,34.81771],[73.91815,34.81448],[73.96439,34.84171],[73.97437,34.86534],[74.03035,34.87763],[74.04389,34.92186],[74.07402,34.93998],[74.06052,34.99363],[74.10823,35.0195],[74.06636,35.04853],[74.09325,35.09654],[74.13435,35.108],[74.10981,35.13221],[74.11701,35.14889],[74.03908,35.14747],[73.99979,35.1844],[73.95921,35.17442],[73.91727,35.21221],[73.86521,35.2108],[73.79641,35.24554],[73.73172,35.2173],[73.71638,35.22599],[73.72708,35.27826],[73.69987,35.32322],[73.70045,35.35838],[73.73891,35.42793],[73.79514,35.46016],[73.78491,35.52566],[73.63546,35.57184],[73.5711,35.55482],[73.48175,35.57728],[73.40683,35.56401],[73.36744,35.60549],[73.27273,35.62976],[73.13625,35.71918],[73.13574,35.79381],[73.15419,35.84167],[73.08919,35.88336],[73.03811,35.85476],[72.99972,35.86352],[72.92941,35.84554],[72.90467,35.85363],[72.90163,35.88167],[72.83023,35.88736],[72.77729,35.84402],[72.73755,35.8588],[72.69114,35.83288],[72.64565,35.86635],[72.60159,35.87108],[72.53004,35.92654],[72.55611,35.99667],[72.57325,35.99643],[72.59603,36.02735],[72.58621,36.05045],[72.53107,36.07465],[72.5366,36.11452],[72.57381,36.15096],[72.55154,36.18116],[72.56048,36.21239],[72.5971,36.26425],[72.6367,36.27648],[72.69397,36.2501],[72.69239,36.27565],[72.77855,36.30988],[72.82973,36.36114],[72.8833,36.38734],[72.87947,36.44333],[72.92227,36.46296],[72.99389,36.46015],[72.996,36.51491],[73.0615,36.53774],[73.11247,36.6101],[73.09201,36.63477],[73.08542,36.69973],[73.12648,36.68662],[73.1894,36.72184],[73.21496,36.69999],[73.31474,36.70642],[73.36084,36.71545],[73.3721,36.73494],[73.44155,36.74512],[73.54392,36.70935],[73.60023,36.72033],[73.60746,36.69851],[73.63317,36.69007],[73.70058,36.68487],[73.72508,36.71],[73.7831,36.70236],[73.80906,36.71671],[73.88407,36.69927],[73.90163,36.70696],[73.90007,36.7497],[73.8636,36.78824],[73.72393,36.83443],[73.71907,36.8572],[73.68143,36.88557],[73.69032,36.91213],[73.81807,36.88565],[73.87877,36.8944],[74.05579,36.80641],[74.09268,36.83859],[74.14273,36.8401],[74.1691,36.90254],[74.26137,36.88657],[74.42991,36.99003],[74.53221,36.98685],[74.55446,36.95362],[74.57869,36.94859],[74.58184,37.04344],[74.71293,37.07431],[74.7146,37.07208]]]}},{"type":"Feature","properties":{"DISTRICT":"Doda","ST_NM":"Jammu and Kashmir","ST_CEN_CD":1,"DT_CEN_CD":16,"censuscode":16},"geometry":{"type":"Polygon","coordinates":[[[75.54241,33.36069],[75.63273,33.24843],[75.62882,33.2224],[75.72489,33.21532],[75.82454,33.15231],[75.79521,33.06419],[75.82623,33.05814],[75.85654,33.07255],[75.97544,33.0577],[76.01133,33.09952],[76.04546,33.0976],[76.11109,33.00335],[76.09923,32.96881],[76.03408,32.9177],[75.95631,32.8844],[75.88393,32.93061],[75.82471,32.93031],[75.80409,32.89383],[75.82451,32.85375],[75.75159,32.86549],[75.66655,32.93443],[75.47276,32.99903],[75.41987,33.04434],[75.29152,33.09688],[75.30213,33.10569],[75.29149,33.12861],[75.31056,33.1387],[75.29602,33.17789],[75.33339,33.21852],[75.3189,33.29729],[75.41713,33.35829],[75.45635,33.35154],[75.49991,33.39902],[75.52874,33.37806],[75.54241,33.36069]]]}},{"type":"Feature","properties":{"DISTRICT":"Ganderbal","ST_NM":"Jammu and Kashmir","ST_CEN_CD":1,"DT_CEN_CD":11,"censuscode":11},"geometry":{"type":"Polygon","coordinates":[[[75.19374,34.19015],[75.02479,34.26046],[74.75285,34.3395],[74.87746,34.35071],[74.95322,34.45514],[74.99627,34.45229],[75.12661,34.36905],[75.3682,34.3495],[75.63123,34.2228],[75.45634,34.16885],[75.34984,34.19841],[75.30864,34.22514],[75.25638,34.17035],[75.20925,34.18342],[75.19374,34.19015]]]}},{"type":"Feature","properties":{"DISTRICT":"Jammu","ST_NM":"Jammu and Kashmir","ST_CEN_CD":1,"DT_CEN_CD":21,"censuscode":21},"geometry":{"type":"Polygon","coordinates":[[[74.94665,32.87708],[74.96791,32.87833],[74.97643,32.85131],[74.99661,32.84648],[75.05019,32.88444],[75.148,32.79913],[75.16094,32.77004],[75.11279,32.73596],[75.05054,32.72336],[75.03118,32.68586],[74.9758,32.6619],[74.94678,32.59563],[74.86662,32.51546],[74.7937,32.46894],[74.68516,32.48199],[74.68853,32.52499],[74.66307,32.53599],[74.66822,32.55948],[74.6521,32.55926],[74.63479,32.60262],[74.69268,32.65482],[74.65039,32.69828],[74.70136,32.83508],[74.63599,32.8135],[74.6539,32.78126],[74.63151,32.77434],[74.63106,32.74687],[74.55697,32.75714],[74.50935,32.73871],[74.50129,32.76038],[74.45123,32.78357],[74.5216,32.8887],[74.49412,32.94589],[74.51185,32.96145],[74.59127,32.99624],[74.66883,32.95718],[74.75174,33.03303],[74.78196,33.03177],[74.83934,32.98003],[74.8457,32.96316],[74.8124,32.91861],[74.83527,32.87994],[74.93383,32.87449],[74.94665,32.87708]]]}},{"type":"Feature","properties":{"DISTRICT":"Kathua","ST_NM":"Jammu and Kashmir","ST_CEN_CD":1,"DT_CEN_CD":7,"censuscode":7},"geometry":{"type":"Polygon","coordinates":[[[75.92895,32.75714],[75.91292,32.69102],[75.93988,32.64353],[75.84096,32.50906],[75.80599,32.47866],[75.76174,32.47631],[75.70058,32.4006],[75.56058,32.36106],[75.51647,32.27625],[75.50551,32.31049],[75.48305,32.3179],[75.48758,32.34041],[75.43025,32.32474],[75.34702,32.34539],[75.3159,32.33446],[75.28701,32.3662],[75.25892,32.36478],[75.25501,32.38502],[75.19249,32.39722],[75.24738,32.4916],[75.24603,32.54084],[75.3099,32.56185],[75.39876,32.65593],[75.45467,32.67169],[75.48793,32.73979],[75.65427,32.75465],[75.69787,32.81089],[75.82473,32.85381],[75.89036,32.8139],[75.92895,32.75714]]]}},{"type":"Feature","properties":{"DISTRICT":"Kishtwar","ST_NM":"Jammu and Kashmir","ST_CEN_CD":1,"DT_CEN_CD":18,"censuscode":18},"geometry":{"type":"Polygon","coordinates":[[[75.70735,34.21582],[75.74169,34.19811],[75.79351,34.10346],[75.86308,34.06994],[75.9431,33.98725],[76.0163,34.00113],[76.0571,33.98602],[76.11045,33.89464],[76.21046,33.7864],[76.24958,33.60846],[76.31237,33.62214],[76.32245,33.64758],[76.36701,33.67308],[76.39744,33.66802],[76.58183,33.51544],[76.59798,33.47643],[76.66465,33.42888],[76.68074,33.38647],[76.6746,33.34918],[76.7533,33.32191],[76.7875,33.28284],[76.79598,33.25486],[76.7734,33.2487],[76.77788,33.22384],[76.74775,33.17858],[76.64478,33.16178],[76.61738,33.17312],[76.59974,33.20632],[76.56531,33.20903],[76.48678,33.17951],[76.40938,33.18644],[76.29244,33.10383],[76.25455,33.0324],[76.11109,33.00335],[76.04546,33.0976],[76.01133,33.09952],[75.97544,33.0577],[75.85654,33.07255],[75.82623,33.05814],[75.79521,33.06419],[75.82454,33.15231],[75.72489,33.21532],[75.62882,33.2224],[75.63273,33.24843],[75.49991,33.39902],[75.57372,33.51867],[75.57544,33.54581],[75.48104,33.81635],[75.47183,33.90445],[75.53384,33.99484],[75.61069,34.04291],[75.61177,34.13279],[75.66437,34.17555],[75.6702,34.20442],[75.70687,34.21145],[75.70735,34.21582]]]}},{"type":"Feature","properties":{"DISTRICT":"Kulgam","ST_NM":"Jammu and Kashmir","ST_CEN_CD":1,"DT_CEN_CD":15,"censuscode":15},"geometry":{"type":"Polygon","coordinates":[[[75.15267,33.57859],[75.12358,33.56183],[75.13276,33.49581],[75.101,33.45813],[74.84002,33.4582],[74.80132,33.47122],[74.75367,33.5248],[74.73137,33.52617],[74.70719,33.52072],[74.6897,33.48654],[74.61923,33.4702],[74.60124,33.45251],[74.55452,33.47691],[74.53932,33.51301],[74.51438,33.66281],[74.55542,33.69218],[74.64727,33.66735],[74.74878,33.67541],[74.77863,33.62537],[74.85258,33.62401],[74.88169,33.67329],[74.99417,33.71211],[75.02636,33.76076],[75.01706,33.78774],[75.05501,33.82705],[75.13084,33.7202],[75.08318,33.65066],[75.16093,33.62292],[75.15267,33.57859]]]}},{"type":"Feature","properties":{"DISTRICT":"Kupwara","ST_NM":"Jammu and Kashmir","ST_CEN_CD":1,"DT_CEN_CD":1,"censuscode":1},"geometry":{"type":"Polygon","coordinates":[[[74.60352,34.86906],[74.5684,34.80407],[74.58792,34.76029],[74.57879,34.71096],[74.53104,34.64575],[74.54972,34.54939],[74.52156,34.52689],[74.50427,34.47912],[74.41691,34.45051],[74.35805,34.35112],[74.02461,34.2854],[73.99367,34.29494],[73.90891,34.45769],[73.90969,34.49841],[73.93521,34.53457],[73.97745,34.5609],[74.17499,34.60894],[74.25198,34.64431],[74.35899,34.71238],[74.36817,34.75494],[74.40848,34.78617],[74.59159,34.86888],[74.60352,34.86906]]]}},{"type":"Feature","properties":{"DISTRICT":"Pulwama","ST_NM":"Jammu and Kashmir","ST_CEN_CD":1,"DT_CEN_CD":12,"censuscode":12},"geometry":{"type":"Polygon","coordinates":[[[75.05501,33.82705],[75.02174,33.79264],[74.97754,33.83426],[74.88465,33.83011],[74.84423,33.78391],[74.80046,33.77712],[74.78032,33.80402],[74.84473,33.83642],[74.90255,33.89486],[74.92043,33.91714],[74.92945,33.97886],[75.04623,34.06374],[75.14963,34.08442],[75.18886,34.04425],[75.19131,33.91678],[75.07083,33.82884],[75.05501,33.82705]]]}},{"type":"Feature","properties":{"DISTRICT":"Punch","ST_NM":"Jammu and Kashmir","ST_CEN_CD":1,"DT_CEN_CD":5,"censuscode":5},"geometry":{"type":"Polygon","coordinates":[[[74.32009,33.95562],[74.40279,33.87363],[74.41337,33.85685],[74.39382,33.82599],[74.41962,33.76877],[74.46506,33.73733],[74.51763,33.66019],[74.52388,33.56702],[74.5582,33.48449],[74.5524,33.47252],[74.51595,33.47362],[74.38613,33.56637],[74.32732,33.56871],[74.25542,33.53008],[74.1322,33.37508],[74.11599,33.37645],[74.07382,33.43666],[74.07489,33.54014],[74.0042,33.5336],[73.97282,33.56686],[73.92071,33.56169],[73.88146,33.64983],[73.88448,33.74283],[73.94484,33.83667],[74.14885,33.92827],[74.16244,34.00998],[74.24287,33.99794],[74.30292,33.96004],[74.32009,33.95562]]]}},{"type":"Feature","properties":{"DISTRICT":"Rajouri","ST_NM":"Jammu and Kashmir","ST_CEN_CD":1,"DT_CEN_CD":6,"censuscode":6},"geometry":{"type":"Polygon","coordinates":[[[74.55452,33.47691],[74.59717,33.46137],[74.64092,33.4044],[74.66471,33.24028],[74.64506,33.21624],[74.52778,33.22793],[74.51651,33.19213],[74.63267,33.13805],[74.6254,33.10233],[74.56777,33.0675],[74.41876,33.06669],[74.35528,33.10795],[74.21723,33.14609],[74.18397,33.18276],[74.15372,33.32802],[74.12885,33.37536],[74.27323,33.54568],[74.36981,33.57117],[74.48731,33.48671],[74.5524,33.47252],[74.55452,33.47691]]]}},{"type":"Feature","properties":{"DISTRICT":"Ramban","ST_NM":"Jammu and Kashmir","ST_CEN_CD":1,"DT_CEN_CD":17,"censuscode":17},"geometry":{"type":"Polygon","coordinates":[[[75.15267,33.57859],[75.19247,33.56091],[75.31189,33.42311],[75.41713,33.35829],[75.3189,33.29729],[75.33339,33.21852],[75.29602,33.17789],[75.31056,33.1387],[75.29149,33.12861],[75.30213,33.10569],[75.29152,33.09688],[75.06955,33.16612],[75.01818,33.22145],[75.03716,33.4065],[75.00979,33.46117],[75.07277,33.45271],[75.12306,33.47026],[75.12358,33.56183],[75.14556,33.58073],[75.15267,33.57859]]]}},{"type":"Feature","properties":{"DISTRICT":"Reasi","ST_NM":"Jammu and Kashmir","ST_CEN_CD":1,"DT_CEN_CD":20,"censuscode":20},"geometry":{"type":"Polygon","coordinates":[[[75.07635,33.1643],[75.02168,33.11865],[75.01673,33.09188],[75.0443,33.04352],[75.04484,33.00154],[74.96213,32.94476],[74.94665,32.87708],[74.90379,32.86901],[74.83527,32.87994],[74.81685,32.89663],[74.8124,32.91861],[74.8457,32.96316],[74.78196,33.03177],[74.72978,33.02423],[74.66883,32.95718],[74.59127,32.99624],[74.5786,33.03376],[74.54175,33.06319],[74.6254,33.10233],[74.63267,33.13805],[74.51651,33.19213],[74.52778,33.22793],[74.64506,33.21624],[74.65896,33.22663],[74.64732,33.38924],[74.60124,33.45251],[74.61923,33.4702],[74.6897,33.48654],[74.70719,33.52072],[74.73137,33.52617],[74.75367,33.5248],[74.80132,33.47122],[74.84002,33.4582],[75.01807,33.45714],[75.0376,33.38107],[75.01818,33.22145],[75.06955,33.16612],[75.07635,33.1643]]]}},{"type":"Feature","properties":{"DISTRICT":"Samba","ST_NM":"Jammu and Kashmir","ST_CEN_CD":1,"DT_CEN_CD":22,"censuscode":22},"geometry":{"type":"Polygon","coordinates":[[[75.24802,32.50598],[75.21052,32.41461],[75.16723,32.419],[75.13244,32.40271],[75.13704,32.42498],[75.10602,32.47404],[75.08982,32.46428],[75.0306,32.49288],[75.00456,32.45233],[74.95044,32.44052],[74.93607,32.46264],[74.83007,32.486],[74.94678,32.59563],[74.9758,32.6619],[75.03118,32.68586],[75.05054,32.72336],[75.11279,32.73596],[75.16094,32.77004],[75.25032,32.66633],[75.3028,32.63975],[75.37305,32.63027],[75.3099,32.56185],[75.24603,32.54084],[75.24745,32.52033],[75.24802,32.50598]]]}},{"type":"Feature","properties":{"DISTRICT":"Shupiyan","ST_NM":"Jammu and Kashmir","ST_CEN_CD":1,"DT_CEN_CD":13,"censuscode":13},"geometry":{"type":"Polygon","coordinates":[[[75.02174,33.79264],[75.02636,33.76076],[74.99417,33.71211],[74.88169,33.67329],[74.85258,33.62401],[74.77863,33.62537],[74.74878,33.67541],[74.64727,33.66735],[74.55542,33.69218],[74.6073,33.73117],[74.74806,33.79435],[74.78032,33.80402],[74.80046,33.77712],[74.84423,33.78391],[74.88465,33.83011],[74.97754,33.83426],[75.02174,33.79264]]]}},{"type":"Feature","properties":{"DISTRICT":"Srinagar","ST_NM":"Jammu and Kashmir","ST_CEN_CD":1,"DT_CEN_CD":10,"censuscode":10},"geometry":{"type":"Polygon","coordinates":[[[74.71388,34.34671],[75.15448,34.21523],[75.19374,34.19015],[75.18254,34.195],[75.16257,34.16765],[75.16955,34.11347],[75.14887,34.0842],[75.04623,34.06374],[74.92945,33.97886],[74.92058,34.0172],[74.89146,34.04903],[74.82323,34.04905],[74.79058,34.10022],[74.70134,34.17354],[74.66572,34.30868],[74.68943,34.34635],[74.71388,34.34671]]]}},{"type":"Feature","properties":{"DISTRICT":"Udhampur","ST_NM":"Jammu and Kashmir","ST_CEN_CD":1,"DT_CEN_CD":19,"censuscode":19},"geometry":{"type":"Polygon","coordinates":[[[75.29152,33.09688],[75.41987,33.04434],[75.47276,32.99903],[75.66655,32.93443],[75.75159,32.86549],[75.82451,32.85375],[75.69787,32.81089],[75.65427,32.75465],[75.48793,32.73979],[75.45467,32.67169],[75.42065,32.668],[75.37184,32.6304],[75.29273,32.64304],[75.19952,32.71156],[75.148,32.79913],[75.05019,32.88444],[74.99661,32.84648],[74.97643,32.85131],[74.96791,32.87833],[74.94665,32.87708],[74.96213,32.94476],[75.04484,33.00154],[75.0443,33.04352],[75.01673,33.09188],[75.03554,33.13648],[75.07635,33.1643],[75.26395,33.10725],[75.29152,33.09688]]]}}]}
