{"type":"FeatureCollection","properties":{"source":"DataMeet Community Maps Project - Districts/Census_2011","state":"Jharkhand","stateSlug":"jharkhand"},"features":[{"type":"Feature","properties":{"DISTRICT":"Bokaro","ST_NM":"Jharkhand","ST_CEN_CD":20,"DT_CEN_CD":10,"censuscode":355},"geometry":{"type":"Polygon","coordinates":[[[85.91971,23.95583],[85.95998,23.89877],[86.01801,23.91134],[86.03206,23.89871],[86.11914,23.89397],[86.12088,23.86877],[86.14072,23.8606],[86.14499,23.83046],[86.16318,23.8293],[86.1657,23.78938],[86.18631,23.76808],[86.18004,23.72228],[86.22453,23.70746],[86.37179,23.70197],[86.38676,23.67542],[86.42261,23.65873],[86.44544,23.61103],[86.38676,23.5863],[86.35953,23.49847],[86.37776,23.48474],[86.33718,23.44934],[86.33204,23.45965],[86.30599,23.44581],[86.31915,23.42819],[86.29551,23.42499],[86.28433,23.44321],[86.25253,23.43624],[86.24906,23.42169],[86.23056,23.43775],[86.24465,23.47172],[86.22687,23.45803],[86.1783,23.48053],[86.15151,23.47506],[86.1542,23.56729],[86.07885,23.57005],[86.05296,23.58566],[86.01686,23.55347],[86.05329,23.49555],[85.95003,23.45654],[85.88376,23.47771],[85.86767,23.50296],[85.8394,23.50353],[85.82365,23.53527],[85.84109,23.55375],[85.81554,23.56269],[85.7643,23.67341],[85.71923,23.61992],[85.68045,23.63024],[85.65535,23.59084],[85.6161,23.61575],[85.61665,23.74931],[85.64966,23.77312],[85.65502,23.79642],[85.64134,23.80503],[85.61279,23.7803],[85.5833,23.83514],[85.61732,23.85571],[85.61508,23.88717],[85.66178,23.91817],[85.6496,23.94041],[85.6718,23.94306],[85.67928,23.96858],[85.70157,23.96089],[85.68848,23.94404],[85.71993,23.90561],[85.7442,23.93298],[85.76769,23.92658],[85.8167,23.83372],[85.83852,23.82956],[85.88852,23.89596],[85.8877,23.94945],[85.91523,23.95535],[85.91971,23.95583]]]}},{"type":"Feature","properties":{"DISTRICT":"Chatra","ST_NM":"Jharkhand","ST_CEN_CD":20,"DT_CEN_CD":2,"censuscode":347},"geometry":{"type":"MultiPolygon","coordinates":[[[[84.8027,24.52933],[84.83996,24.51136],[84.8417,24.45248],[84.85479,24.46588],[84.88746,24.46278],[84.90525,24.37222],[84.97576,24.37609],[84.9976,24.41234],[85.03928,24.42547],[85.06045,24.41528],[85.08334,24.44001],[85.07262,24.38696],[85.10278,24.33616],[85.13222,24.33652],[85.14597,24.36215],[85.19621,24.33338],[85.24202,24.35076],[85.29867,24.34612],[85.35203,24.32117],[85.32274,24.31575],[85.29997,24.21028],[85.19722,24.23754],[85.16023,24.24069],[85.14782,24.2258],[85.14274,24.16869],[85.1716,24.13438],[85.17182,24.11073],[85.24086,24.0776],[85.25103,24.02735],[85.2292,24.02068],[85.18776,23.94945],[85.14616,23.95473],[85.12409,23.97665],[85.09624,23.97923],[85.08326,23.96305],[85.07431,23.98729],[85.03509,23.98458],[85.03361,23.96781],[85.05521,23.95785],[85.0394,23.94386],[85.04454,23.91842],[85.01807,23.9028],[85.02953,23.86218],[85.05896,23.83456],[85.0469,23.83134],[85.04559,23.77699],[85.0635,23.73336],[85.04752,23.73578],[85.05375,23.71351],[85.00717,23.67831],[84.93849,23.72896],[84.92785,23.76791],[84.90296,23.77507],[84.91195,23.80179],[84.94495,23.8026],[84.94771,23.84235],[84.92936,23.85841],[84.94959,23.88144],[84.92683,23.91184],[84.93518,23.9348],[84.92307,23.95061],[84.8893,23.94278],[84.84599,23.96496],[84.83035,23.95743],[84.82545,23.98329],[84.75924,23.96703],[84.77007,24.00865],[84.74297,24.04808],[84.70972,24.0392],[84.7117,24.02688],[84.67073,24.00173],[84.64679,24.00518],[84.62933,23.98024],[84.57056,23.98484],[84.55351,24.04958],[84.5748,24.07042],[84.55383,24.10331],[84.58019,24.14148],[84.53851,24.17074],[84.53654,24.203],[84.48863,24.20131],[84.44481,24.24364],[84.4576,24.26764],[84.48866,24.2642],[84.50969,24.29445],[84.53289,24.33934],[84.52894,24.37608],[84.5732,24.38378],[84.57991,24.41216],[84.66562,24.39364],[84.68629,24.45618],[84.79707,24.52139],[84.8027,24.52933]],[[84.50091,24.2651],[84.51099,24.26849],[84.50118,24.28345],[84.49891,24.26886],[84.50091,24.2651]]],[[[84.49406,24.3173],[84.48275,24.30243],[84.46939,24.3174],[84.50483,24.33407],[84.50319,24.32107],[84.49406,24.3173]]]]}},{"type":"Feature","properties":{"DISTRICT":"Deoghar","ST_NM":"Jharkhand","ST_CEN_CD":20,"DT_CEN_CD":5,"censuscode":350},"geometry":{"type":"Polygon","coordinates":[[[86.91711,24.53966],[86.88543,24.42805],[86.91426,24.40904],[86.94177,24.41948],[86.92559,24.38321],[86.93716,24.35947],[86.96358,24.35486],[86.96243,24.3172],[86.988,24.30651],[87.02544,24.32591],[87.04046,24.26612],[87.0712,24.25301],[87.04658,24.19533],[86.97946,24.21996],[86.9775,24.1864],[86.94156,24.17062],[86.93452,24.13866],[86.97951,24.10944],[86.95941,24.05002],[86.93069,24.04787],[86.88197,24.07484],[86.83329,24.05649],[86.80836,24.08911],[86.768,24.07149],[86.75713,24.09814],[86.69537,24.11676],[86.69544,24.14241],[86.71022,24.14726],[86.69489,24.16897],[86.67422,24.13452],[86.48929,24.15206],[86.51699,24.23811],[86.50693,24.28218],[86.46367,24.33289],[86.4584,24.36963],[86.47204,24.42283],[86.49478,24.42595],[86.49649,24.48525],[86.52977,24.53659],[86.55291,24.53589],[86.61551,24.60822],[86.62447,24.58532],[86.67454,24.56152],[86.73768,24.57669],[86.75697,24.61883],[86.7832,24.62062],[86.81182,24.5954],[86.80631,24.56552],[86.84306,24.56921],[86.86061,24.55142],[86.88238,24.56827],[86.91176,24.54195],[86.91711,24.53966]]]}},{"type":"Feature","properties":{"DISTRICT":"Dhanbad","ST_NM":"Jharkhand","ST_CEN_CD":20,"DT_CEN_CD":9,"censuscode":354},"geometry":{"type":"Polygon","coordinates":[[[86.47089,24.01797],[86.57976,23.99914],[86.64745,23.94592],[86.70678,23.92298],[86.73401,23.87447],[86.74883,23.88379],[86.77333,23.87251],[86.82532,23.76294],[86.79756,23.68932],[86.7437,23.67956],[86.73729,23.69572],[86.69948,23.69643],[86.5973,23.67306],[86.53439,23.63092],[86.45072,23.63343],[86.44471,23.62168],[86.37179,23.70197],[86.22453,23.70746],[86.1719,23.72806],[86.18835,23.73409],[86.18631,23.76808],[86.1657,23.78938],[86.16318,23.8293],[86.14499,23.83046],[86.14072,23.8606],[86.11471,23.88868],[86.13724,23.93649],[86.22238,23.94619],[86.2798,23.93306],[86.29275,23.91424],[86.3052,23.99044],[86.3425,24.0211],[86.3216,24.03573],[86.34392,24.05452],[86.38729,24.059],[86.39878,24.04052],[86.464,24.01943],[86.47089,24.01797]]]}},{"type":"Feature","properties":{"DISTRICT":"Dumka","ST_NM":"Jharkhand","ST_CEN_CD":20,"DT_CEN_CD":17,"censuscode":362},"geometry":{"type":"Polygon","coordinates":[[[87.40561,24.50598],[87.48451,24.52842],[87.53726,24.50706],[87.56478,24.52079],[87.58442,24.25843],[87.64681,24.25134],[87.64279,24.2131],[87.69755,24.18772],[87.69456,24.15143],[87.6211,24.16623],[87.57448,24.15722],[87.61264,24.13054],[87.57429,24.10837],[87.5812,24.08691],[87.54425,24.08945],[87.49873,24.11682],[87.49406,24.08983],[87.51089,24.08373],[87.49485,24.07488],[87.49634,24.05369],[87.5141,24.03637],[87.48785,24.01536],[87.44163,24.01265],[87.4649,23.98657],[87.44421,23.97988],[87.3792,24.00829],[87.3292,23.99877],[87.32104,24.00878],[87.3376,24.03268],[87.28794,24.0286],[87.24892,24.04376],[87.22207,24.02507],[87.14154,24.04296],[87.10152,24.10594],[87.02358,24.14863],[87.02159,24.12871],[86.98522,24.12853],[86.97947,24.10939],[86.93452,24.13866],[86.94156,24.17062],[86.9775,24.1864],[86.97443,24.2172],[87.04658,24.19533],[87.0712,24.25301],[87.04046,24.26612],[87.02544,24.32591],[86.988,24.30651],[86.96243,24.3172],[86.96358,24.35486],[86.93716,24.35947],[86.92559,24.38321],[86.94177,24.41948],[86.91426,24.40904],[86.88543,24.42805],[86.91342,24.49483],[86.90404,24.58747],[86.9401,24.62743],[86.93608,24.64371],[87.01609,24.60721],[87.03023,24.62206],[87.05632,24.60773],[87.05026,24.62497],[87.06524,24.64242],[87.21936,24.58767],[87.31433,24.59657],[87.38113,24.50421],[87.40477,24.50164],[87.40561,24.50598]]]}},{"type":"Feature","properties":{"DISTRICT":"Garhwa","ST_NM":"Jharkhand","ST_CEN_CD":20,"DT_CEN_CD":1,"censuscode":346},"geometry":{"type":"Polygon","coordinates":[[[83.87504,24.52839],[83.8551,24.49298],[83.85557,24.40774],[83.81333,24.36217],[83.83277,24.32205],[83.81854,24.29134],[83.88971,24.19999],[83.97002,24.15183],[83.99104,24.10893],[83.96124,24.11137],[83.9521,24.09393],[83.91117,24.09304],[83.86696,24.06977],[83.86244,24.042],[83.82724,24.00156],[83.83464,23.96565],[83.81866,23.95679],[83.86568,23.95302],[83.87041,23.98326],[83.89303,23.97843],[83.93979,23.91949],[83.93386,23.8627],[83.99773,23.81939],[84.00194,23.7944],[84.01848,23.79561],[84.02326,23.77608],[83.98494,23.72392],[83.99386,23.70909],[84.0696,23.69196],[84.01434,23.63268],[83.94523,23.62277],[83.9426,23.56345],[83.80784,23.58345],[83.78228,23.59973],[83.75519,23.62681],[83.75836,23.65347],[83.72217,23.6826],[83.74216,23.71359],[83.73686,23.75471],[83.70288,23.82053],[83.66584,23.82764],[83.65707,23.84785],[83.56878,23.86265],[83.58372,23.88407],[83.55043,23.89788],[83.54653,23.93309],[83.51535,23.97896],[83.51435,24.02768],[83.45526,24.04185],[83.43306,24.08306],[83.33127,24.10053],[83.35674,24.12562],[83.38512,24.23473],[83.40966,24.26505],[83.38374,24.31352],[83.45919,24.36373],[83.43773,24.4027],[83.40799,24.40756],[83.40854,24.43599],[83.38929,24.45446],[83.40337,24.50254],[83.5174,24.52638],[83.7245,24.50399],[83.87581,24.53201],[83.87504,24.52839]]]}},{"type":"Feature","properties":{"DISTRICT":"Giridih","ST_NM":"Jharkhand","ST_CEN_CD":20,"DT_CEN_CD":4,"censuscode":349},"geometry":{"type":"Polygon","coordinates":[[[86.4584,24.36963],[86.46367,24.33289],[86.50693,24.28218],[86.51699,24.23811],[86.48929,24.15206],[86.55477,24.15407],[86.57571,24.14015],[86.53292,24.0566],[86.48381,24.04413],[86.48675,24.02347],[86.42388,24.02996],[86.38729,24.059],[86.33667,24.05234],[86.3216,24.03573],[86.3425,24.0211],[86.3052,23.99044],[86.29275,23.91424],[86.2798,23.93306],[86.19786,23.94838],[86.13724,23.93649],[86.11239,23.89073],[86.01801,23.91134],[85.95998,23.89877],[85.95028,23.92975],[85.93115,23.92597],[85.91981,23.95424],[85.93441,23.9694],[85.88346,24.02028],[85.89165,24.03403],[85.82493,24.07704],[85.79784,24.07188],[85.76776,24.09601],[85.77294,24.10645],[85.70789,24.10514],[85.71242,24.12391],[85.66983,24.15612],[85.67866,24.18286],[85.8007,24.23207],[85.81766,24.2176],[85.85692,24.21929],[85.85041,24.25481],[85.83317,24.26386],[85.87135,24.30509],[85.86615,24.3349],[85.8446,24.3473],[85.85289,24.42008],[85.83172,24.44652],[85.85344,24.46875],[85.86787,24.52686],[85.8099,24.55259],[85.79454,24.59204],[85.80359,24.61272],[85.76473,24.62599],[85.80106,24.67322],[85.84103,24.67048],[85.82236,24.72976],[85.89346,24.73582],[85.8908,24.75405],[85.91141,24.76157],[85.9729,24.73264],[86.05733,24.77989],[86.0458,24.7417],[86.09327,24.74674],[86.13108,24.70564],[86.14023,24.67602],[86.12486,24.64243],[86.13986,24.60412],[86.20145,24.5858],[86.22223,24.59181],[86.22391,24.61239],[86.2706,24.57652],[86.32927,24.58479],[86.31047,24.55901],[86.31881,24.50925],[86.28552,24.46281],[86.32583,24.44103],[86.35703,24.44458],[86.42182,24.38018],[86.45251,24.36944],[86.4584,24.36963]]]}},{"type":"Feature","properties":{"DISTRICT":"Godda","ST_NM":"Jharkhand","ST_CEN_CD":20,"DT_CEN_CD":6,"censuscode":351},"geometry":{"type":"Polygon","coordinates":[[[87.47809,25.19519],[87.50027,25.13721],[87.47641,25.10605],[87.52303,25.05778],[87.46696,24.98985],[87.47747,24.96763],[87.45491,24.89397],[87.46807,24.87656],[87.45997,24.86146],[87.47827,24.86035],[87.48689,24.81786],[87.51201,24.79803],[87.4963,24.78392],[87.46181,24.79257],[87.43744,24.75637],[87.47282,24.68604],[87.47229,24.65136],[87.44919,24.62565],[87.46613,24.56975],[87.4085,24.53693],[87.39202,24.54544],[87.39064,24.51862],[87.40561,24.50598],[87.3882,24.50236],[87.31433,24.59657],[87.21936,24.58767],[87.071,24.64209],[87.05026,24.62497],[87.10263,24.80227],[87.08329,24.80913],[87.08454,24.82301],[87.12045,24.85628],[87.15691,24.85917],[87.16407,24.88635],[87.15285,25.02489],[87.21742,25.09014],[87.23993,25.08637],[87.25663,25.10639],[87.29712,25.08984],[87.32955,25.22355],[87.37593,25.20554],[87.39782,25.22799],[87.47358,25.19367],[87.47809,25.19519]]]}},{"type":"Feature","properties":{"DISTRICT":"Gumla","ST_NM":"Jharkhand","ST_CEN_CD":20,"DT_CEN_CD":21,"censuscode":366},"geometry":{"type":"Polygon","coordinates":[[[84.39901,23.60421],[84.45318,23.59558],[84.471,23.57599],[84.46208,23.53413],[84.47478,23.48522],[84.42401,23.42639],[84.44701,23.40334],[84.47548,23.40352],[84.47285,23.36998],[84.48653,23.35618],[84.50004,23.35242],[84.5133,23.38404],[84.53846,23.34846],[84.63588,23.30733],[84.67484,23.32009],[84.71143,23.3119],[84.7359,23.3317],[84.78727,23.32123],[84.78909,23.27999],[84.85188,23.31594],[84.92037,23.32015],[84.89951,23.26103],[84.95119,23.21953],[84.91397,23.19483],[84.92085,23.16851],[84.8946,23.16917],[84.88622,23.14003],[84.8997,23.10911],[84.86932,23.09395],[84.9177,23.02863],[84.94358,23.02473],[84.94689,22.96494],[85.0149,22.94727],[85.01152,22.91305],[84.99057,22.92187],[84.98199,22.89716],[85.00736,22.80352],[84.95775,22.77493],[84.93319,22.79047],[84.88367,22.74177],[84.84744,22.76937],[84.85804,22.72306],[84.81963,22.74538],[84.8148,22.70868],[84.78916,22.72156],[84.79416,22.77125],[84.77834,22.76262],[84.78175,22.79062],[84.73255,22.80119],[84.719,22.78659],[84.72536,22.76446],[84.70303,22.76249],[84.69633,22.74178],[84.6072,22.72977],[84.58726,22.71342],[84.55949,22.72872],[84.56856,22.74402],[84.54825,22.76259],[84.53084,22.73888],[84.51709,22.75496],[84.55408,22.77007],[84.55587,22.78733],[84.50349,22.79553],[84.50508,22.82137],[84.45755,22.8353],[84.4514,22.81254],[84.42964,22.80949],[84.41623,22.7628],[84.39091,22.77211],[84.33998,22.74612],[84.29463,22.77275],[84.32726,22.85116],[84.38289,22.87539],[84.3778,22.90333],[84.39658,22.92543],[84.38034,22.97374],[84.33214,22.98089],[84.28557,22.96279],[84.27841,22.99035],[84.25791,22.97294],[84.22409,22.97795],[84.19698,23.0251],[84.18374,23.02189],[84.17491,22.97241],[84.15506,22.9653],[84.13075,23.03793],[84.13646,23.08279],[84.0686,23.11106],[84.03624,23.15494],[84.0655,23.20461],[84.0576,23.2419],[84.07744,23.33083],[84.09756,23.32905],[84.119,23.35022],[84.19433,23.32444],[84.24383,23.34851],[84.26065,23.37821],[84.252,23.45132],[84.29069,23.49292],[84.31727,23.48301],[84.32693,23.49442],[84.31921,23.57861],[84.35932,23.60874],[84.39337,23.60332],[84.39901,23.60421]]]}},{"type":"Feature","properties":{"DISTRICT":"Hazaribagh","ST_NM":"Jharkhand","ST_CEN_CD":20,"DT_CEN_CD":15,"censuscode":360},"geometry":{"type":"Polygon","coordinates":[[[85.43091,24.35613],[85.43162,24.34137],[85.51209,24.32438],[85.57261,24.35827],[85.58959,24.33921],[85.6372,24.33732],[85.62813,24.30003],[85.61072,24.29808],[85.59591,24.26315],[85.5726,24.26002],[85.56512,24.23867],[85.5265,24.23279],[85.52598,24.19903],[85.50649,24.19776],[85.49603,24.17618],[85.55115,24.16374],[85.5763,24.12931],[85.63591,24.1339],[85.68043,24.09638],[85.77294,24.10645],[85.76776,24.09601],[85.79784,24.07188],[85.82493,24.07704],[85.89165,24.03403],[85.88346,24.02028],[85.89852,23.99163],[85.93383,23.9626],[85.91444,23.94538],[85.89017,23.95319],[85.88852,23.89596],[85.83852,23.82956],[85.8167,23.83372],[85.76769,23.92658],[85.7442,23.93298],[85.71993,23.90561],[85.68848,23.94404],[85.70157,23.96089],[85.67928,23.96858],[85.6718,23.94306],[85.57896,23.91159],[85.49273,23.8022],[85.4549,23.78573],[85.47853,23.75553],[85.43532,23.68245],[85.40864,23.67416],[85.33954,23.70084],[85.29264,23.68861],[85.1888,23.7098],[85.16565,23.66644],[85.07778,23.66887],[85.05829,23.69252],[85.0705,23.7078],[85.04593,23.73139],[85.0635,23.73336],[85.04559,23.77699],[85.0469,23.83134],[85.05896,23.83456],[85.02953,23.86218],[85.01807,23.9028],[85.04454,23.91842],[85.0394,23.94386],[85.05521,23.95785],[85.03361,23.96781],[85.03509,23.98458],[85.07431,23.98729],[85.08326,23.96305],[85.09624,23.97923],[85.12409,23.97665],[85.14616,23.95473],[85.18776,23.94945],[85.2292,24.02068],[85.25103,24.02735],[85.24086,24.0776],[85.17182,24.11073],[85.1716,24.13438],[85.14274,24.16869],[85.14782,24.2258],[85.16023,24.24069],[85.19722,24.23754],[85.29997,24.21028],[85.32523,24.31951],[85.35314,24.30211],[85.38642,24.34923],[85.42758,24.3601],[85.43091,24.35613]]]}},{"type":"Feature","properties":{"DISTRICT":"Jamtara","ST_NM":"Jharkhand","ST_CEN_CD":20,"DT_CEN_CD":18,"censuscode":363},"geometry":{"type":"Polygon","coordinates":[[[86.97947,24.10939],[86.98522,24.12853],[87.02159,24.12871],[87.02358,24.14863],[87.10152,24.10594],[87.13645,24.0454],[87.238,24.02623],[87.25217,23.99873],[87.2661,24.00459],[87.26681,23.96789],[87.29706,23.95745],[87.29973,23.90039],[87.27563,23.87479],[87.25347,23.90881],[87.25093,23.82996],[87.22498,23.82909],[87.24146,23.85493],[87.19383,23.8427],[87.20092,23.85611],[87.13626,23.86878],[87.13565,23.85275],[87.17172,23.82147],[87.15402,23.79629],[87.12946,23.79695],[86.97239,23.86708],[86.94187,23.84667],[86.90056,23.88169],[86.88082,23.86414],[86.88779,23.8163],[86.87677,23.84596],[86.81939,23.81396],[86.76962,23.87609],[86.73401,23.87447],[86.70678,23.92298],[86.64745,23.94592],[86.57976,23.99914],[86.47089,24.01797],[86.48675,24.02347],[86.48381,24.04413],[86.53292,24.0566],[86.57045,24.1395],[86.67422,24.13452],[86.69489,24.16897],[86.71022,24.14726],[86.69544,24.14241],[86.69537,24.11676],[86.75713,24.09814],[86.768,24.07149],[86.80836,24.08911],[86.83329,24.05649],[86.88197,24.07484],[86.95161,24.04542],[86.97312,24.06259],[86.97258,24.09974],[86.97947,24.10939]]]}},{"type":"Feature","properties":{"DISTRICT":"Khunti","ST_NM":"Jharkhand","ST_CEN_CD":20,"DT_CEN_CD":20,"censuscode":365},"geometry":{"type":"Polygon","coordinates":[[[85.61387,22.93333],[85.58096,22.90565],[85.60357,22.89544],[85.58039,22.86599],[85.56196,22.86133],[85.56001,22.88061],[85.53407,22.86846],[85.50466,22.8005],[85.45799,22.80166],[85.43243,22.83529],[85.39028,22.84136],[85.38951,22.86319],[85.34254,22.88498],[85.2829,22.87028],[85.24961,22.83463],[85.22858,22.83772],[85.19602,22.81236],[85.16224,22.83234],[85.1159,22.65785],[85.07725,22.61667],[85.09718,22.59567],[85.08019,22.57059],[85.05637,22.61071],[85.06177,22.66332],[85.04359,22.68041],[85.05896,22.73479],[85.00589,22.78441],[84.97897,22.78511],[85.00736,22.80352],[84.98199,22.89716],[84.99057,22.92187],[85.01152,22.91305],[85.0149,22.94727],[84.94689,22.96494],[84.94261,23.01146],[84.98419,23.03126],[84.99709,23.07272],[85.03681,23.10492],[85.05411,23.20067],[85.09112,23.22038],[85.13638,23.21886],[85.21675,23.24544],[85.23636,23.22592],[85.28008,23.2186],[85.31487,23.18417],[85.34473,23.20449],[85.36175,23.187],[85.44776,23.17401],[85.46293,23.17694],[85.50016,23.24369],[85.55354,23.27752],[85.58505,23.27218],[85.54167,23.15858],[85.55173,23.12889],[85.60274,23.10399],[85.58016,23.05246],[85.61939,22.96515],[85.61387,22.93333]]]}},{"type":"Feature","properties":{"DISTRICT":"Kodarma","ST_NM":"Jharkhand","ST_CEN_CD":20,"DT_CEN_CD":3,"censuscode":348},"geometry":{"type":"Polygon","coordinates":[[[85.70789,24.10514],[85.68043,24.09638],[85.63591,24.1339],[85.5763,24.12931],[85.55115,24.16374],[85.49603,24.17618],[85.50649,24.19776],[85.52598,24.19903],[85.5265,24.23279],[85.56512,24.23867],[85.5726,24.26002],[85.59591,24.26315],[85.61072,24.29808],[85.62813,24.30003],[85.6372,24.33732],[85.58959,24.33921],[85.57261,24.35827],[85.51209,24.32438],[85.43162,24.34137],[85.4221,24.36484],[85.38361,24.34669],[85.35314,24.30211],[85.35203,24.32117],[85.29867,24.34612],[85.23222,24.35127],[85.19621,24.33338],[85.14023,24.36223],[85.13954,24.34123],[85.10278,24.33616],[85.08392,24.37137],[85.12219,24.40923],[85.17648,24.42968],[85.1578,24.46303],[85.23104,24.47139],[85.2536,24.49547],[85.28905,24.49741],[85.28961,24.52686],[85.49347,24.55103],[85.52526,24.52487],[85.5434,24.53634],[85.54376,24.56554],[85.57524,24.5655],[85.5698,24.59155],[85.58353,24.60328],[85.62237,24.58325],[85.67159,24.58228],[85.67902,24.61971],[85.6565,24.68726],[85.7036,24.71369],[85.71174,24.76899],[85.74201,24.82151],[85.81759,24.7947],[85.8295,24.80913],[85.87093,24.80565],[85.91141,24.76157],[85.8908,24.75405],[85.89346,24.73582],[85.82236,24.72976],[85.84103,24.67048],[85.80106,24.67322],[85.76473,24.62599],[85.80359,24.61272],[85.79454,24.59204],[85.8099,24.55259],[85.86787,24.52686],[85.85344,24.46875],[85.83172,24.44652],[85.85289,24.42008],[85.8446,24.3473],[85.86615,24.3349],[85.87135,24.30509],[85.83317,24.26386],[85.85041,24.25481],[85.85692,24.21929],[85.81766,24.2176],[85.8007,24.23207],[85.67866,24.18286],[85.66983,24.15612],[85.71242,24.12391],[85.70789,24.10514]]]}},{"type":"Feature","properties":{"DISTRICT":"Latehar","ST_NM":"Jharkhand","ST_CEN_CD":20,"DT_CEN_CD":14,"censuscode":359},"geometry":{"type":"Polygon","coordinates":[[[84.01848,23.79561],[84.03873,23.7942],[84.07008,23.85735],[84.13788,23.90047],[84.14,23.94268],[84.21481,23.90603],[84.25339,23.92485],[84.2438,23.88538],[84.29354,23.91554],[84.33406,23.91029],[84.34408,23.95123],[84.40128,23.93336],[84.45153,23.96138],[84.46873,23.95461],[84.46966,23.9172],[84.49605,23.89353],[84.52515,23.90063],[84.53008,23.92782],[84.56471,23.9275],[84.58555,23.98624],[84.62933,23.98024],[84.64679,24.00518],[84.67073,24.00173],[84.7117,24.02688],[84.70972,24.0392],[84.74297,24.04808],[84.77007,24.00865],[84.75924,23.96703],[84.82545,23.98329],[84.83035,23.95743],[84.84599,23.96496],[84.93334,23.93984],[84.92683,23.91184],[84.94959,23.88144],[84.92936,23.85841],[84.94771,23.84235],[84.94495,23.8026],[84.91195,23.80179],[84.90296,23.77507],[84.92785,23.76791],[84.93849,23.72896],[84.96558,23.70668],[84.93503,23.69083],[84.91931,23.65256],[84.94273,23.63242],[84.93466,23.55008],[84.91173,23.54299],[84.90591,23.58145],[84.89654,23.5587],[84.85377,23.53314],[84.82188,23.54379],[84.82073,23.56838],[84.803,23.56241],[84.79788,23.57734],[84.78514,23.54553],[84.78514,23.57137],[84.73557,23.63834],[84.68075,23.60407],[84.64123,23.66737],[84.59041,23.66525],[84.57911,23.61553],[84.55392,23.62855],[84.53849,23.66797],[84.50917,23.67576],[84.47012,23.65714],[84.46327,23.62769],[84.39591,23.63765],[84.39901,23.60421],[84.35932,23.60874],[84.31921,23.57861],[84.32693,23.49442],[84.31727,23.48301],[84.29069,23.49292],[84.252,23.45132],[84.26065,23.37821],[84.24383,23.34851],[84.19433,23.32444],[84.119,23.35022],[84.09756,23.32905],[84.07744,23.33083],[84.05061,23.37477],[84.02796,23.3762],[84.01375,23.35356],[83.97307,23.38189],[83.98671,23.42731],[83.97679,23.45599],[84.01602,23.50014],[84.02995,23.54474],[84.02964,23.5978],[84.00909,23.62329],[84.0696,23.69196],[84.0265,23.69441],[83.98494,23.72392],[84.02326,23.77608],[84.01716,23.79256],[84.01848,23.79561]]]}},{"type":"Feature","properties":{"DISTRICT":"Lohardaga","ST_NM":"Jharkhand","ST_CEN_CD":20,"DT_CEN_CD":11,"censuscode":356},"geometry":{"type":"Polygon","coordinates":[[[84.88632,23.55754],[84.9453,23.50055],[84.88657,23.40536],[84.88439,23.3756],[84.90722,23.34292],[84.89801,23.32008],[84.85188,23.31594],[84.78909,23.27999],[84.78727,23.32123],[84.7359,23.3317],[84.71143,23.3119],[84.67484,23.32009],[84.63588,23.30733],[84.53846,23.34846],[84.51989,23.38182],[84.50004,23.35242],[84.47948,23.36015],[84.47548,23.40352],[84.44701,23.40334],[84.42401,23.42639],[84.47478,23.48522],[84.46208,23.53413],[84.471,23.57599],[84.45318,23.59558],[84.39901,23.60421],[84.39591,23.63765],[84.46327,23.62769],[84.47012,23.65714],[84.50917,23.67576],[84.53849,23.66797],[84.55392,23.62855],[84.57911,23.61553],[84.59041,23.66525],[84.64123,23.66737],[84.68075,23.60407],[84.73557,23.63834],[84.78514,23.57137],[84.78514,23.54553],[84.79788,23.57734],[84.803,23.56241],[84.82073,23.56838],[84.82188,23.54379],[84.85377,23.53314],[84.87669,23.55762],[84.88632,23.55754]]]}},{"type":"Feature","properties":{"DISTRICT":"Pakur","ST_NM":"Jharkhand","ST_CEN_CD":20,"DT_CEN_CD":8,"censuscode":353},"geometry":{"type":"Polygon","coordinates":[[[87.83738,24.74659],[87.906,24.72263],[87.89177,24.67517],[87.91852,24.65965],[87.91139,24.63376],[87.88973,24.62777],[87.90736,24.62703],[87.90671,24.61371],[87.87785,24.61185],[87.9132,24.60932],[87.91051,24.58496],[87.8533,24.55224],[87.77459,24.58291],[87.81146,24.5464],[87.80023,24.4923],[87.81177,24.51182],[87.8153,24.49334],[87.82796,24.49565],[87.81418,24.47785],[87.82001,24.45263],[87.78982,24.41586],[87.81504,24.40795],[87.7976,24.39777],[87.76129,24.30502],[87.71536,24.29351],[87.70768,24.2614],[87.6621,24.23688],[87.63527,24.25662],[87.58442,24.25843],[87.56478,24.52079],[87.53726,24.50706],[87.49221,24.52794],[87.41759,24.50636],[87.39064,24.51862],[87.39202,24.54544],[87.4085,24.53693],[87.46898,24.57449],[87.44919,24.62565],[87.47229,24.65136],[87.47282,24.68604],[87.43872,24.76131],[87.46181,24.79257],[87.4963,24.78392],[87.53634,24.80388],[87.54629,24.82709],[87.6139,24.80357],[87.59041,24.7992],[87.59524,24.78688],[87.7032,24.73607],[87.71998,24.73984],[87.73541,24.77466],[87.75755,24.7516],[87.78227,24.75137],[87.79111,24.71883],[87.83593,24.74524],[87.83738,24.74659]]]}},{"type":"Feature","properties":{"DISTRICT":"Palamu","ST_NM":"Jharkhand","ST_CEN_CD":20,"DT_CEN_CD":13,"censuscode":358},"geometry":{"type":"Polygon","coordinates":[[[84.02343,24.62673],[84.0545,24.61146],[84.11743,24.48078],[84.14762,24.50416],[84.15375,24.53962],[84.17209,24.53307],[84.1613,24.517],[84.18691,24.50981],[84.18056,24.54648],[84.19596,24.55466],[84.22513,24.53457],[84.24266,24.55257],[84.26477,24.53019],[84.28772,24.55134],[84.27688,24.56365],[84.30506,24.56256],[84.33392,24.50223],[84.30177,24.48028],[84.30077,24.45038],[84.33794,24.43079],[84.32261,24.42305],[84.34339,24.39549],[84.38972,24.38939],[84.43001,24.35892],[84.42488,24.33116],[84.46198,24.33846],[84.47253,24.30825],[84.49448,24.30471],[84.48866,24.2642],[84.4576,24.26764],[84.44481,24.24364],[84.48863,24.20131],[84.53654,24.203],[84.53851,24.17074],[84.58019,24.14148],[84.55383,24.10331],[84.5748,24.07042],[84.55351,24.04958],[84.56445,24.03294],[84.55401,24.01625],[84.58826,23.97897],[84.56471,23.9275],[84.53008,23.92782],[84.52515,23.90063],[84.48455,23.89442],[84.46873,23.95461],[84.44729,23.96076],[84.40128,23.93336],[84.34408,23.95123],[84.33406,23.91029],[84.29354,23.91554],[84.2438,23.88538],[84.25339,23.92485],[84.21481,23.90603],[84.14,23.94268],[84.13788,23.90047],[84.07008,23.85735],[84.03334,23.79194],[84.00194,23.7944],[83.99773,23.81939],[83.93386,23.8627],[83.93979,23.91949],[83.88989,23.98129],[83.87041,23.98326],[83.86568,23.95302],[83.8204,23.95416],[83.84013,23.98772],[83.82724,24.00156],[83.86244,24.042],[83.86696,24.06977],[83.91117,24.09304],[83.9521,24.09393],[83.96124,24.11137],[83.99104,24.10893],[83.97002,24.15183],[83.88971,24.19999],[83.81854,24.29134],[83.83277,24.32205],[83.81333,24.36217],[83.85557,24.40774],[83.8551,24.49298],[83.87581,24.53201],[83.93623,24.54706],[84,24.63712],[84.02232,24.63076],[84.02343,24.62673]]]}},{"type":"Feature","properties":{"DISTRICT":"Pashchimi Singhbhum","ST_NM":"Jharkhand","ST_CEN_CD":20,"DT_CEN_CD":23,"censuscode":368},"geometry":{"type":"Polygon","coordinates":[[[85.51683,22.80855],[85.56893,22.83189],[85.60951,22.82524],[85.62191,22.84764],[85.64883,22.8494],[85.70199,22.80742],[85.69955,22.77394],[85.7187,22.75555],[85.68346,22.72895],[85.70427,22.69574],[85.72685,22.6853],[85.79378,22.71649],[85.85869,22.71944],[85.86769,22.62131],[85.91027,22.60343],[85.87516,22.56213],[85.90739,22.54411],[85.89925,22.52645],[85.91181,22.51251],[85.96658,22.48196],[85.95932,22.45936],[85.97277,22.44464],[86.0145,22.42779],[86.02699,22.3786],[85.99864,22.34176],[86.02616,22.33303],[86.01415,22.31361],[86.049,22.30986],[86.01423,22.29635],[85.97554,22.24714],[86.03242,22.18909],[86.00035,22.13572],[86.00618,22.11294],[85.94833,22.02322],[85.91801,22.00891],[85.9112,21.9708],[85.89692,21.98266],[85.82418,21.97413],[85.76664,21.99378],[85.7938,22.08111],[85.83659,22.08092],[85.80794,22.11471],[85.75197,22.0738],[85.68746,22.05271],[85.65061,22.09412],[85.59712,22.07827],[85.5456,22.09037],[85.41647,22.15967],[85.36941,22.15814],[85.36758,22.12507],[85.32924,22.12858],[85.30633,22.11067],[85.23723,22.00402],[85.22119,22.01442],[85.21705,22.04684],[85.17879,22.07179],[85.17714,22.05182],[85.16189,22.07404],[85.12524,22.07004],[85.10182,22.10294],[85.05031,22.11414],[85.00877,22.0834],[84.98626,22.08812],[85.03017,22.11541],[85.03183,22.15735],[85.07589,22.23392],[85.07693,22.27535],[85.12085,22.29367],[85.12043,22.31737],[85.09438,22.31723],[85.09938,22.34419],[85.08049,22.35166],[85.08711,22.39846],[85.0635,22.44762],[85.07755,22.4588],[85.06894,22.48127],[85.08123,22.5174],[85.06695,22.53792],[85.09718,22.59567],[85.07725,22.61667],[85.1159,22.65785],[85.12975,22.73587],[85.14715,22.74489],[85.14084,22.77784],[85.15863,22.82913],[85.19182,22.82532],[85.19602,22.81236],[85.22858,22.83772],[85.24961,22.83463],[85.2829,22.87028],[85.34254,22.88498],[85.38951,22.86319],[85.39028,22.84136],[85.43243,22.83529],[85.45799,22.80166],[85.51259,22.80735],[85.51683,22.80855]]]}},{"type":"Feature","properties":{"DISTRICT":"Purbi Singhbhum","ST_NM":"Jharkhand","ST_CEN_CD":20,"DT_CEN_CD":12,"censuscode":357},"geometry":{"type":"Polygon","coordinates":[[[86.56047,22.71113],[86.64197,22.65846],[86.63958,22.60069],[86.65694,22.57926],[86.76114,22.57777],[86.78917,22.54779],[86.80312,22.48764],[86.7534,22.4823],[86.7566,22.45436],[86.76901,22.42662],[86.84895,22.39986],[86.83421,22.32849],[86.89008,22.30066],[86.89063,22.25614],[86.82782,22.26533],[86.82136,22.25331],[86.81689,22.26792],[86.80462,22.24499],[86.79532,22.26679],[86.79787,22.24275],[86.81489,22.24204],[86.80513,22.2177],[86.7841,22.21558],[86.79722,22.22789],[86.78094,22.23558],[86.78026,22.21869],[86.75287,22.21204],[86.65631,22.2372],[86.65074,22.26533],[86.59617,22.27875],[86.58371,22.3017],[86.53767,22.30205],[86.50529,22.34474],[86.44377,22.32717],[86.43873,22.30536],[86.35819,22.34915],[86.28535,22.44907],[86.11303,22.48832],[86.06759,22.55179],[86.15711,22.63666],[86.16944,22.67053],[86.15939,22.74827],[86.17372,22.79064],[86.1459,22.80568],[86.16144,22.83787],[86.19671,22.81837],[86.21992,22.89033],[86.19211,22.90381],[86.1976,22.96903],[86.23829,22.97271],[86.24019,22.99607],[86.28507,23.01342],[86.3378,22.99164],[86.37512,22.99706],[86.39863,22.97703],[86.42185,22.99756],[86.50286,22.99272],[86.51773,22.96911],[86.54574,22.99006],[86.52385,22.94721],[86.49002,22.93716],[86.47594,22.95231],[86.43836,22.92628],[86.46855,22.89956],[86.45239,22.86176],[86.43835,22.86347],[86.41814,22.78951],[86.51201,22.70475],[86.51537,22.71927],[86.5549,22.71414],[86.56047,22.71113]]]}},{"type":"Feature","properties":{"DISTRICT":"Ramgarh","ST_NM":"Jharkhand","ST_CEN_CD":20,"DT_CEN_CD":16,"censuscode":361},"geometry":{"type":"Polygon","coordinates":[[[85.61279,23.7803],[85.65362,23.80487],[85.64966,23.77312],[85.61665,23.74931],[85.6161,23.61575],[85.65535,23.59084],[85.68045,23.63024],[85.71923,23.61992],[85.76815,23.67112],[85.81554,23.56269],[85.84109,23.55375],[85.82365,23.53527],[85.8394,23.50353],[85.88934,23.48467],[85.85981,23.42369],[85.84612,23.42073],[85.81668,23.45379],[85.75872,23.46001],[85.71904,23.44108],[85.63248,23.46872],[85.5513,23.53801],[85.52469,23.53664],[85.52249,23.57696],[85.50564,23.57014],[85.51082,23.54126],[85.47268,23.57138],[85.4526,23.54938],[85.39143,23.56171],[85.38584,23.55014],[85.26834,23.58023],[85.20433,23.63333],[85.23759,23.68279],[85.22652,23.69888],[85.29264,23.68861],[85.33954,23.70084],[85.40864,23.67416],[85.44933,23.68773],[85.44996,23.72117],[85.47889,23.75806],[85.4549,23.78573],[85.49273,23.8022],[85.57896,23.91159],[85.63722,23.93796],[85.66178,23.91817],[85.61508,23.88717],[85.61732,23.85571],[85.5833,23.83514],[85.61026,23.7878],[85.61279,23.7803]]]}},{"type":"Feature","properties":{"DISTRICT":"Ranchi","ST_NM":"Jharkhand","ST_CEN_CD":20,"DT_CEN_CD":19,"censuscode":364},"geometry":{"type":"Polygon","coordinates":[[[85.22597,23.68568],[85.23799,23.68573],[85.20433,23.63333],[85.26834,23.58023],[85.38584,23.55014],[85.39143,23.56171],[85.4526,23.54938],[85.47268,23.57138],[85.51082,23.54126],[85.50564,23.57014],[85.52249,23.57696],[85.52469,23.53664],[85.5513,23.53801],[85.63248,23.46872],[85.71904,23.44108],[85.75872,23.46001],[85.82294,23.45239],[85.84612,23.42073],[85.86706,23.43009],[85.86905,23.41191],[85.88461,23.40998],[85.9018,23.3726],[85.87241,23.36685],[85.88409,23.32578],[85.8325,23.26525],[85.83851,23.19487],[85.86361,23.1966],[85.89522,23.15407],[85.79912,23.05913],[85.82697,22.99633],[85.84825,22.98672],[85.8536,22.94452],[85.87587,22.92986],[85.86338,22.88717],[85.73117,22.94203],[85.61521,22.92301],[85.6156,22.98204],[85.58016,23.05246],[85.60274,23.10399],[85.55173,23.12889],[85.54167,23.15858],[85.58505,23.27218],[85.55354,23.27752],[85.50914,23.25102],[85.47199,23.21339],[85.46293,23.17694],[85.44776,23.17401],[85.36175,23.187],[85.34473,23.20449],[85.31487,23.18417],[85.28008,23.2186],[85.23636,23.22592],[85.21675,23.24544],[85.13638,23.21886],[85.09112,23.22038],[85.05411,23.20067],[85.03681,23.10492],[84.99709,23.07272],[84.96774,23.01505],[84.94083,23.01237],[84.93546,23.03289],[84.9177,23.02863],[84.87731,23.06774],[84.87121,23.09785],[84.8997,23.10911],[84.88622,23.14003],[84.8946,23.16917],[84.92085,23.16851],[84.91397,23.19483],[84.95189,23.22501],[84.89951,23.26103],[84.9264,23.31093],[84.91095,23.32681],[84.89801,23.32008],[84.90446,23.36425],[84.88439,23.3756],[84.89677,23.4296],[84.9453,23.50055],[84.88563,23.55184],[84.90591,23.58145],[84.91173,23.54299],[84.93466,23.55008],[84.94552,23.60765],[84.92303,23.66932],[84.96863,23.71504],[85.00717,23.67831],[85.01175,23.69285],[85.03613,23.68963],[85.04975,23.71127],[85.06843,23.71151],[85.05936,23.68873],[85.10751,23.66399],[85.16565,23.66644],[85.1888,23.7098],[85.22334,23.68992],[85.22597,23.68568]]]}},{"type":"Feature","properties":{"DISTRICT":"Sahibganj","ST_NM":"Jharkhand","ST_CEN_CD":20,"DT_CEN_CD":7,"censuscode":352},"geometry":{"type":"Polygon","coordinates":[[[87.71357,25.25694],[87.78902,25.24674],[87.7821,25.09196],[87.8698,25.04059],[87.97525,24.92443],[87.97174,24.8822],[87.89426,24.85385],[87.90367,24.82546],[87.87295,24.82391],[87.88275,24.79896],[87.87064,24.77531],[87.84049,24.76421],[87.83897,24.78883],[87.81917,24.75435],[87.83738,24.74659],[87.79944,24.71804],[87.78227,24.75137],[87.75755,24.7516],[87.73541,24.77466],[87.71998,24.73984],[87.7032,24.73607],[87.59524,24.78688],[87.59041,24.7992],[87.6139,24.80357],[87.54629,24.82709],[87.53634,24.80388],[87.51096,24.79735],[87.47963,24.83137],[87.47827,24.86035],[87.45997,24.86146],[87.46807,24.87656],[87.45491,24.89397],[87.46985,24.91676],[87.45908,24.93287],[87.47791,24.97231],[87.46696,24.98985],[87.52303,25.05778],[87.47641,25.10605],[87.50027,25.13721],[87.47809,25.19519],[87.47862,25.24137],[87.50169,25.26295],[87.48751,25.29561],[87.49609,25.30564],[87.54569,25.28209],[87.55344,25.33137],[87.58605,25.34882],[87.58712,25.32847],[87.61279,25.31184],[87.68999,25.3106],[87.71265,25.26031],[87.71357,25.25694]]]}},{"type":"Feature","properties":{"DISTRICT":"Saraikela-kharsawan","ST_NM":"Jharkhand","ST_CEN_CD":20,"DT_CEN_CD":24,"censuscode":369},"geometry":{"type":"Polygon","coordinates":[[[85.89522,23.15407],[85.92749,23.1283],[85.98791,23.14827],[86.04286,23.14601],[86.0539,23.11113],[86.13321,23.09159],[86.18141,23.01565],[86.20665,23.0178],[86.21217,22.99676],[86.2462,22.98815],[86.23829,22.97271],[86.1976,22.96903],[86.18872,22.94764],[86.19387,22.89886],[86.21992,22.89033],[86.19671,22.81837],[86.16144,22.83787],[86.1459,22.80568],[86.17424,22.78481],[86.15939,22.74827],[86.16944,22.67053],[86.15711,22.63666],[86.06759,22.55179],[86.04426,22.56685],[86.02413,22.54692],[86.02782,22.52388],[85.98651,22.51306],[85.96658,22.48196],[85.91181,22.51251],[85.89925,22.52645],[85.90739,22.54411],[85.87516,22.56213],[85.91027,22.60343],[85.86769,22.62131],[85.87615,22.6349],[85.8536,22.72332],[85.84472,22.7091],[85.79378,22.71649],[85.72685,22.6853],[85.70427,22.69574],[85.68346,22.72895],[85.7187,22.75555],[85.69955,22.77394],[85.70199,22.80742],[85.64883,22.8494],[85.62191,22.84764],[85.60951,22.82524],[85.56893,22.83189],[85.51683,22.80855],[85.53063,22.86371],[85.56001,22.88061],[85.56196,22.86133],[85.58039,22.86599],[85.60357,22.89544],[85.58096,22.90565],[85.6071,22.93568],[85.62203,22.91631],[85.6519,22.92137],[85.6532,22.937],[85.73117,22.94203],[85.86338,22.88717],[85.87587,22.92986],[85.8536,22.94452],[85.84825,22.98672],[85.82697,22.99633],[85.79912,23.05913],[85.88844,23.1548],[85.89522,23.15407]]]}},{"type":"Feature","properties":{"DISTRICT":"Simdega","ST_NM":"Jharkhand","ST_CEN_CD":20,"DT_CEN_CD":22,"censuscode":367},"geometry":{"type":"Polygon","coordinates":[[[84.979,22.78511],[85.00589,22.78441],[85.05896,22.73479],[85.04359,22.68041],[85.06177,22.66332],[85.05247,22.634],[85.08019,22.57059],[85.06695,22.53792],[85.08016,22.50813],[85.06894,22.48127],[84.9611,22.44175],[84.9538,22.4539],[84.91426,22.42249],[84.88681,22.42042],[84.8831,22.44603],[84.83914,22.42917],[84.8144,22.44959],[84.75933,22.44471],[84.7505,22.41749],[84.66829,22.41661],[84.63879,22.43128],[84.53339,22.4226],[84.48346,22.40854],[84.48438,22.38627],[84.45465,22.38166],[84.43289,22.35142],[84.29609,22.33984],[84.25345,22.37613],[84.20103,22.3742],[84.15943,22.40324],[84.14284,22.42294],[84.14188,22.47313],[84.00952,22.52286],[84.01209,22.57148],[84.05515,22.59606],[84.08739,22.63843],[84.15692,22.63636],[84.22756,22.67085],[84.23919,22.6905],[84.23234,22.73701],[84.26119,22.7648],[84.29463,22.77275],[84.33998,22.74612],[84.39091,22.77211],[84.41623,22.7628],[84.45193,22.83381],[84.50508,22.82137],[84.50349,22.79553],[84.55587,22.78733],[84.55408,22.77007],[84.51709,22.75496],[84.53084,22.73888],[84.54825,22.76259],[84.56856,22.74402],[84.55949,22.72872],[84.59337,22.71222],[84.6072,22.72977],[84.69633,22.74178],[84.70303,22.76249],[84.72536,22.76446],[84.719,22.78659],[84.73255,22.80119],[84.78175,22.79062],[84.77834,22.76262],[84.79416,22.77125],[84.78916,22.72156],[84.8148,22.70868],[84.81963,22.74538],[84.85804,22.72306],[84.84744,22.76937],[84.88367,22.74177],[84.93319,22.79047],[84.952,22.77539],[84.96866,22.78222],[84.979,22.78511]]]}}]}
