{"type":"FeatureCollection","properties":{"source":"DataMeet Community Maps Project - Districts/Census_2011","state":"Karnataka","stateSlug":"karnataka"},"features":[{"type":"Feature","properties":{"DISTRICT":"Bagalkot","ST_NM":"Karnataka","ST_CEN_CD":29,"DT_CEN_CD":2,"censuscode":556},"geometry":{"type":"Polygon","coordinates":[[[76.241,16.16531],[76.23538,16.13015],[76.25529,16.0978],[76.27091,16.10782],[76.33465,16.09034],[76.32962,16.0763],[76.25916,16.082],[76.30782,16.06471],[76.31329,16.00058],[76.29727,15.9919],[76.32816,15.93083],[76.28573,15.9256],[76.28563,15.90132],[76.20299,15.94083],[76.11802,15.8849],[76.06009,15.9047],[76.08216,16.00839],[76.02239,16.00771],[75.97749,15.98715],[75.97189,15.86062],[75.92944,15.87444],[75.90334,15.92261],[75.85233,15.93544],[75.77706,15.91735],[75.77205,15.90077],[75.82849,15.89922],[75.82549,15.86435],[75.84813,15.86863],[75.84568,15.83773],[75.7783,15.85036],[75.77973,15.81738],[75.74554,15.81347],[75.66345,15.83663],[75.6571,15.82716],[75.64529,15.84102],[75.62056,15.8353],[75.62068,15.82216],[75.58763,15.83363],[75.55587,15.82469],[75.49506,15.87396],[75.44559,15.8884],[75.44139,15.91801],[75.42569,15.92111],[75.43972,16.00038],[75.41687,16.03283],[75.43054,16.08079],[75.41111,16.12995],[75.39376,16.11238],[75.35737,16.11384],[75.35316,16.12686],[75.3243,16.11332],[75.27597,16.11812],[75.28679,16.20066],[75.23202,16.21018],[75.23188,16.25957],[75.12663,16.2878],[75.12986,16.32792],[75.04382,16.31699],[75.03405,16.3864],[75.07279,16.40298],[75.07746,16.43575],[75.02459,16.4325],[75.01672,16.4565],[74.99567,16.45808],[74.993,16.50781],[75.00803,16.53796],[75.06556,16.54012],[75.0703,16.56784],[75.10828,16.50898],[75.12394,16.50904],[75.16205,16.53452],[75.15781,16.58523],[75.16979,16.6011],[75.22883,16.61675],[75.25601,16.60468],[75.26568,16.68749],[75.28834,16.71162],[75.36363,16.71389],[75.36758,16.75815],[75.42762,16.76677],[75.49406,16.73965],[75.49098,16.69802],[75.43928,16.69697],[75.46155,16.62146],[75.49267,16.59261],[75.47402,16.56048],[75.49221,16.52373],[75.48663,16.50901],[75.45632,16.5056],[75.46018,16.46668],[75.43472,16.43745],[75.45002,16.41333],[75.49339,16.41952],[75.49887,16.4516],[75.53634,16.46464],[75.57248,16.40996],[75.60464,16.44477],[75.64345,16.44017],[75.7245,16.39037],[75.78232,16.37989],[75.9592,16.29751],[76.02826,16.29841],[76.06688,16.25878],[76.06684,16.20779],[76.24099,16.16533],[76.241,16.16531]]]}},{"type":"Feature","properties":{"DISTRICT":"Bangalore","ST_NM":"Karnataka","ST_CEN_CD":29,"DT_CEN_CD":18,"censuscode":572},"geometry":{"type":"Polygon","coordinates":[[[77.83549,12.86809],[77.79472,12.84285],[77.81091,12.8299],[77.80944,12.79599],[77.78155,12.76892],[77.79291,12.74795],[77.76301,12.73418],[77.77303,12.72357],[77.76026,12.69627],[77.73722,12.69193],[77.74141,12.67307],[77.71374,12.68277],[77.70539,12.66027],[77.68825,12.65801],[77.66406,12.68309],[77.59894,12.65705],[77.61826,12.70558],[77.59727,12.71871],[77.57051,12.69868],[77.55946,12.72153],[77.57777,12.75158],[77.59824,12.75603],[77.59463,12.7821],[77.57373,12.77949],[77.56875,12.75872],[77.55917,12.79964],[77.54212,12.79848],[77.54539,12.753],[77.52172,12.73194],[77.52103,12.74366],[77.49037,12.74281],[77.47499,12.76601],[77.4821,12.80766],[77.45368,12.81802],[77.44517,12.80724],[77.42355,12.82577],[77.43854,12.83938],[77.42177,12.86835],[77.43088,12.87694],[77.37833,12.85338],[77.36694,12.87077],[77.34894,12.86748],[77.33058,12.97393],[77.38016,12.99391],[77.37347,13.01552],[77.39393,13.02826],[77.39867,13.05392],[77.385,13.06459],[77.43035,13.06783],[77.40604,13.1242],[77.42978,13.1635],[77.46842,13.16238],[77.47982,13.22098],[77.51245,13.22396],[77.52183,13.20916],[77.55939,13.23148],[77.55739,13.2142],[77.59887,13.18894],[77.62037,13.20477],[77.6538,13.20061],[77.65854,13.18606],[77.69062,13.19776],[77.72928,13.18771],[77.73458,13.11429],[77.76197,13.11221],[77.7644,13.06531],[77.78493,13.03639],[77.77584,12.97661],[77.78632,12.96478],[77.76811,12.95991],[77.76721,12.9377],[77.80136,12.91883],[77.8157,12.92779],[77.83078,12.87793],[77.83549,12.86809]]]}},{"type":"Feature","properties":{"DISTRICT":"Bangalore Rural","ST_NM":"Karnataka","ST_CEN_CD":29,"DT_CEN_CD":29,"censuscode":583},"geometry":{"type":"MultiPolygon","coordinates":[[[[77.38701,13.50002],[77.41536,13.49475],[77.43746,13.4639],[77.48712,13.46642],[77.52304,13.43322],[77.55023,13.43455],[77.55556,13.41725],[77.59213,13.42078],[77.60393,13.44078],[77.61517,13.42046],[77.6027,13.39657],[77.6186,13.40122],[77.61567,13.38521],[77.63461,13.37468],[77.65925,13.39686],[77.65995,13.35523],[77.69976,13.33514],[77.71594,13.36493],[77.71987,13.35061],[77.75448,13.36132],[77.79252,13.35098],[77.82843,13.32578],[77.81354,13.30891],[77.83114,13.29074],[77.81909,13.29436],[77.81028,13.24059],[77.85163,13.24011],[77.85,13.22026],[77.89211,13.25503],[77.90667,13.24891],[77.89248,13.2331],[77.91207,13.22864],[77.9665,13.24336],[77.94636,13.21446],[77.95821,13.21738],[77.96307,13.18588],[77.95758,13.12449],[77.93995,13.12237],[77.93821,13.10668],[77.91586,13.11641],[77.90272,13.09903],[77.92742,13.07499],[77.9418,13.08268],[77.94089,13.06841],[77.89371,13.04805],[77.86502,12.97183],[77.87565,12.94255],[77.84147,12.91927],[77.86417,12.9127],[77.85561,12.87936],[77.86882,12.8668],[77.83549,12.86809],[77.8157,12.92779],[77.80136,12.91883],[77.76721,12.9377],[77.76811,12.95991],[77.78632,12.96478],[77.77584,12.97661],[77.78493,13.03639],[77.7644,13.06531],[77.76197,13.11221],[77.73458,13.11429],[77.72928,13.18771],[77.69062,13.19776],[77.65854,13.18606],[77.6538,13.20061],[77.62037,13.20477],[77.59887,13.18894],[77.55739,13.2142],[77.55939,13.23148],[77.52183,13.20916],[77.51245,13.22396],[77.47982,13.22098],[77.46842,13.16238],[77.42978,13.1635],[77.40604,13.1242],[77.43035,13.06783],[77.385,13.06459],[77.39867,13.05392],[77.39393,13.02826],[77.37347,13.01552],[77.38016,12.99391],[77.34553,12.96997],[77.32632,12.97653],[77.33131,13.0297],[77.31033,13.10304],[77.27064,13.13179],[77.26569,13.15382],[77.22366,13.14859],[77.18279,13.22708],[77.18912,13.27163],[77.2195,13.26293],[77.23106,13.31068],[77.28362,13.29743],[77.28267,13.30972],[77.3398,13.32958],[77.34951,13.41728],[77.36525,13.42557],[77.35051,13.45265],[77.38171,13.49205],[77.38701,13.50002]]]]}},{"type":"Feature","properties":{"DISTRICT":"Belgaum","ST_NM":"Karnataka","ST_CEN_CD":29,"DT_CEN_CD":1,"censuscode":555},"geometry":{"type":"MultiPolygon","coordinates":[[[[75.02647,16.93264],[75.09076,16.94874],[75.09459,16.91542],[75.13519,16.8945],[75.13794,16.87513],[75.18667,16.87512],[75.18019,16.84368],[75.22717,16.84259],[75.2382,16.86462],[75.2656,16.86253],[75.28301,16.88046],[75.28197,16.95515],[75.34289,16.95415],[75.33456,16.86811],[75.39458,16.8605],[75.37787,16.80831],[75.38785,16.76193],[75.36758,16.75815],[75.36363,16.71389],[75.2905,16.71291],[75.26885,16.69285],[75.25601,16.60468],[75.22883,16.61675],[75.16979,16.6011],[75.15781,16.58523],[75.16205,16.53452],[75.11569,16.50626],[75.0703,16.56784],[75.06556,16.54012],[75.00803,16.53796],[74.99311,16.46527],[75.01672,16.4565],[75.02459,16.4325],[75.07746,16.43575],[75.07279,16.40298],[75.03405,16.3864],[75.04382,16.31699],[75.07109,16.33043],[75.134,16.32644],[75.12663,16.2878],[75.21655,16.26823],[75.23573,16.24902],[75.23202,16.21018],[75.28679,16.20066],[75.27597,16.11812],[75.3243,16.11332],[75.35316,16.12686],[75.35737,16.11384],[75.39376,16.11238],[75.41111,16.12995],[75.43054,16.08079],[75.41687,16.03283],[75.43972,16.00038],[75.42569,15.92111],[75.45546,15.88646],[75.46018,15.81656],[75.43807,15.77964],[75.41613,15.78361],[75.42768,15.84238],[75.37753,15.84302],[75.36529,15.80473],[75.34225,15.8038],[75.34092,15.82628],[75.30395,15.81079],[75.31846,15.74451],[75.3026,15.72831],[75.27543,15.7393],[75.27321,15.65047],[75.25072,15.64638],[75.23733,15.67938],[75.2185,15.6819],[75.20262,15.68172],[75.20309,15.64986],[75.10704,15.6717],[75.09261,15.60865],[75.05691,15.63135],[75.06424,15.67003],[75.04984,15.68193],[75.02033,15.64489],[74.96744,15.65145],[74.96381,15.62535],[74.89028,15.62981],[74.8307,15.60936],[74.84055,15.57428],[74.79795,15.5459],[74.81348,15.50317],[74.78909,15.47243],[74.77692,15.45957],[74.74666,15.49451],[74.72706,15.48915],[74.74489,15.46142],[74.73069,15.42953],[74.74262,15.4115],[74.65167,15.39484],[74.61434,15.35873],[74.54432,15.41726],[74.47985,15.39587],[74.46759,15.41377],[74.42649,15.39706],[74.41156,15.47556],[74.37548,15.482],[74.3403,15.51881],[74.27637,15.52283],[74.27248,15.55097],[74.24772,15.56809],[74.26201,15.61182],[74.23834,15.66782],[74.2064,15.65122],[74.18318,15.68315],[74.1664,15.65423],[74.1356,15.64929],[74.08912,15.673],[74.12636,15.68055],[74.12335,15.72005],[74.16056,15.75137],[74.19748,15.75553],[74.22053,15.78778],[74.2434,15.74334],[74.26742,15.75526],[74.28567,15.74147],[74.32343,15.77253],[74.35868,15.77582],[74.36021,15.81762],[74.38324,15.84624],[74.33827,15.85414],[74.36796,15.89368],[74.38737,15.85388],[74.40562,15.85471],[74.38578,15.90324],[74.42933,15.95323],[74.4645,16.04255],[74.43041,16.05871],[74.3839,16.03711],[74.36191,16.05492],[74.37481,16.08021],[74.42863,16.11256],[74.47614,16.08895],[74.49074,16.10354],[74.48008,16.14892],[74.50726,16.19017],[74.50267,16.22482],[74.47835,16.2486],[74.41648,16.25928],[74.41515,16.28241],[74.38508,16.27742],[74.37383,16.2953],[74.34691,16.29363],[74.35352,16.28142],[74.32739,16.26988],[74.32531,16.28798],[74.34231,16.29327],[74.33082,16.32516],[74.31649,16.32689],[74.32792,16.34227],[74.31893,16.38097],[74.3366,16.3924],[74.3553,16.3665],[74.36148,16.40019],[74.3362,16.40222],[74.33239,16.45384],[74.28963,16.46068],[74.29323,16.50427],[74.26198,16.47768],[74.24628,16.49652],[74.27902,16.50501],[74.26959,16.54614],[74.2829,16.52419],[74.30028,16.5308],[74.30752,16.50374],[74.32287,16.55508],[74.35925,16.55868],[74.35619,16.54036],[74.38366,16.52955],[74.39728,16.58027],[74.46654,16.6064],[74.45687,16.64605],[74.47149,16.66234],[74.4922,16.62822],[74.54587,16.6348],[74.54429,16.5938],[74.56006,16.592],[74.55416,16.5614],[74.5686,16.55363],[74.61869,16.58357],[74.63117,16.5774],[74.63764,16.6084],[74.68544,16.60611],[74.68935,16.61684],[74.65542,16.63919],[74.69115,16.67656],[74.69325,16.71676],[74.73183,16.71741],[74.77439,16.75015],[74.85065,16.77234],[74.91979,16.77154],[74.90786,16.85745],[74.96021,16.8794],[74.96339,16.90687],[74.92446,16.93666],[75.02666,16.94302],[75.02647,16.93264]]],[[[74.28975,15.8308],[74.30911,15.79856],[74.29779,15.78859],[74.26502,15.79445],[74.26035,15.82689],[74.27736,15.82729],[74.28975,15.8308]]]]}},{"type":"Feature","properties":{"DISTRICT":"Bellary","ST_NM":"Karnataka","ST_CEN_CD":29,"DT_CEN_CD":11,"censuscode":565},"geometry":{"type":"Polygon","coordinates":[[[77.15757,15.13706],[77.12088,15.04559],[77.08682,15.02775],[77.08357,15.00549],[77.04565,15.0109],[77.05151,15.0346],[77.00518,15.03493],[76.98624,15.01568],[76.88083,15.03383],[76.86462,15.06181],[76.80077,15.09571],[76.77798,15.07635],[76.78843,15.0217],[76.76081,14.988],[76.73628,14.98699],[76.73402,15.03298],[76.67314,15.01892],[76.68897,14.98008],[76.71868,14.96384],[76.70595,14.93026],[76.66157,14.94169],[76.66557,14.91583],[76.68257,14.88819],[76.69824,14.88894],[76.71463,14.83961],[76.74049,14.81437],[76.70235,14.81581],[76.67164,14.79289],[76.6492,14.71831],[76.59945,14.66599],[76.61311,14.64928],[76.60342,14.62421],[76.52922,14.56353],[76.42506,14.58134],[76.43255,14.61895],[76.39452,14.62783],[76.38144,14.66115],[76.34473,14.66642],[76.32373,14.69235],[76.2537,14.69763],[76.23145,14.64883],[76.18697,14.70067],[76.20441,14.73996],[76.1947,14.76602],[76.14602,14.80316],[76.15931,14.83001],[76.19639,14.81979],[76.19068,14.84687],[76.15797,14.84792],[76.12767,14.86961],[76.07461,14.86827],[76.08175,14.91],[76.0489,14.9286],[76.01285,14.89883],[75.94199,14.90005],[75.87456,14.86863],[75.87077,14.85431],[75.85739,14.88208],[75.8205,14.90005],[75.80377,14.87407],[75.80727,14.84256],[75.83704,14.8059],[75.82848,14.78234],[75.80071,14.76924],[75.77285,14.79274],[75.75712,14.73833],[75.71749,14.71801],[75.70272,14.72959],[75.72419,14.76849],[75.66479,14.80251],[75.69016,14.85401],[75.73398,14.86368],[75.73906,14.88733],[75.69715,14.89196],[75.68682,14.94314],[75.74352,14.94418],[75.8104,15.02352],[75.90508,15.05534],[75.9107,15.07559],[75.88386,15.10122],[75.90534,15.13144],[76.09372,15.16281],[76.11384,15.19817],[76.15893,15.19748],[76.18786,15.235],[76.23237,15.23279],[76.22066,15.20046],[76.2487,15.19134],[76.31084,15.26053],[76.33408,15.26292],[76.36296,15.32541],[76.49094,15.3424],[76.61186,15.44153],[76.66954,15.45033],[76.71359,15.48928],[76.79621,15.49957],[76.81301,15.51472],[76.81401,15.54664],[76.83574,15.56122],[76.83932,15.62963],[76.91195,15.69042],[76.93868,15.75131],[77.02818,15.83391],[77.06778,15.82764],[77.05102,15.72958],[77.08029,15.72603],[77.07996,15.69554],[77.12918,15.66381],[77.12041,15.6299],[77.08553,15.65755],[77.03324,15.6385],[77.03069,15.50481],[76.97581,15.51105],[76.97432,15.49567],[77.03154,15.44008],[77.04229,15.36378],[77.06594,15.32694],[77.11417,15.33242],[77.11996,15.29504],[77.15256,15.29092],[77.14981,15.27132],[77.16888,15.26438],[77.12808,15.23859],[77.16929,15.17388],[77.14012,15.14141],[77.15757,15.13706]]]}},{"type":"Feature","properties":{"DISTRICT":"Bidar","ST_NM":"Karnataka","ST_CEN_CD":29,"DT_CEN_CD":4,"censuscode":558},"geometry":{"type":"MultiPolygon","coordinates":[[[[77.34032,18.43689],[77.37272,18.44911],[77.37286,18.40223],[77.41331,18.39011],[77.39499,18.36751],[77.40151,18.34912],[77.35852,18.32013],[77.36564,18.30992],[77.43965,18.30819],[77.44022,18.28379],[77.46876,18.26176],[77.51367,18.28026],[77.51296,18.30851],[77.60668,18.27991],[77.57614,18.24248],[77.58859,18.21871],[77.5679,18.20253],[77.60146,18.15391],[77.60119,18.08646],[77.54937,18.05592],[77.59599,18.01244],[77.61044,18.02028],[77.65003,17.99555],[77.65728,17.97174],[77.64786,17.94878],[77.62757,17.96012],[77.62044,17.9053],[77.58895,17.91063],[77.60052,17.8729],[77.57652,17.87524],[77.55349,17.82051],[77.52969,17.82926],[77.51453,17.8039],[77.50812,17.78506],[77.56976,17.76668],[77.56584,17.7497],[77.45392,17.69384],[77.44353,17.58414],[77.37886,17.58343],[77.3611,17.6013],[77.30875,17.59568],[77.27725,17.62686],[77.20116,17.63073],[77.19085,17.61563],[77.15147,17.63148],[77.1349,17.68014],[77.11657,17.68477],[77.08877,17.65984],[77.0383,17.66804],[76.99523,17.69539],[76.97848,17.67846],[76.98622,17.65617],[76.9399,17.6078],[76.92007,17.61707],[76.92891,17.63478],[76.9016,17.64616],[76.79606,17.65105],[76.78351,17.63581],[76.76988,17.66606],[76.74547,17.66788],[76.71744,17.63963],[76.69877,17.64574],[76.71084,17.66086],[76.6922,17.68175],[76.69981,17.72779],[76.72935,17.73878],[76.7174,17.78362],[76.76458,17.78885],[76.79005,17.82818],[76.73919,17.85869],[76.74238,17.8996],[76.76774,17.90004],[76.77638,17.87861],[76.80468,17.87],[76.81014,17.88475],[76.88326,17.89477],[76.91862,17.91681],[76.91986,18.03481],[76.95686,18.04128],[76.94924,18.07532],[76.97052,18.09865],[76.92468,18.11759],[76.95629,18.18631],[76.99015,18.18993],[77.00006,18.16834],[77.02636,18.16419],[77.03521,18.18527],[77.06011,18.15391],[77.11146,18.15429],[77.1189,18.16918],[77.09807,18.19663],[77.15264,18.21811],[77.17321,18.28236],[77.20895,18.27949],[77.19815,18.31418],[77.21273,18.31522],[77.24786,18.37202],[77.23566,18.38755],[77.24303,18.41004],[77.31623,18.4408],[77.32037,18.45519],[77.33638,18.44332],[77.34032,18.43689]]],[[[77.30095,18.47674],[77.29395,18.45825],[77.26833,18.45297],[77.2749,18.47486],[77.29175,18.47617],[77.30095,18.47674]]]]}},{"type":"Feature","properties":{"DISTRICT":"Bijapur","ST_NM":"Karnataka","ST_CEN_CD":29,"DT_CEN_CD":3,"censuscode":557},"geometry":{"type":"Polygon","coordinates":[[[76.07344,17.33403],[76.06649,17.30923],[76.0973,17.29116],[76.09038,17.256],[76.1249,17.24469],[76.18853,17.18584],[76.21992,17.18411],[76.24437,17.1489],[76.36017,17.18392],[76.36072,17.13796],[76.39376,17.14026],[76.36335,17.1129],[76.38478,17.09887],[76.39004,17.06773],[76.4298,17.09925],[76.43531,16.98022],[76.40066,16.97579],[76.40117,16.9346],[76.41908,16.92635],[76.44614,16.94066],[76.4658,16.90275],[76.43528,16.89777],[76.43809,16.86727],[76.46967,16.84848],[76.46197,16.83303],[76.40382,16.85754],[76.37479,16.85856],[76.35823,16.83799],[76.35475,16.81872],[76.41398,16.81264],[76.41154,16.79757],[76.37877,16.80085],[76.37196,16.76742],[76.43541,16.76281],[76.44091,16.7416],[76.4205,16.71537],[76.45886,16.72128],[76.46186,16.70703],[76.42675,16.69536],[76.40507,16.64773],[76.43592,16.51122],[76.4373,16.43493],[76.33381,16.42392],[76.33398,16.3896],[76.31048,16.39472],[76.31601,16.34476],[76.29411,16.3245],[76.30221,16.28337],[76.34825,16.274],[76.35437,16.22587],[76.3293,16.19106],[76.29836,16.18222],[76.28151,16.14977],[76.06684,16.20779],[76.06688,16.25878],[76.02826,16.29841],[75.9592,16.29751],[75.78232,16.37989],[75.7245,16.39037],[75.64345,16.44017],[75.60464,16.44477],[75.57248,16.40996],[75.53634,16.46464],[75.49887,16.4516],[75.49339,16.41952],[75.45002,16.41333],[75.43472,16.43745],[75.46018,16.46668],[75.45632,16.5056],[75.48663,16.50901],[75.49221,16.52373],[75.47402,16.56048],[75.49267,16.59261],[75.46155,16.62146],[75.43928,16.69697],[75.49098,16.69802],[75.49406,16.73965],[75.42762,16.76677],[75.38784,16.76195],[75.37787,16.80831],[75.39458,16.8605],[75.33456,16.86811],[75.34289,16.95415],[75.3925,16.97801],[75.4289,16.96511],[75.46592,16.98699],[75.49061,16.9446],[75.53113,16.96837],[75.56874,16.96536],[75.57419,17.0095],[75.60802,17.00483],[75.60918,16.97138],[75.64368,16.95284],[75.6772,16.96575],[75.67097,17.03747],[75.64237,17.03812],[75.67715,17.06457],[75.67281,17.1152],[75.65227,17.11477],[75.62655,17.17169],[75.66075,17.2099],[75.6585,17.26294],[75.60438,17.30468],[75.61153,17.3437],[75.58315,17.35115],[75.57684,17.38426],[75.61423,17.3932],[75.60854,17.42086],[75.63406,17.47879],[75.67616,17.45929],[75.68986,17.41397],[75.73586,17.42329],[75.80141,17.37158],[75.81417,17.37533],[75.82384,17.42429],[75.85522,17.40914],[75.86123,17.38735],[75.88657,17.41881],[75.89304,17.35518],[75.93065,17.32572],[76.06312,17.35358],[76.07344,17.33403]]]}},{"type":"Feature","properties":{"DISTRICT":"Chamrajnagar","ST_NM":"Karnataka","ST_CEN_CD":29,"DT_CEN_CD":24,"censuscode":578},"geometry":{"type":"Polygon","coordinates":[[[77.32282,12.30709],[77.34696,12.27876],[77.4303,12.28665],[77.44885,12.2504],[77.4838,12.23384],[77.47583,12.21116],[77.49272,12.19906],[77.61467,12.20436],[77.73041,12.18099],[77.77961,12.11522],[77.70061,12.01947],[77.67594,11.94922],[77.53452,11.93069],[77.49515,11.94151],[77.48776,11.88516],[77.46357,11.8976],[77.46717,11.84823],[77.4302,11.75975],[77.37022,11.78773],[77.33679,11.76782],[77.29528,11.80712],[77.25209,11.81112],[77.23739,11.79239],[77.11283,11.7715],[77.11942,11.72122],[77.0816,11.73335],[77.05995,11.76602],[77.06636,11.78539],[77.03208,11.77291],[77.04139,11.79217],[77.01402,11.81117],[76.98228,11.80916],[76.96913,11.77328],[76.95389,11.78938],[76.90898,11.79121],[76.89023,11.73251],[76.83783,11.65196],[76.86044,11.60975],[76.84683,11.58238],[76.82594,11.60505],[76.75541,11.61823],[76.56857,11.61743],[76.54874,11.67775],[76.51234,11.7052],[76.45938,11.66219],[76.41806,11.67155],[76.40411,11.70802],[76.42572,11.72056],[76.41519,11.78732],[76.4289,11.79172],[76.41085,11.80977],[76.462,11.79029],[76.47002,11.81683],[76.49218,11.82081],[76.49095,11.8584],[76.53407,11.87074],[76.55543,11.85591],[76.57654,11.92113],[76.56017,11.94547],[76.57837,11.98454],[76.6439,11.9823],[76.65784,12.0089],[76.71662,11.98191],[76.74492,12.01081],[76.7821,11.98168],[76.79985,11.98759],[76.79293,12.0091],[76.81375,12.02925],[76.84439,11.9967],[76.88489,12.01447],[76.88914,11.99687],[76.90503,11.99577],[76.93871,12.01536],[76.89253,12.05843],[76.85744,12.06019],[76.88361,12.08406],[76.87491,12.11566],[76.84712,12.11451],[76.83299,12.13072],[76.85756,12.18474],[76.878,12.13352],[76.94726,12.09807],[76.97285,12.11542],[76.99394,12.17556],[77.01421,12.16397],[77.01464,12.13951],[77.04241,12.12897],[77.04633,12.16889],[77.1319,12.20486],[77.13492,12.22742],[77.11309,12.24232],[77.17,12.2595],[77.16608,12.30907],[77.31464,12.30388],[77.32282,12.30709]]]}},{"type":"Feature","properties":{"DISTRICT":"Chikkaballapura","ST_NM":"Karnataka","ST_CEN_CD":29,"DT_CEN_CD":28,"censuscode":582},"geometry":{"type":"Polygon","coordinates":[[[78.1996,13.56615],[78.19165,13.50883],[78.2081,13.48148],[78.20446,13.45191],[78.12875,13.39977],[78.14731,13.36459],[78.1217,13.32688],[78.13008,13.30141],[78.02381,13.28818],[77.98938,13.30738],[77.94564,13.27725],[77.91207,13.22864],[77.89248,13.2331],[77.90667,13.24891],[77.89211,13.25503],[77.85609,13.21794],[77.85163,13.24011],[77.81028,13.24059],[77.81909,13.29436],[77.83114,13.29074],[77.81354,13.30891],[77.82843,13.32578],[77.79252,13.35098],[77.75448,13.36132],[77.71987,13.35061],[77.71594,13.36493],[77.69976,13.33514],[77.65995,13.35523],[77.65925,13.39686],[77.63461,13.37468],[77.61567,13.38521],[77.6186,13.40122],[77.6027,13.39657],[77.61517,13.42046],[77.60393,13.44078],[77.59213,13.42078],[77.55556,13.41725],[77.55023,13.43455],[77.52304,13.43322],[77.48712,13.46642],[77.43746,13.4639],[77.41536,13.49475],[77.38701,13.50002],[77.39315,13.53215],[77.36265,13.61285],[77.40226,13.67246],[77.49057,13.68731],[77.49495,13.71439],[77.52926,13.69555],[77.52731,13.75146],[77.54719,13.75138],[77.56386,13.72417],[77.60344,13.75134],[77.62919,13.73522],[77.64471,13.74308],[77.62053,13.75465],[77.62222,13.76808],[77.67821,13.78535],[77.67171,13.76013],[77.7036,13.76935],[77.71691,13.74071],[77.72093,13.79844],[77.78669,13.82092],[77.78421,13.8439],[77.83597,13.86868],[77.81448,13.91661],[77.8264,13.94284],[77.89528,13.93927],[77.92001,13.90542],[77.97487,13.95877],[77.98707,13.95589],[77.98658,13.90165],[77.95096,13.88849],[77.95318,13.8283],[77.97442,13.82853],[77.99378,13.87003],[78.04658,13.86132],[78.04985,13.89515],[78.08375,13.86346],[78.11495,13.86214],[78.12728,13.78562],[78.09396,13.74219],[78.11852,13.719],[78.11455,13.6932],[78.07312,13.6969],[78.06743,13.6757],[78.09554,13.64232],[78.16509,13.65764],[78.16993,13.63241],[78.20341,13.62521],[78.18896,13.58801],[78.19856,13.56549],[78.1996,13.56615]]]}},{"type":"Feature","properties":{"DISTRICT":"Chikmagalur","ST_NM":"Karnataka","ST_CEN_CD":29,"DT_CEN_CD":16,"censuscode":570},"geometry":{"type":"Polygon","coordinates":[[[76.35411,13.5777],[76.36412,13.54611],[76.34965,13.51572],[76.31847,13.53784],[76.29373,13.52578],[76.29111,13.50399],[76.23727,13.50708],[76.23103,13.4672],[76.19988,13.46746],[76.20106,13.44981],[76.18936,13.45176],[76.19476,13.46833],[76.16231,13.46981],[76.13872,13.44142],[76.14082,13.40726],[76.09082,13.39262],[76.08926,13.37159],[76.04061,13.37147],[76.02765,13.32015],[76.04429,13.32083],[76.03902,13.24646],[75.89616,13.26396],[75.86381,13.24016],[75.85749,13.25732],[75.81904,13.25648],[75.80653,13.21502],[75.74345,13.206],[75.73038,13.18117],[75.75334,13.13909],[75.72785,13.09698],[75.74029,13.03082],[75.72751,13.02373],[75.69291,13.04445],[75.64602,13.03189],[75.59823,12.94404],[75.55699,12.91494],[75.55495,12.94484],[75.51596,12.97904],[75.53169,13.01723],[75.50336,13.07836],[75.48737,13.09235],[75.47249,13.0773],[75.46934,13.09666],[75.43393,13.1201],[75.40857,13.11027],[75.40578,13.15695],[75.37706,13.18137],[75.34362,13.1813],[75.29549,13.12587],[75.23649,13.13853],[75.16875,13.19985],[75.15153,13.26896],[75.13849,13.28995],[75.11508,13.28456],[75.08007,13.34454],[75.14696,13.3977],[75.15465,13.44901],[75.13749,13.47459],[75.22404,13.52777],[75.21978,13.60242],[75.24378,13.60553],[75.27707,13.56419],[75.32114,13.59225],[75.34434,13.582],[75.36969,13.59974],[75.3739,13.62754],[75.38918,13.61422],[75.40745,13.62618],[75.41507,13.65405],[75.38395,13.71134],[75.40322,13.70346],[75.45617,13.72461],[75.49177,13.76823],[75.54121,13.7295],[75.57782,13.75868],[75.6094,13.76079],[75.63552,13.70151],[75.67488,13.72188],[75.65692,13.74786],[75.67057,13.76348],[75.68635,13.74942],[75.68872,13.76657],[75.80704,13.79428],[75.82496,13.8174],[75.94091,13.81153],[75.97155,13.85499],[75.98982,13.84738],[76.02129,13.86222],[76.03416,13.89591],[76.05052,13.89956],[76.05731,13.88078],[76.09865,13.86353],[76.11621,13.81158],[76.13081,13.81249],[76.15151,13.72963],[76.22066,13.71148],[76.22274,13.67871],[76.28687,13.646],[76.27625,13.60238],[76.30399,13.58793],[76.33449,13.59419],[76.34766,13.57477],[76.35411,13.5777]]]}},{"type":"Feature","properties":{"DISTRICT":"Chitradurga","ST_NM":"Karnataka","ST_CEN_CD":29,"DT_CEN_CD":12,"censuscode":566},"geometry":{"type":"Polygon","coordinates":[[[76.76081,14.988],[76.83197,14.95617],[76.86863,14.96922],[76.86968,14.94283],[76.86454,14.89646],[76.84797,14.89168],[76.85305,14.80938],[76.83805,14.79027],[76.78447,14.78454],[76.80229,14.73995],[76.7755,14.67922],[76.76519,14.60173],[76.78062,14.5958],[76.80421,14.53331],[76.83215,14.52868],[76.87497,14.47419],[76.91138,14.48994],[76.97848,14.48418],[76.96943,14.45765],[76.94883,14.45098],[76.94665,14.40546],[76.91807,14.41942],[76.88804,14.39614],[76.88405,14.35228],[76.90402,14.32519],[76.95193,14.30649],[76.93004,14.27822],[76.94311,14.2462],[77.0096,14.23778],[77.004,14.19826],[77.02544,14.17899],[76.947,14.19546],[76.94235,14.17205],[76.89667,14.1651],[76.88894,14.13714],[76.93236,14.13339],[76.95181,14.09152],[76.92719,14.0584],[76.89567,14.05123],[76.87584,14.012],[76.83787,14.01484],[76.82517,13.99397],[76.84954,13.96235],[76.8236,13.94819],[76.81491,13.91604],[76.76816,13.92296],[76.72329,13.89474],[76.7673,13.83555],[76.76985,13.79953],[76.76393,13.77929],[76.72553,13.7961],[76.6985,13.76929],[76.68677,13.6885],[76.67483,13.71799],[76.63083,13.71415],[76.62119,13.73348],[76.5734,13.7131],[76.57928,13.68769],[76.52993,13.66309],[76.51813,13.63276],[76.46118,13.61673],[76.45532,13.58943],[76.41613,13.57756],[76.40116,13.59277],[76.38364,13.577],[76.37643,13.59127],[76.34766,13.57477],[76.33449,13.59419],[76.29321,13.59019],[76.27408,13.60508],[76.28687,13.646],[76.22274,13.67871],[76.22066,13.71148],[76.15151,13.72963],[76.13081,13.81249],[76.11621,13.81158],[76.09865,13.86353],[76.05731,13.88078],[76.05052,13.89956],[76.0314,13.89735],[76.04649,13.94013],[76.06796,13.94142],[76.07245,13.97999],[76.04483,13.98609],[76.05406,14.08374],[76.0255,14.11337],[76.06156,14.15889],[76.06207,14.21972],[76.07995,14.24358],[76.13194,14.2548],[76.11083,14.31543],[76.15688,14.31958],[76.15676,14.38379],[76.13785,14.42567],[76.18521,14.45823],[76.26157,14.44166],[76.2786,14.40571],[76.38387,14.42039],[76.46017,14.45103],[76.46009,14.50134],[76.53338,14.53541],[76.5083,14.56379],[76.5376,14.56571],[76.60342,14.62421],[76.61311,14.64928],[76.59945,14.66599],[76.6492,14.71831],[76.67164,14.79289],[76.70235,14.81581],[76.74136,14.81716],[76.66557,14.91583],[76.66157,14.94169],[76.70595,14.93026],[76.71868,14.96384],[76.68897,14.98008],[76.67314,15.01892],[76.73402,15.03298],[76.73628,14.98699],[76.76049,14.98876],[76.76081,14.988]]]}},{"type":"Feature","properties":{"DISTRICT":"Dakshina Kannada","ST_NM":"Karnataka","ST_CEN_CD":29,"DT_CEN_CD":21,"censuscode":575},"geometry":{"type":"MultiPolygon","coordinates":[[[[75.20194,13.1814],[75.23649,13.13853],[75.29549,13.12587],[75.34362,13.1813],[75.37706,13.18137],[75.40578,13.15695],[75.40857,13.11027],[75.43393,13.1201],[75.46934,13.09666],[75.47249,13.0773],[75.48737,13.09235],[75.52289,13.05306],[75.53223,13.00627],[75.51596,12.97904],[75.55495,12.94484],[75.56296,12.86774],[75.60334,12.87617],[75.62323,12.85716],[75.61449,12.79819],[75.65975,12.75045],[75.65112,12.72016],[75.62751,12.70742],[75.63361,12.69187],[75.6728,12.70049],[75.64292,12.62961],[75.67266,12.55493],[75.61793,12.51041],[75.59267,12.53714],[75.55889,12.50378],[75.56621,12.48667],[75.52901,12.49762],[75.49636,12.48229],[75.49156,12.4601],[75.4652,12.47189],[75.47217,12.49778],[75.43611,12.52815],[75.41667,12.50166],[75.38512,12.49757],[75.37408,12.47368],[75.34277,12.46091],[75.33667,12.49508],[75.30661,12.50155],[75.30629,12.52208],[75.28266,12.52289],[75.27234,12.55826],[75.32949,12.58998],[75.27808,12.61637],[75.22409,12.5673],[75.20447,12.58519],[75.20241,12.62972],[75.15996,12.6216],[75.14365,12.63783],[75.16202,12.6686],[75.15128,12.68086],[75.11314,12.68038],[75.08641,12.7022],[75.08344,12.67085],[75.04799,12.66448],[75.04977,12.71908],[75.007,12.71354],[75.01209,12.72716],[74.98455,12.73417],[75.00845,12.76474],[74.99201,12.79474],[74.98162,12.77951],[74.86304,12.75828],[74.80712,12.89469],[74.77071,13.07756],[74.7819,13.05814],[74.79493,13.1161],[74.86282,13.12607],[74.8737,13.09718],[74.89031,13.09551],[74.88385,13.04787],[74.89614,13.03037],[74.93232,13.03446],[74.92809,13.00875],[74.94081,13.00458],[74.97769,13.02708],[74.99891,13.01549],[74.98961,12.98907],[75.014,12.98412],[75.03032,13.01595],[75.07687,13.04528],[75.12722,13.13238],[75.16197,13.13328],[75.20001,13.18012],[75.20194,13.1814]]],[[[74.68802,13.65284],[74.67766,13.66676],[74.69128,13.65666],[74.68802,13.65284]]],[[[74.7429,13.63968],[74.72877,13.64271],[74.74463,13.64087],[74.7429,13.63968]]],[[[74.67504,13.37635],[74.66732,13.38483],[74.67541,13.37817],[74.67504,13.37635]]]]}},{"type":"Feature","properties":{"DISTRICT":"Davanagere","ST_NM":"Karnataka","ST_CEN_CD":29,"DT_CEN_CD":13,"censuscode":567},"geometry":{"type":"Polygon","coordinates":[[[76.5083,14.56379],[76.53338,14.53541],[76.46009,14.50134],[76.46017,14.45103],[76.38387,14.42039],[76.2786,14.40571],[76.26157,14.44166],[76.18521,14.45823],[76.13785,14.42567],[76.15676,14.38379],[76.15688,14.31958],[76.11083,14.31543],[76.13194,14.2548],[76.07995,14.24358],[76.06207,14.21972],[76.06156,14.15889],[76.0255,14.11337],[76.03282,14.09184],[76.05256,14.09066],[76.04421,13.99049],[76.05327,13.97576],[76.07245,13.97999],[76.06944,13.94604],[76.03131,13.91592],[76.03112,13.86942],[75.98982,13.84738],[75.97155,13.85499],[75.95057,13.81499],[75.87992,13.81029],[75.8231,14.01694],[75.79808,14.03166],[75.82179,14.06334],[75.81085,14.10156],[75.75747,14.10791],[75.72293,14.07453],[75.66743,14.06561],[75.63592,14.07856],[75.58623,14.05715],[75.51624,14.09626],[75.45165,14.09487],[75.40023,14.11442],[75.44357,14.16171],[75.48537,14.17402],[75.45317,14.20374],[75.50802,14.21655],[75.52649,14.20212],[75.52993,14.27689],[75.57954,14.2765],[75.60963,14.31417],[75.63277,14.31364],[75.6216,14.34285],[75.63613,14.464],[75.66006,14.4504],[75.68798,14.48967],[75.71518,14.47202],[75.75456,14.51358],[75.79841,14.5103],[75.82019,14.56648],[75.80533,14.59918],[75.81233,14.65124],[75.79946,14.68029],[75.77137,14.67409],[75.73928,14.69013],[75.76439,14.72316],[75.75851,14.76309],[75.77285,14.79274],[75.80071,14.76924],[75.83605,14.79813],[75.80727,14.84256],[75.80377,14.87407],[75.8205,14.90005],[75.85739,14.88208],[75.87077,14.85431],[75.87456,14.86863],[75.94199,14.90005],[76.01285,14.89883],[76.0489,14.9286],[76.08175,14.91],[76.07461,14.86827],[76.12767,14.86961],[76.15797,14.84792],[76.19068,14.84687],[76.19639,14.81979],[76.15931,14.83001],[76.14602,14.80316],[76.1947,14.76602],[76.20441,14.73996],[76.18697,14.70067],[76.23145,14.64883],[76.2537,14.69763],[76.32373,14.69235],[76.34473,14.66642],[76.38144,14.66115],[76.39452,14.62783],[76.43255,14.61895],[76.42506,14.58134],[76.50824,14.56384],[76.5083,14.56379]]]}},{"type":"Feature","properties":{"DISTRICT":"Dharwad","ST_NM":"Karnataka","ST_CEN_CD":29,"DT_CEN_CD":8,"censuscode":562},"geometry":{"type":"Polygon","coordinates":[[[75.41951,15.06168],[75.36884,15.04732],[75.33998,15.06863],[75.33093,15.08092],[75.35225,15.1023],[75.33839,15.15946],[75.30983,15.15462],[75.3108,15.13998],[75.26369,15.11556],[75.25844,15.09643],[75.24221,15.1072],[75.14245,15.09979],[75.15567,15.14509],[75.13885,15.15884],[75.13262,15.1414],[75.10814,15.13829],[75.11475,15.11591],[75.08016,15.10973],[75.08132,15.0726],[74.94047,15.06623],[74.91143,15.03768],[74.89315,15.04484],[74.88021,15.07237],[74.89194,15.09811],[74.85863,15.10362],[74.82876,15.13331],[74.90903,15.25074],[74.89877,15.299],[74.87615,15.30049],[74.85513,15.34048],[74.83472,15.3334],[74.82119,15.38384],[74.79048,15.37964],[74.76539,15.3991],[74.76707,15.41622],[74.74262,15.4115],[74.73069,15.42953],[74.74489,15.46142],[74.72706,15.48915],[74.74666,15.49451],[74.77692,15.45957],[74.81348,15.50317],[74.79795,15.5459],[74.84055,15.57428],[74.8307,15.60936],[74.89028,15.62981],[74.96381,15.62535],[74.96744,15.65145],[75.02033,15.64489],[75.04984,15.68193],[75.06424,15.67003],[75.05691,15.63135],[75.09261,15.60865],[75.10704,15.6717],[75.20309,15.64986],[75.20262,15.68172],[75.23733,15.67938],[75.25072,15.64638],[75.27321,15.65047],[75.27885,15.68901],[75.2958,15.69129],[75.33699,15.67427],[75.33685,15.64807],[75.36094,15.64601],[75.3646,15.66885],[75.41365,15.65571],[75.48936,15.70217],[75.50395,15.64831],[75.55636,15.64746],[75.53185,15.53848],[75.47653,15.52071],[75.47293,15.49313],[75.49503,15.47083],[75.49301,15.37216],[75.4718,15.39667],[75.44595,15.38528],[75.45873,15.34865],[75.45127,15.30173],[75.41504,15.30059],[75.41973,15.27566],[75.40452,15.27253],[75.42556,15.22478],[75.44907,15.21549],[75.43452,15.19844],[75.40165,15.1985],[75.39789,15.16528],[75.41468,15.1629],[75.43544,15.10594],[75.41932,15.06209],[75.41951,15.06168]]]}},{"type":"Feature","properties":{"DISTRICT":"Gadag","ST_NM":"Karnataka","ST_CEN_CD":29,"DT_CEN_CD":7,"censuscode":561},"geometry":{"type":"Polygon","coordinates":[[[75.84568,15.83773],[75.94002,15.78884],[75.96351,15.78423],[75.98957,15.80216],[75.99611,15.78046],[76.04191,15.76397],[76.04243,15.71951],[76.00719,15.71674],[75.98287,15.69083],[75.98298,15.66672],[76.01323,15.68153],[76.01169,15.66356],[75.94499,15.67778],[75.91573,15.70112],[75.90808,15.74549],[75.8853,15.73696],[75.87239,15.6734],[75.88659,15.67099],[75.89927,15.60688],[75.86811,15.59482],[75.85995,15.51363],[75.81831,15.50804],[75.81027,15.48723],[75.82304,15.45217],[75.85959,15.44445],[75.86576,15.40758],[75.90343,15.40237],[75.88995,15.28795],[75.95047,15.13709],[75.90534,15.13144],[75.88537,15.10676],[75.9107,15.07559],[75.90508,15.05534],[75.8104,15.02352],[75.74352,14.94418],[75.70199,14.94797],[75.69161,14.97408],[75.63462,14.99452],[75.60037,14.95485],[75.54422,14.97819],[75.53501,15.03075],[75.41951,15.06168],[75.43544,15.10594],[75.41468,15.1629],[75.39674,15.17154],[75.40165,15.1985],[75.44894,15.20801],[75.40452,15.27253],[75.41973,15.27566],[75.41504,15.30059],[75.45127,15.30173],[75.45873,15.34865],[75.44595,15.38528],[75.4718,15.39667],[75.49301,15.37216],[75.49503,15.47083],[75.47293,15.49313],[75.47653,15.52071],[75.53185,15.53848],[75.55636,15.64746],[75.50395,15.64831],[75.48936,15.70217],[75.41365,15.65571],[75.3646,15.66885],[75.36094,15.64601],[75.33685,15.64807],[75.33699,15.67427],[75.27885,15.68901],[75.27543,15.7393],[75.31404,15.73122],[75.30395,15.81079],[75.34092,15.82628],[75.34225,15.8038],[75.36529,15.80473],[75.37753,15.84302],[75.42768,15.84238],[75.41613,15.78361],[75.43807,15.77964],[75.46018,15.81656],[75.45546,15.88646],[75.49506,15.87396],[75.55587,15.82469],[75.58763,15.83363],[75.62068,15.82216],[75.62056,15.8353],[75.64529,15.84102],[75.6571,15.82716],[75.66345,15.83663],[75.74554,15.81347],[75.77973,15.81738],[75.7783,15.85036],[75.83273,15.83912],[75.84568,15.83773]]]}},{"type":"Feature","properties":{"DISTRICT":"Gulbarga","ST_NM":"Karnataka","ST_CEN_CD":29,"DT_CEN_CD":25,"censuscode":579},"geometry":{"type":"Polygon","coordinates":[[[76.6922,17.68175],[76.71284,17.63928],[76.73426,17.66608],[76.76988,17.66606],[76.77548,17.63819],[76.79606,17.65105],[76.9016,17.64616],[76.92891,17.63478],[76.92007,17.61707],[76.9399,17.6078],[76.98622,17.65617],[76.97848,17.67846],[76.99176,17.69444],[77.08877,17.65984],[77.11657,17.68477],[77.1349,17.68014],[77.15147,17.63148],[77.19085,17.61563],[77.20116,17.63073],[77.27725,17.62686],[77.30875,17.59568],[77.3611,17.6013],[77.37886,17.58343],[77.46487,17.57974],[77.49373,17.56902],[77.50538,17.54368],[77.53124,17.57602],[77.55226,17.5523],[77.59378,17.56563],[77.5957,17.53559],[77.68982,17.50871],[77.68822,17.47595],[77.65222,17.48423],[77.65689,17.50627],[77.64455,17.47905],[77.61501,17.47296],[77.61468,17.44727],[77.57717,17.45719],[77.57655,17.43254],[77.53736,17.44392],[77.51399,17.43022],[77.51454,17.41552],[77.53942,17.40712],[77.53193,17.37517],[77.50299,17.35711],[77.45534,17.37346],[77.45887,17.34092],[77.43777,17.29132],[77.45831,17.27899],[77.41867,17.23301],[77.38402,17.22286],[77.40252,17.21189],[77.36364,17.16476],[77.38004,17.14108],[77.46656,17.10741],[77.50226,17.0187],[77.4681,16.95623],[77.45652,16.88511],[77.40812,16.8812],[77.41034,16.89983],[77.37564,16.89673],[77.33507,16.9307],[77.27338,16.9246],[77.23954,16.94256],[77.10394,16.90028],[77.07196,16.95046],[77.02136,16.90854],[77.04131,16.8792],[76.98273,16.85073],[76.99245,16.81871],[76.91646,16.82209],[76.90421,16.85157],[76.92283,16.88171],[76.89547,16.896],[76.75541,16.831],[76.73869,16.77734],[76.69473,16.78626],[76.65108,16.73075],[76.6052,16.76563],[76.52704,16.75388],[76.50098,16.71732],[76.47547,16.70927],[76.45886,16.72128],[76.4205,16.71537],[76.44371,16.75622],[76.37196,16.76742],[76.37877,16.80085],[76.41154,16.79757],[76.41398,16.81264],[76.35475,16.81872],[76.37479,16.85856],[76.47025,16.83929],[76.43443,16.88101],[76.43528,16.89777],[76.46538,16.90035],[76.45923,16.92426],[76.44614,16.94066],[76.41908,16.92635],[76.40117,16.9346],[76.40066,16.97579],[76.43531,16.98022],[76.4298,17.09925],[76.39004,17.06773],[76.38478,17.09887],[76.36335,17.1129],[76.39376,17.14026],[76.36072,17.13796],[76.36017,17.18392],[76.24437,17.1489],[76.21992,17.18411],[76.18853,17.18584],[76.1249,17.24469],[76.09038,17.256],[76.0973,17.29116],[76.06676,17.31568],[76.09596,17.3595],[76.12131,17.36805],[76.16341,17.34267],[76.16406,17.30214],[76.17605,17.29903],[76.1726,17.35049],[76.24484,17.37646],[76.25051,17.35971],[76.27075,17.35835],[76.27648,17.33239],[76.31792,17.33134],[76.31371,17.34515],[76.3444,17.35183],[76.3531,17.31254],[76.38263,17.31377],[76.41164,17.34964],[76.40903,17.37121],[76.36284,17.37696],[76.37402,17.43625],[76.33439,17.43407],[76.33151,17.47057],[76.37588,17.49527],[76.34422,17.49608],[76.36691,17.52389],[76.34073,17.54425],[76.33233,17.59647],[76.41659,17.60586],[76.42964,17.64604],[76.49039,17.66232],[76.48745,17.71511],[76.52482,17.71685],[76.52487,17.76046],[76.57462,17.76161],[76.57456,17.70385],[76.61587,17.76994],[76.66473,17.68963],[76.68991,17.68031],[76.6922,17.68175]]]}},{"type":"Feature","properties":{"DISTRICT":"Hassan","ST_NM":"Karnataka","ST_CEN_CD":29,"DT_CEN_CD":20,"censuscode":574},"geometry":{"type":"Polygon","coordinates":[[[76.63191,13.00563],[76.63235,12.97189],[76.613,12.9655],[76.61862,12.94313],[76.59665,12.92022],[76.59653,12.88025],[76.57692,12.84789],[76.52265,12.84125],[76.5024,12.82123],[76.49908,12.76907],[76.49121,12.78509],[76.47789,12.77224],[76.45819,12.78008],[76.47048,12.80211],[76.42793,12.82521],[76.42954,12.8516],[76.40985,12.86634],[76.41171,12.8458],[76.39033,12.84557],[76.37334,12.80975],[76.33157,12.80665],[76.35189,12.78579],[76.35895,12.74851],[76.3447,12.73208],[76.36543,12.70691],[76.32397,12.6331],[76.33135,12.61243],[76.31095,12.60997],[76.30088,12.63123],[76.29472,12.61735],[76.27799,12.63068],[76.26575,12.61974],[76.22222,12.64223],[76.19671,12.57556],[76.15994,12.5757],[76.15351,12.54462],[76.11637,12.51205],[76.09183,12.54363],[76.05244,12.55302],[76.04755,12.57465],[76.02082,12.5665],[75.99325,12.58298],[75.96674,12.55855],[75.94291,12.60206],[75.94421,12.6765],[75.96061,12.68111],[75.96791,12.71032],[75.94445,12.71638],[75.93921,12.76113],[75.97332,12.78201],[75.97459,12.80435],[75.9306,12.80798],[75.92403,12.82718],[75.90996,12.81458],[75.87935,12.83307],[75.86531,12.82016],[75.87471,12.76984],[75.84961,12.74848],[75.85304,12.72672],[75.88746,12.70497],[75.87951,12.6713],[75.83942,12.66858],[75.81199,12.69995],[75.76243,12.675],[75.70714,12.70832],[75.63361,12.69187],[75.62751,12.70742],[75.65112,12.72016],[75.65975,12.75045],[75.61449,12.79819],[75.62323,12.85716],[75.60334,12.87617],[75.56296,12.86774],[75.55591,12.90944],[75.59823,12.94404],[75.64602,13.03189],[75.69291,13.04445],[75.72751,13.02373],[75.74029,13.03082],[75.72785,13.09698],[75.75334,13.13909],[75.73038,13.18117],[75.74345,13.206],[75.80653,13.21502],[75.81904,13.25648],[75.85749,13.25732],[75.86381,13.24016],[75.89616,13.26396],[76.03902,13.24646],[76.04429,13.32083],[76.02793,13.32916],[76.04365,13.37446],[76.08926,13.37159],[76.09082,13.39262],[76.14082,13.40726],[76.13872,13.44142],[76.16231,13.46981],[76.19476,13.46833],[76.18936,13.45176],[76.20106,13.44981],[76.19988,13.46746],[76.23103,13.4672],[76.23727,13.50708],[76.29111,13.50399],[76.29373,13.52578],[76.31847,13.53784],[76.34534,13.51363],[76.37124,13.54757],[76.42698,13.52344],[76.39841,13.50248],[76.41843,13.44732],[76.38763,13.37014],[76.34645,13.35978],[76.35645,13.25026],[76.38027,13.23109],[76.37235,13.19857],[76.42741,13.18428],[76.45744,13.14569],[76.47538,13.14693],[76.46974,13.09049],[76.49971,13.09526],[76.51746,13.06849],[76.612,13.06847],[76.60729,13.01399],[76.62392,13.00585],[76.63191,13.00563]]]}},{"type":"Feature","properties":{"DISTRICT":"Haveri","ST_NM":"Karnataka","ST_CEN_CD":29,"DT_CEN_CD":10,"censuscode":564},"geometry":{"type":"Polygon","coordinates":[[[75.41951,15.06168],[75.53501,15.03075],[75.54422,14.97819],[75.60037,14.95485],[75.63462,14.99452],[75.69161,14.97408],[75.69715,14.89196],[75.73906,14.88733],[75.73398,14.86368],[75.69016,14.85401],[75.66479,14.80251],[75.72419,14.76849],[75.70628,14.72166],[75.76296,14.73477],[75.74012,14.68483],[75.79946,14.68029],[75.81233,14.65124],[75.80533,14.59918],[75.82019,14.56648],[75.79841,14.5103],[75.75456,14.51358],[75.71518,14.47202],[75.68798,14.48967],[75.66006,14.4504],[75.63613,14.464],[75.6216,14.34285],[75.63385,14.31686],[75.60963,14.31417],[75.57954,14.2765],[75.53632,14.27701],[75.50273,14.30672],[75.49961,14.34339],[75.47673,14.34503],[75.47736,14.31702],[75.34905,14.38754],[75.35952,14.40895],[75.37832,14.41011],[75.38135,14.43162],[75.34401,14.43442],[75.34727,14.48291],[75.32053,14.51133],[75.2701,14.51271],[75.29692,14.53845],[75.26539,14.57916],[75.24791,14.57955],[75.23788,14.55678],[75.22902,14.58343],[75.20954,14.57395],[75.18491,14.5854],[75.18216,14.59805],[75.20563,14.59725],[75.20641,14.63546],[75.14648,14.61766],[75.10142,14.64845],[75.05125,14.64862],[75.03435,14.66465],[75.0323,14.70676],[75.01769,14.7117],[75.04645,14.73783],[75.04245,14.76884],[75.07129,14.77981],[75.05805,14.81167],[75.09462,14.80884],[75.0702,14.83601],[75.07071,14.91811],[75.10602,14.93225],[75.06958,15.01575],[75.08016,15.10973],[75.11475,15.11591],[75.10814,15.13829],[75.14665,15.15864],[75.14245,15.09979],[75.24221,15.1072],[75.25844,15.09643],[75.26369,15.11556],[75.3108,15.13998],[75.30983,15.15462],[75.33839,15.15946],[75.35225,15.1023],[75.33093,15.08092],[75.33998,15.06863],[75.36884,15.04732],[75.41887,15.06012],[75.41951,15.06168]]]}},{"type":"Feature","properties":{"DISTRICT":"Kodagu","ST_NM":"Karnataka","ST_CEN_CD":29,"DT_CEN_CD":22,"censuscode":576},"geometry":{"type":"Polygon","coordinates":[[[76.02082,12.5665],[76.01486,12.55312],[75.99377,12.5568],[75.9978,12.52366],[75.96395,12.50293],[75.97501,12.4479],[75.93071,12.43728],[75.9126,12.39317],[75.99997,12.32504],[76.02314,12.25176],[76.06225,12.24984],[76.1066,12.19445],[76.13348,12.19254],[76.18931,12.05219],[76.18416,12.03048],[76.1289,11.9839],[76.00391,11.92975],[75.87103,11.9515],[75.83187,11.98376],[75.83148,12.01157],[75.79789,12.05323],[75.8043,12.07689],[75.7563,12.08305],[75.72134,12.06766],[75.70575,12.10587],[75.66643,12.09666],[75.63886,12.14781],[75.58035,12.15607],[75.48558,12.29131],[75.42168,12.29143],[75.43297,12.30457],[75.41247,12.34635],[75.42382,12.37174],[75.3677,12.41196],[75.36865,12.45656],[75.39408,12.45003],[75.42478,12.46504],[75.41667,12.50166],[75.43611,12.52815],[75.47217,12.49778],[75.4652,12.47189],[75.49156,12.4601],[75.49636,12.48229],[75.52901,12.49762],[75.56621,12.48667],[75.5575,12.5011],[75.58854,12.53518],[75.61793,12.51041],[75.67113,12.54994],[75.64292,12.62961],[75.6728,12.70049],[75.70714,12.70832],[75.76243,12.675],[75.81199,12.69995],[75.83942,12.66858],[75.88457,12.67319],[75.88746,12.70497],[75.85304,12.72672],[75.84957,12.74964],[75.87471,12.76984],[75.86531,12.82016],[75.87935,12.83307],[75.97459,12.80435],[75.97332,12.78201],[75.93921,12.76113],[75.94445,12.71638],[75.96791,12.71032],[75.96061,12.68111],[75.94421,12.6765],[75.93839,12.62797],[75.96674,12.55855],[75.99325,12.58298],[76.00546,12.57456],[76.02082,12.5665]]]}},{"type":"Feature","properties":{"DISTRICT":"Kolar","ST_NM":"Karnataka","ST_CEN_CD":29,"DT_CEN_CD":27,"censuscode":581},"geometry":{"type":"Polygon","coordinates":[[[77.92568,13.23829],[77.94564,13.27725],[77.98938,13.30738],[78.02381,13.28818],[78.13008,13.30141],[78.1217,13.32688],[78.14731,13.36459],[78.12875,13.39977],[78.20446,13.45191],[78.2081,13.48148],[78.19165,13.50883],[78.19897,13.56405],[78.23728,13.59637],[78.25933,13.58351],[78.4007,13.58759],[78.37266,13.46165],[78.38148,13.40067],[78.36539,13.36474],[78.40773,13.34212],[78.37733,13.32979],[78.40166,13.31351],[78.4349,13.32897],[78.44648,13.30826],[78.48231,13.31789],[78.48314,13.30112],[78.53153,13.26573],[78.53947,13.28599],[78.56137,13.2862],[78.5664,13.30959],[78.5883,13.2723],[78.56974,13.23738],[78.57959,13.21455],[78.55185,13.19751],[78.58007,13.16683],[78.54973,13.16187],[78.54643,13.14105],[78.51971,13.12986],[78.53898,13.1077],[78.51292,13.09195],[78.51563,13.0631],[78.46256,13.04178],[78.46903,12.97357],[78.43368,12.97886],[78.43842,12.96081],[78.41214,12.94301],[78.41874,12.91838],[78.4281,12.9305],[78.46737,12.90316],[78.46554,12.86361],[78.44701,12.91102],[78.38942,12.90543],[78.35638,12.9382],[78.33816,12.89936],[78.32444,12.89873],[78.3219,12.88394],[78.33849,12.88419],[78.31505,12.87587],[78.31411,12.85733],[78.25197,12.85741],[78.23164,12.76264],[78.13142,12.77983],[78.05718,12.85196],[78.02528,12.85543],[78.00367,12.82317],[78.01189,12.80498],[77.99178,12.80513],[77.95574,12.85869],[77.9432,12.8223],[77.92063,12.82902],[77.9446,12.86538],[77.92978,12.8728],[77.93438,12.88714],[77.89229,12.86762],[77.85709,12.87658],[77.86417,12.9127],[77.84147,12.91927],[77.87565,12.94255],[77.86502,12.97183],[77.89371,13.04805],[77.94089,13.06841],[77.9418,13.08268],[77.92742,13.07499],[77.90272,13.09903],[77.91586,13.11641],[77.93821,13.10668],[77.93995,13.12237],[77.95758,13.12449],[77.96307,13.18588],[77.95821,13.21738],[77.94636,13.21446],[77.9665,13.24336],[77.92736,13.23842],[77.92568,13.23829]]]}},{"type":"Feature","properties":{"DISTRICT":"Koppal","ST_NM":"Karnataka","ST_CEN_CD":29,"DT_CEN_CD":6,"censuscode":560},"geometry":{"type":"Polygon","coordinates":[[[76.28563,15.90133],[76.34594,15.89729],[76.35026,15.86252],[76.35549,15.90355],[76.37511,15.91436],[76.37611,15.90151],[76.42761,15.88772],[76.41964,15.86808],[76.45121,15.85095],[76.45141,15.83608],[76.41298,15.802],[76.44023,15.78386],[76.44403,15.73595],[76.49222,15.70517],[76.51231,15.71551],[76.53194,15.69928],[76.59846,15.6993],[76.59997,15.67278],[76.67213,15.65684],[76.67023,15.63818],[76.69256,15.64544],[76.69481,15.62268],[76.6806,15.62619],[76.69041,15.59448],[76.75315,15.58842],[76.76029,15.56531],[76.814,15.54661],[76.81301,15.51472],[76.78107,15.49293],[76.70301,15.48517],[76.66954,15.45033],[76.61186,15.44153],[76.49094,15.3424],[76.36296,15.32541],[76.33408,15.26292],[76.31084,15.26053],[76.2487,15.19134],[76.22066,15.20046],[76.23237,15.23279],[76.18786,15.235],[76.15893,15.19748],[76.11384,15.19817],[76.09372,15.16281],[76.03705,15.14403],[75.9784,15.15305],[75.95047,15.13709],[75.88995,15.28795],[75.90343,15.40237],[75.86576,15.40758],[75.85959,15.44445],[75.82304,15.45217],[75.81027,15.48723],[75.81831,15.50804],[75.85995,15.51363],[75.86811,15.59482],[75.89927,15.60688],[75.88659,15.67099],[75.87239,15.6734],[75.8853,15.73696],[75.90808,15.74549],[75.91573,15.70112],[75.94499,15.67778],[76.01169,15.66356],[76.01323,15.68153],[75.98298,15.66672],[75.98287,15.69083],[76.00719,15.71674],[76.04243,15.71951],[76.04191,15.76397],[75.99611,15.78046],[75.98957,15.80216],[75.96351,15.78423],[75.94002,15.78884],[75.84568,15.83773],[75.84813,15.86863],[75.82549,15.86435],[75.82849,15.89922],[75.78061,15.89744],[75.77359,15.91371],[75.87749,15.9325],[75.91946,15.90628],[75.92944,15.87444],[75.96559,15.85827],[75.97933,15.87211],[75.97749,15.98715],[75.99441,16.00374],[76.08087,16.01],[76.06009,15.9047],[76.11802,15.8849],[76.20299,15.94083],[76.28563,15.90132],[76.28563,15.90133]]]}},{"type":"Feature","properties":{"DISTRICT":"Mandya","ST_NM":"Karnataka","ST_CEN_CD":29,"DT_CEN_CD":19,"censuscode":573},"geometry":{"type":"MultiPolygon","coordinates":[[[[76.68466,13.04283],[76.76237,13.0347],[76.82746,13.00025],[76.8521,12.97733],[76.83923,12.94429],[76.89007,12.93132],[76.89337,12.91753],[76.86453,12.90667],[76.88787,12.89788],[76.89169,12.85331],[76.92522,12.80436],[76.97113,12.80253],[77.01809,12.7619],[77.04544,12.77616],[77.05175,12.74753],[77.08126,12.74608],[77.07474,12.68243],[77.09848,12.67491],[77.102,12.62868],[77.12417,12.62269],[77.10861,12.6012],[77.13037,12.56774],[77.12907,12.55157],[77.11503,12.55297],[77.12636,12.48044],[77.14773,12.46163],[77.16921,12.48351],[77.23959,12.49915],[77.22652,12.4751],[77.2695,12.46493],[77.28734,12.3919],[77.31453,12.38994],[77.32867,12.36561],[77.32282,12.30709],[77.16608,12.30907],[77.17,12.2595],[77.11133,12.24155],[77.10709,12.22029],[76.99976,12.24368],[76.99181,12.28673],[76.97312,12.28964],[76.97645,12.30595],[76.99805,12.30878],[76.97855,12.32652],[76.97735,12.35237],[76.95525,12.35506],[76.95589,12.32796],[76.924,12.32452],[76.94027,12.37582],[76.91998,12.44154],[76.89688,12.40841],[76.83593,12.40229],[76.80561,12.35476],[76.77122,12.35005],[76.75803,12.30181],[76.73302,12.31931],[76.71971,12.35496],[76.70072,12.35014],[76.68139,12.36668],[76.68629,12.39026],[76.65098,12.39546],[76.62515,12.3676],[76.56508,12.3519],[76.56825,12.42452],[76.45806,12.47847],[76.42667,12.5441],[76.39205,12.55262],[76.39654,12.57171],[76.38109,12.57474],[76.34508,12.65602],[76.36543,12.70691],[76.3447,12.73208],[76.35895,12.74851],[76.35189,12.78579],[76.33157,12.80665],[76.37334,12.80975],[76.37096,12.82631],[76.41171,12.8458],[76.4125,12.86609],[76.42954,12.8516],[76.42793,12.82521],[76.47048,12.80211],[76.45819,12.78008],[76.47789,12.77224],[76.49121,12.78509],[76.49908,12.76907],[76.49301,12.80792],[76.52265,12.84125],[76.57692,12.84789],[76.59653,12.88025],[76.59665,12.92022],[76.61862,12.94313],[76.613,12.9655],[76.63235,12.97189],[76.63191,13.00563],[76.65293,13.00652],[76.67395,13.05394],[76.68466,13.04283]]],[[[76.91391,12.35746],[76.89558,12.35861],[76.91156,12.38225],[76.92353,12.37901],[76.91852,12.35845],[76.91391,12.35746]]],[[[76.98442,12.25661],[76.96831,12.27105],[76.98608,12.25887],[76.98442,12.25661]]]]}},{"type":"Feature","properties":{"DISTRICT":"Mysore","ST_NM":"Karnataka","ST_CEN_CD":29,"DT_CEN_CD":23,"censuscode":577},"geometry":{"type":"Polygon","coordinates":[[[77.11309,12.24232],[77.13492,12.22742],[77.1319,12.20486],[77.04633,12.16889],[77.04241,12.12897],[77.01464,12.13951],[77.01421,12.16397],[76.99394,12.17556],[76.97285,12.11542],[76.94726,12.09807],[76.878,12.13352],[76.85756,12.18474],[76.83299,12.13072],[76.84712,12.11451],[76.87491,12.11566],[76.88361,12.08406],[76.85744,12.06019],[76.89253,12.05843],[76.91902,12.02677],[76.93947,12.02666],[76.93483,12.01248],[76.90503,11.99577],[76.88914,11.99687],[76.88489,12.01447],[76.84439,11.9967],[76.81375,12.02925],[76.79293,12.0091],[76.79985,11.98759],[76.7821,11.98168],[76.74492,12.01081],[76.71662,11.98191],[76.65784,12.0089],[76.6439,11.9823],[76.57837,11.98454],[76.56017,11.94547],[76.57654,11.92113],[76.55543,11.85591],[76.53407,11.87074],[76.49095,11.8584],[76.49218,11.82081],[76.47002,11.81683],[76.462,11.79029],[76.41256,11.81098],[76.4289,11.79172],[76.41519,11.78732],[76.41206,11.75679],[76.34241,11.73744],[76.27905,11.8102],[76.22537,11.80661],[76.20755,11.86064],[76.19062,11.87024],[76.11438,11.85752],[76.11397,11.97694],[76.18638,12.03443],[76.17772,12.10079],[76.13348,12.19254],[76.1066,12.19445],[76.06225,12.24984],[76.02314,12.25176],[75.99997,12.32504],[75.91132,12.40174],[75.93071,12.43728],[75.97501,12.4479],[75.96395,12.50293],[75.9978,12.52366],[75.99632,12.55855],[76.01486,12.55312],[76.02567,12.5737],[76.04755,12.57465],[76.05244,12.55302],[76.09183,12.54363],[76.11637,12.51205],[76.15351,12.54462],[76.15994,12.5757],[76.19671,12.57556],[76.22222,12.64223],[76.26952,12.61882],[76.27799,12.63068],[76.29472,12.61735],[76.30088,12.63123],[76.3229,12.60965],[76.34508,12.65602],[76.38109,12.57474],[76.39654,12.57171],[76.39205,12.55262],[76.42667,12.5441],[76.45278,12.48327],[76.56825,12.42452],[76.55732,12.39103],[76.56869,12.34903],[76.62515,12.3676],[76.65098,12.39546],[76.68629,12.39026],[76.68139,12.36668],[76.70072,12.35014],[76.71971,12.35496],[76.73302,12.31931],[76.75803,12.30181],[76.77122,12.35005],[76.80561,12.35476],[76.83593,12.40229],[76.89688,12.40841],[76.91998,12.44154],[76.94027,12.37582],[76.924,12.32452],[76.95589,12.32796],[76.95525,12.35506],[76.97735,12.35237],[76.97855,12.32652],[76.99805,12.30878],[76.97645,12.30595],[76.97312,12.28964],[76.99181,12.28673],[76.99976,12.24368],[77.07522,12.23694],[77.08852,12.21871],[77.10709,12.22029],[77.11302,12.24231],[77.11309,12.24232]],[[76.91391,12.35746],[76.92353,12.37901],[76.91156,12.38225],[76.89558,12.35861],[76.91133,12.35423],[76.91391,12.35746]],[[76.98442,12.25661],[76.97153,12.27438],[76.97821,12.25371],[76.98442,12.25661]]]}},{"type":"Feature","properties":{"DISTRICT":"Raichur","ST_NM":"Karnataka","ST_CEN_CD":29,"DT_CEN_CD":5,"censuscode":559},"geometry":{"type":"Polygon","coordinates":[[[77.28865,16.40704],[77.41608,16.36694],[77.49902,16.38014],[77.5964,16.34205],[77.59513,16.29144],[77.56976,16.30227],[77.5385,16.26718],[77.50587,16.27231],[77.49217,16.25433],[77.4934,16.22889],[77.51545,16.22791],[77.49998,16.21757],[77.4883,16.16318],[77.49141,16.12045],[77.5142,16.10826],[77.49767,16.08851],[77.50775,16.07799],[77.49554,16.03544],[77.51498,16.00711],[77.51441,15.92584],[77.25317,15.9623],[77.09392,15.92227],[77.02818,15.83391],[76.93868,15.75131],[76.91572,15.69466],[76.83932,15.62963],[76.83574,15.56122],[76.814,15.54661],[76.76029,15.56531],[76.74793,15.59049],[76.69041,15.59448],[76.6806,15.62619],[76.69481,15.62268],[76.69256,15.64544],[76.67023,15.63818],[76.67213,15.65684],[76.59997,15.67278],[76.59846,15.6993],[76.53194,15.69928],[76.51231,15.71551],[76.49222,15.70517],[76.44403,15.73595],[76.44023,15.78386],[76.41298,15.802],[76.45141,15.83608],[76.45121,15.85095],[76.41964,15.86808],[76.42761,15.88772],[76.37611,15.90151],[76.37511,15.91436],[76.35549,15.90355],[76.35026,15.86252],[76.34594,15.89729],[76.29043,15.89132],[76.28573,15.9256],[76.32816,15.93083],[76.29727,15.9919],[76.31329,16.00058],[76.30782,16.06471],[76.25916,16.082],[76.32962,16.0763],[76.33465,16.09034],[76.27091,16.10782],[76.25529,16.0978],[76.23538,16.13015],[76.24101,16.16535],[76.28151,16.14977],[76.29836,16.18222],[76.34662,16.1963],[76.47879,16.29012],[76.64839,16.35878],[76.75954,16.42636],[76.78554,16.41635],[76.83907,16.42855],[76.86957,16.48638],[76.97018,16.50514],[76.97614,16.55829],[77.01106,16.54543],[77.01426,16.5011],[77.05882,16.51766],[77.15192,16.47566],[77.17118,16.43502],[77.27771,16.40393],[77.28865,16.40704]]]}},{"type":"Feature","properties":{"DISTRICT":"Ramanagara","ST_NM":"Karnataka","ST_CEN_CD":29,"DT_CEN_CD":30,"censuscode":584},"geometry":{"type":"Polygon","coordinates":[[[77.20467,13.18377],[77.22366,13.14859],[77.26569,13.15382],[77.27064,13.13179],[77.31033,13.10304],[77.34894,12.86748],[77.36694,12.87077],[77.37833,12.85338],[77.43088,12.87694],[77.42177,12.86835],[77.43854,12.83938],[77.42355,12.82577],[77.44517,12.80724],[77.45368,12.81802],[77.4821,12.80766],[77.47766,12.75391],[77.50672,12.73544],[77.54539,12.753],[77.54212,12.79848],[77.55917,12.79964],[77.56875,12.75872],[77.57373,12.77949],[77.59463,12.7821],[77.59824,12.75603],[77.55938,12.73021],[77.56137,12.71243],[77.57051,12.69868],[77.59727,12.71871],[77.61826,12.70558],[77.59514,12.6643],[77.60757,12.62987],[77.57982,12.56677],[77.58841,12.51592],[77.61634,12.50876],[77.58531,12.47731],[77.63528,12.48629],[77.61659,12.36933],[77.55294,12.29271],[77.48851,12.27853],[77.47304,12.24463],[77.44885,12.2504],[77.4303,12.28665],[77.34065,12.28287],[77.32282,12.30709],[77.32867,12.36561],[77.31453,12.38994],[77.28734,12.3919],[77.2695,12.46493],[77.22652,12.4751],[77.23959,12.49915],[77.16921,12.48351],[77.14773,12.46163],[77.12426,12.48494],[77.13316,12.5009],[77.11503,12.55297],[77.12907,12.55157],[77.13037,12.56774],[77.10861,12.6012],[77.12417,12.62269],[77.102,12.62868],[77.09848,12.67491],[77.07668,12.67832],[77.07397,12.70116],[77.08218,12.75595],[77.09431,12.75233],[77.10033,12.77424],[77.14952,12.78297],[77.15055,12.84698],[77.13337,12.85808],[77.13328,12.88708],[77.11175,12.89077],[77.16021,12.91162],[77.16875,12.92965],[77.13359,12.97378],[77.14701,12.988],[77.1366,13.00344],[77.10713,12.99241],[77.11842,13.01347],[77.07578,13.0369],[77.07309,13.12406],[77.09731,13.14301],[77.11696,13.12897],[77.12111,13.16101],[77.1569,13.1912],[77.20463,13.18372],[77.20467,13.18377]]]}},{"type":"Feature","properties":{"DISTRICT":"Shimoga","ST_NM":"Karnataka","ST_CEN_CD":29,"DT_CEN_CD":14,"censuscode":568},"geometry":{"type":"Polygon","coordinates":[[[75.53624,14.27739],[75.52649,14.20212],[75.50802,14.21655],[75.45317,14.20374],[75.48537,14.17402],[75.44357,14.16171],[75.40023,14.11442],[75.45165,14.09487],[75.51624,14.09626],[75.58623,14.05715],[75.63592,14.07856],[75.66743,14.06561],[75.72293,14.07453],[75.75747,14.10791],[75.81085,14.10156],[75.82179,14.06334],[75.79808,14.03166],[75.8231,14.01694],[75.87992,13.81029],[75.82496,13.8174],[75.80704,13.79428],[75.68872,13.76657],[75.68635,13.74942],[75.67057,13.76348],[75.65692,13.74786],[75.67488,13.72188],[75.63552,13.70151],[75.6094,13.76079],[75.57782,13.75868],[75.54121,13.7295],[75.49177,13.76823],[75.45617,13.72461],[75.40322,13.70346],[75.38395,13.71134],[75.41507,13.65405],[75.40745,13.62618],[75.38918,13.61422],[75.3739,13.62754],[75.36969,13.59974],[75.34434,13.582],[75.32114,13.59225],[75.27707,13.56419],[75.24378,13.60553],[75.22264,13.60408],[75.21161,13.58556],[75.22593,13.57036],[75.22404,13.52777],[75.17028,13.50643],[75.14023,13.46326],[75.11719,13.45954],[75.04916,13.54068],[75.0348,13.57337],[75.05939,13.6078],[75.01728,13.63673],[75.02695,13.67139],[75.01218,13.68218],[75.01945,13.69942],[74.99168,13.71305],[74.99711,13.7415],[74.93335,13.77192],[74.91449,13.85732],[74.86782,13.85971],[74.8219,13.9088],[74.71709,13.90699],[74.69303,13.93619],[74.70098,13.95031],[74.66769,13.98444],[74.67752,14.03813],[74.65595,14.04394],[74.64006,14.09748],[74.65558,14.11507],[74.62662,14.16487],[74.66657,14.18754],[74.74857,14.15138],[74.71707,14.23404],[74.73078,14.26702],[74.7671,14.23838],[74.83404,14.23077],[74.85682,14.21374],[74.87057,14.24254],[74.87814,14.217],[74.92983,14.23883],[74.94062,14.26123],[74.92944,14.28081],[74.9149,14.27842],[74.91786,14.31303],[74.97868,14.32351],[74.94152,14.36183],[74.94889,14.40293],[74.92155,14.43273],[74.88135,14.43693],[74.88732,14.46055],[74.9216,14.46137],[74.89505,14.47491],[74.89327,14.49477],[74.90583,14.52944],[74.9387,14.5209],[74.97208,14.55405],[74.99194,14.4758],[75.04278,14.50082],[75.03921,14.52644],[75.06249,14.54181],[75.02658,14.55909],[75.02699,14.6084],[75.05125,14.64862],[75.07503,14.65349],[75.14326,14.63154],[75.14648,14.61766],[75.20641,14.63546],[75.20563,14.59725],[75.18216,14.59805],[75.18491,14.5854],[75.20954,14.57395],[75.22902,14.58343],[75.23788,14.55678],[75.24791,14.57955],[75.26539,14.57916],[75.29692,14.53845],[75.2701,14.51271],[75.32053,14.51133],[75.34727,14.48291],[75.34401,14.43442],[75.38135,14.43162],[75.37832,14.41011],[75.35952,14.40895],[75.34905,14.38754],[75.47736,14.31702],[75.47673,14.34503],[75.49961,14.34339],[75.50273,14.30672],[75.53439,14.28549],[75.53624,14.27739]]]}},{"type":"Feature","properties":{"DISTRICT":"Tumkur","ST_NM":"Karnataka","ST_CEN_CD":29,"DT_CEN_CD":17,"censuscode":571},"geometry":{"type":"MultiPolygon","coordinates":[[[[76.97715,14.05873],[76.9435,14.05389],[76.93665,14.02903],[77.00017,13.98794],[76.99482,13.96315],[77.04185,13.93217],[77.04733,13.90401],[77.02326,13.89994],[77.01201,13.85669],[76.97437,13.82096],[76.98975,13.81079],[77.00006,13.74819],[77.01762,13.73943],[77.03256,13.77815],[77.06637,13.74565],[77.087,13.74422],[77.10167,13.76772],[77.17322,13.76163],[77.16879,13.82763],[77.13028,13.85619],[77.16896,13.86384],[77.16234,13.90661],[77.18345,13.92423],[77.18532,13.86672],[77.20346,13.86645],[77.2115,13.88806],[77.21813,13.86836],[77.24047,13.90187],[77.25719,13.8465],[77.31381,13.86435],[77.32698,13.83292],[77.36653,13.85288],[77.37997,13.83855],[77.43177,13.84248],[77.41592,13.8066],[77.436,13.79541],[77.46298,13.80725],[77.47011,13.75109],[77.4573,13.68335],[77.38385,13.66047],[77.3642,13.62127],[77.39348,13.52559],[77.37425,13.47061],[77.35051,13.45265],[77.36525,13.42557],[77.34951,13.41728],[77.3398,13.32958],[77.28267,13.30972],[77.28362,13.29743],[77.23106,13.31068],[77.2195,13.26293],[77.18912,13.27163],[77.18279,13.22708],[77.20822,13.1879],[77.1569,13.1912],[77.12111,13.16101],[77.11696,13.12897],[77.09731,13.14301],[77.07309,13.12406],[77.07578,13.0369],[77.11842,13.01347],[77.10713,12.99241],[77.1366,13.00344],[77.14701,12.988],[77.13359,12.97378],[77.16875,12.92965],[77.16021,12.91162],[77.11175,12.89077],[77.13328,12.88708],[77.13337,12.85808],[77.15055,12.84698],[77.14952,12.78297],[77.10033,12.77424],[77.07739,12.74573],[77.05175,12.74753],[77.04544,12.77616],[77.01809,12.7619],[76.97113,12.80253],[76.92522,12.80436],[76.89169,12.85331],[76.88787,12.89788],[76.86453,12.90667],[76.89337,12.91753],[76.89007,12.93132],[76.83923,12.94429],[76.8521,12.97733],[76.81018,13.0121],[76.78748,13.01175],[76.76237,13.0347],[76.69453,13.0352],[76.67395,13.05394],[76.65293,13.00652],[76.61301,13.00594],[76.60354,13.04255],[76.62014,13.05703],[76.6051,13.07276],[76.51746,13.06849],[76.49971,13.09526],[76.46974,13.09049],[76.47538,13.14693],[76.45744,13.14569],[76.42741,13.18428],[76.37235,13.19857],[76.38027,13.23109],[76.35645,13.25026],[76.34818,13.30152],[76.34645,13.35978],[76.38763,13.37014],[76.41843,13.44732],[76.39841,13.50248],[76.42698,13.52344],[76.36412,13.54611],[76.35411,13.5777],[76.37643,13.59127],[76.38364,13.577],[76.40116,13.59277],[76.41613,13.57756],[76.45532,13.58943],[76.46118,13.61673],[76.51813,13.63276],[76.52993,13.66309],[76.57928,13.68769],[76.5734,13.7131],[76.62119,13.73348],[76.63083,13.71415],[76.67483,13.71799],[76.68677,13.6885],[76.6985,13.76929],[76.72553,13.7961],[76.76393,13.77929],[76.76985,13.79953],[76.7673,13.83555],[76.72655,13.89933],[76.76816,13.92296],[76.81491,13.91604],[76.8236,13.94819],[76.84954,13.96235],[76.82517,13.99397],[76.83787,14.01484],[76.87584,14.012],[76.89567,14.05123],[76.92719,14.0584],[76.95181,14.09152],[76.97367,14.08604],[76.97983,14.06404],[76.97715,14.05873]]],[[[77.16556,14.34259],[77.23801,14.31757],[77.2873,14.33767],[77.28582,14.2827],[77.3657,14.27609],[77.3619,14.23684],[77.39041,14.19871],[77.42237,14.21888],[77.38146,14.30194],[77.39211,14.33161],[77.44897,14.3166],[77.4614,14.27911],[77.48611,14.29172],[77.50308,14.27874],[77.49694,14.23466],[77.51734,14.17915],[77.50744,14.15809],[77.41644,14.17668],[77.39639,14.17219],[77.38337,14.13654],[77.35436,14.13124],[77.35121,14.10294],[77.39649,14.12555],[77.40223,14.11044],[77.34466,14.06079],[77.3329,14.02991],[77.39026,14.01445],[77.38259,13.97623],[77.4377,13.97599],[77.43579,13.95058],[77.41475,13.94331],[77.43277,13.90932],[77.40417,13.88778],[77.39748,13.90491],[77.35528,13.90368],[77.34952,13.91936],[77.36952,13.94942],[77.35059,13.95797],[77.36061,13.98938],[77.3371,13.99737],[77.32016,14.03177],[77.28509,14.0138],[77.27806,14.03498],[77.24906,14.01315],[77.17767,14.01532],[77.16069,13.99731],[77.14053,14.0048],[77.12719,14.04878],[77.02949,14.05969],[77.02974,14.08976],[77.01399,14.10448],[77.02563,14.18422],[77.004,14.19826],[77.00218,14.23138],[77.04623,14.24702],[77.08107,14.21569],[77.11089,14.21967],[77.11765,14.29385],[77.13764,14.3369],[77.15792,14.34408],[77.16556,14.34259]]]]}},{"type":"Feature","properties":{"DISTRICT":"Udupi","ST_NM":"Karnataka","ST_CEN_CD":29,"DT_CEN_CD":15,"censuscode":569},"geometry":{"type":"Polygon","coordinates":[[[75.14023,13.46326],[75.15465,13.44901],[75.14696,13.3977],[75.08007,13.34454],[75.11508,13.28456],[75.13849,13.28995],[75.16875,13.19985],[75.19917,13.17269],[75.16197,13.13328],[75.12722,13.13238],[75.07687,13.04528],[75.00299,12.98456],[74.98644,13.00002],[74.99891,13.01549],[74.97769,13.02708],[74.94081,13.00458],[74.92809,13.00875],[74.93232,13.03446],[74.89614,13.03037],[74.88385,13.04787],[74.89031,13.09551],[74.8737,13.09718],[74.86282,13.12607],[74.79493,13.1161],[74.79709,13.1005],[74.77783,13.10274],[74.77007,13.0863],[74.70299,13.3443],[74.72502,13.28572],[74.72473,13.3209],[74.69463,13.3576],[74.68592,13.44173],[74.68823,13.4539],[74.69967,13.41553],[74.74303,13.38702],[74.73904,13.41331],[74.70517,13.43339],[74.72236,13.45858],[74.75071,13.45851],[74.7319,13.47547],[74.70505,13.44243],[74.69541,13.4813],[74.68936,13.46299],[74.66375,13.63096],[74.68106,13.60739],[74.68555,13.63837],[74.7088,13.61479],[74.72362,13.62147],[74.70438,13.63845],[74.76025,13.63853],[74.70186,13.65361],[74.70728,13.67234],[74.67951,13.67763],[74.71333,13.69673],[74.6682,13.71381],[74.67781,13.69099],[74.6657,13.63893],[74.64963,13.66299],[74.60654,13.85855],[74.62394,13.84785],[74.6267,13.85779],[74.5984,13.87845],[74.58238,13.92593],[74.59786,13.94411],[74.64972,13.94325],[74.66769,13.98444],[74.71709,13.90699],[74.8219,13.9088],[74.86782,13.85971],[74.91449,13.85732],[74.93335,13.77192],[74.99711,13.7415],[74.99168,13.71305],[75.01945,13.69942],[75.01218,13.68218],[75.02695,13.67139],[75.01728,13.63673],[75.05939,13.6078],[75.0348,13.57337],[75.04916,13.54068],[75.07988,13.49618],[75.10209,13.492],[75.11219,13.46232],[75.13545,13.46342],[75.14023,13.46326]]]}},{"type":"Feature","properties":{"DISTRICT":"Uttara Kannada","ST_NM":"Karnataka","ST_CEN_CD":29,"DT_CEN_CD":9,"censuscode":563},"geometry":{"type":"MultiPolygon","coordinates":[[[[74.32141,15.51751],[74.41156,15.47556],[74.42649,15.39706],[74.46759,15.41377],[74.47985,15.39587],[74.54432,15.41726],[74.61434,15.35873],[74.65167,15.39484],[74.69917,15.40992],[74.76707,15.41622],[74.76539,15.3991],[74.79048,15.37964],[74.82119,15.38384],[74.83472,15.3334],[74.85513,15.34048],[74.87615,15.30049],[74.8974,15.30118],[74.90903,15.25074],[74.82876,15.13331],[74.85863,15.10362],[74.89194,15.09811],[74.88021,15.07237],[74.91143,15.03768],[74.94047,15.06623],[75.08133,15.0726],[75.06958,15.01575],[75.10602,14.93225],[75.07071,14.91811],[75.0702,14.83601],[75.09462,14.80884],[75.05805,14.81167],[75.07129,14.77981],[75.04245,14.76884],[75.04645,14.73783],[75.01808,14.71536],[75.05125,14.64862],[75.02699,14.6084],[75.02432,14.5641],[75.06249,14.54181],[75.03921,14.52644],[75.04278,14.50082],[74.99194,14.4758],[74.97903,14.55247],[74.9576,14.55072],[74.9387,14.5209],[74.90583,14.52944],[74.89259,14.47939],[74.9216,14.46137],[74.89323,14.46393],[74.87781,14.44911],[74.88599,14.43129],[74.92155,14.43273],[74.94889,14.40293],[74.94152,14.36183],[74.97736,14.32075],[74.91786,14.31303],[74.91041,14.28917],[74.92944,14.28081],[74.93786,14.24947],[74.88238,14.21732],[74.87405,14.2435],[74.85682,14.21374],[74.83404,14.23077],[74.7671,14.23838],[74.73078,14.26702],[74.71707,14.23404],[74.74657,14.15041],[74.66657,14.18754],[74.62662,14.16487],[74.65558,14.11507],[74.64006,14.09748],[74.65595,14.04394],[74.67752,14.03813],[74.66769,13.98444],[74.64972,13.94325],[74.59786,13.94411],[74.58238,13.92593],[74.5158,13.98945],[74.50597,14.02552],[74.5236,14.03389],[74.50512,14.05145],[74.50787,14.03088],[74.50105,14.0411],[74.47459,14.16934],[74.43269,14.26621],[74.52711,14.23976],[74.46877,14.29193],[74.44359,14.28107],[74.42603,14.30496],[74.42555,14.28097],[74.40302,14.41904],[74.3853,14.42379],[74.3567,14.51056],[74.37814,14.5147],[74.38718,14.45096],[74.40819,14.44852],[74.42207,14.47264],[74.44147,14.45663],[74.4362,14.47161],[74.40101,14.49591],[74.36757,14.55916],[74.34103,14.51658],[74.30866,14.52024],[74.31425,14.55122],[74.2946,14.59192],[74.32931,14.60343],[74.38414,14.59232],[74.42956,14.62458],[74.36371,14.59825],[74.31693,14.61574],[74.30546,14.60134],[74.28469,14.60852],[74.27177,14.62699],[74.28558,14.66295],[74.24647,14.73952],[74.22801,14.74691],[74.2002,14.72018],[74.16688,14.7521],[74.17716,14.76666],[74.15721,14.74702],[74.14367,14.77448],[74.09496,14.79769],[74.12049,14.80202],[74.1263,14.83438],[74.16198,14.83813],[74.15675,14.81283],[74.17618,14.8551],[74.25015,14.8713],[74.20869,14.87579],[74.21006,14.88885],[74.17908,14.8811],[74.12103,14.83842],[74.08802,14.89598],[74.13257,14.92305],[74.16875,14.91154],[74.15939,14.94204],[74.17372,14.95565],[74.20536,14.92405],[74.26392,14.96927],[74.25545,14.99337],[74.29624,15.04246],[74.27209,15.09845],[74.28334,15.14566],[74.31585,15.18659],[74.30051,15.22569],[74.25109,15.26008],[74.27664,15.28374],[74.3356,15.29539],[74.31719,15.33202],[74.32221,15.36966],[74.27625,15.391],[74.27612,15.44546],[74.24978,15.49182],[74.28519,15.52509],[74.32141,15.51751]]],[[[74.47031,14.27596],[74.48202,14.26531],[74.46572,14.27678],[74.47031,14.27596]]],[[[74.39905,14.46128],[74.3918,14.47699],[74.39973,14.4615],[74.39905,14.46128]]]]}},{"type":"Feature","properties":{"DISTRICT":"Yadgir","ST_NM":"Karnataka","ST_CEN_CD":29,"DT_CEN_CD":26,"censuscode":580},"geometry":{"type":"Polygon","coordinates":[[[77.45652,16.88511],[77.47531,16.78292],[77.44161,16.78695],[77.42751,16.71834],[77.47102,16.7158],[77.46926,16.68219],[77.42098,16.65863],[77.44254,16.64014],[77.47365,16.65087],[77.45807,16.61778],[77.46847,16.58825],[77.39556,16.56916],[77.41985,16.54803],[77.41955,16.52189],[77.38322,16.51475],[77.37042,16.48815],[77.30059,16.49541],[77.29595,16.4776],[77.24268,16.4768],[77.28865,16.40704],[77.17118,16.43502],[77.15192,16.47566],[77.05882,16.51766],[77.01426,16.5011],[77.01106,16.54543],[76.98282,16.56082],[76.97018,16.50514],[76.86957,16.48638],[76.84804,16.43346],[76.78554,16.41635],[76.75954,16.42636],[76.64839,16.35878],[76.47879,16.29012],[76.3293,16.19106],[76.35437,16.22587],[76.34825,16.274],[76.30221,16.28337],[76.29542,16.33396],[76.31601,16.34476],[76.30624,16.37637],[76.31048,16.39472],[76.33398,16.3896],[76.33381,16.42392],[76.4373,16.43493],[76.43592,16.51122],[76.40507,16.64773],[76.43833,16.70671],[76.50098,16.71732],[76.52704,16.75388],[76.6052,16.76563],[76.65108,16.73075],[76.69473,16.78626],[76.73869,16.77734],[76.75541,16.831],[76.89547,16.896],[76.92283,16.88171],[76.90421,16.85157],[76.91646,16.82209],[76.99245,16.81871],[76.98273,16.85073],[77.04131,16.8792],[77.02136,16.90854],[77.07196,16.95046],[77.10394,16.90028],[77.23954,16.94256],[77.27338,16.9246],[77.33507,16.9307],[77.37564,16.89673],[77.41034,16.89983],[77.40812,16.8812],[77.44923,16.88564],[77.45652,16.88511]]]}}]}
