{"type":"FeatureCollection","properties":{"source":"DataMeet Community Maps Project - Districts/Census_2011","state":"Kerala","stateSlug":"kerala"},"features":[{"type":"Feature","properties":{"DISTRICT":"Alappuzha","ST_NM":"Kerala","ST_CEN_CD":32,"DT_CEN_CD":11,"censuscode":598},"geometry":{"type":"Polygon","coordinates":[[[76.37334,9.83565],[76.37734,9.69521],[76.40331,9.68433],[76.39174,9.54585],[76.41078,9.56093],[76.42752,9.54753],[76.46587,9.55872],[76.48164,9.50574],[76.5078,9.4987],[76.49668,9.43962],[76.51148,9.433],[76.50945,9.37574],[76.5234,9.36248],[76.47644,9.32838],[76.55002,9.32142],[76.55139,9.34668],[76.57295,9.35329],[76.64198,9.34204],[76.6596,9.28559],[76.69385,9.2942],[76.64096,9.22991],[76.64482,9.20172],[76.66838,9.19785],[76.68636,9.17271],[76.67334,9.15128],[76.5584,9.10673],[76.54315,9.13557],[76.51459,9.1358],[76.50846,9.12092],[76.48116,9.11935],[76.48662,9.08456],[76.34287,9.40273],[76.28997,9.67236],[76.28024,9.78852],[76.29328,9.88829],[76.35511,9.88174],[76.37061,9.84113],[76.37334,9.83565]]]}},{"type":"Feature","properties":{"DISTRICT":"Ernakulam","ST_NM":"Kerala","ST_CEN_CD":32,"DT_CEN_CD":8,"censuscode":595},"geometry":{"type":"Polygon","coordinates":[[[76.68924,10.26721],[76.64339,10.16145],[76.79456,10.04183],[76.8405,10.0239],[76.83333,10.01509],[76.78447,10.0351],[76.7661,9.98201],[76.71084,9.98731],[76.71851,9.95817],[76.69111,9.92531],[76.69885,9.90985],[76.63546,9.91579],[76.63309,9.85565],[76.58349,9.84153],[76.55907,9.803],[76.52363,9.82403],[76.51503,9.84978],[76.46236,9.84806],[76.41813,9.82215],[76.3873,9.84278],[76.37334,9.83565],[76.35511,9.88174],[76.29677,9.89022],[76.28024,9.78852],[76.24328,9.96927],[76.20237,10.04901],[76.16892,10.18387],[76.22156,10.20665],[76.26484,10.19839],[76.27647,10.17398],[76.31469,10.18048],[76.31332,10.20533],[76.37553,10.2416],[76.41764,10.29564],[76.55705,10.28242],[76.57334,10.28317],[76.57921,10.30179],[76.62283,10.27473],[76.68241,10.26975],[76.68924,10.26721]]]}},{"type":"Feature","properties":{"DISTRICT":"Idukki","ST_NM":"Kerala","ST_CEN_CD":32,"DT_CEN_CD":9,"censuscode":596},"geometry":{"type":"Polygon","coordinates":[[[77.28895,10.22973],[77.27413,10.12821],[77.23935,10.12749],[77.20234,10.1046],[77.26266,10.02933],[77.25548,10.0092],[77.27618,9.97283],[77.21923,9.90328],[77.21395,9.87491],[77.23862,9.85799],[77.22392,9.82347],[77.24915,9.79753],[77.22493,9.78888],[77.22349,9.73059],[77.20517,9.72438],[77.20699,9.69505],[77.16729,9.61476],[77.21149,9.61304],[77.23854,9.58169],[77.27084,9.57399],[77.32021,9.60218],[77.34083,9.57238],[77.3569,9.60429],[77.36737,9.5973],[77.35198,9.56604],[77.36678,9.53553],[77.38706,9.51797],[77.40311,9.52607],[77.41269,9.50589],[77.3951,9.46004],[77.36806,9.45892],[77.3507,9.44021],[77.33725,9.36018],[77.32804,9.33695],[77.30076,9.33645],[77.28437,9.2713],[77.22749,9.29593],[77.24968,9.38113],[77.22464,9.43265],[77.18155,9.47044],[77.14361,9.46052],[77.14198,9.48928],[77.05087,9.45632],[77.06801,9.4164],[77.02216,9.4066],[77.01472,9.41969],[76.94052,9.42966],[76.94215,9.44477],[76.98493,9.46681],[76.98561,9.48483],[76.96741,9.5063],[76.94856,9.49083],[76.89014,9.53684],[76.89482,9.62567],[76.93721,9.61965],[76.8881,9.71659],[76.78359,9.80462],[76.75768,9.81461],[76.74259,9.80423],[76.67266,9.84337],[76.63101,9.84941],[76.6333,9.91328],[76.69885,9.90985],[76.69111,9.92531],[76.71851,9.95817],[76.71084,9.98731],[76.7661,9.98201],[76.78447,10.0351],[76.83035,10.01379],[76.8405,10.0239],[76.79456,10.04183],[76.64339,10.16145],[76.68924,10.26721],[76.8413,10.28429],[76.91844,10.23301],[76.94079,10.2379],[76.984,10.21708],[77.05188,10.25675],[77.04708,10.28075],[77.06514,10.2941],[77.17643,10.35517],[77.20253,10.35513],[77.23582,10.34934],[77.22821,10.31482],[77.2645,10.26286],[77.26057,10.22971],[77.28406,10.23349],[77.28895,10.22973]]]}},{"type":"Feature","properties":{"DISTRICT":"Kannur","ST_NM":"Kerala","ST_CEN_CD":32,"DT_CEN_CD":2,"censuscode":589},"geometry":{"type":"Polygon","coordinates":[[[75.46997,12.30049],[75.51414,12.2585],[75.55576,12.18141],[75.59502,12.1484],[75.63886,12.14781],[75.66643,12.09666],[75.70575,12.10587],[75.72134,12.06766],[75.7563,12.08305],[75.8043,12.07689],[75.79789,12.05323],[75.83148,12.01157],[75.83187,11.98376],[75.87103,11.9515],[75.9306,11.93885],[75.93575,11.88775],[75.91345,11.8728],[75.9306,11.86064],[75.92685,11.83982],[75.80761,11.85453],[75.77724,11.79769],[75.75358,11.80331],[75.75505,11.78451],[75.73334,11.7796],[75.69451,11.79755],[75.66827,11.75836],[75.59247,11.71505],[75.60333,11.68756],[75.57072,11.67411],[75.55624,11.70136],[75.52914,11.70532],[75.47366,11.76847],[75.45814,11.76592],[75.38796,11.85779],[75.35777,11.85446],[75.32076,11.89909],[75.30945,11.94127],[75.35056,11.92956],[75.31863,11.97335],[75.28829,11.9896],[75.29612,11.9525],[75.2361,12.02345],[75.2043,12.00336],[75.17147,12.09312],[75.19214,12.10024],[75.1951,12.14347],[75.17374,12.19141],[75.29105,12.23483],[75.29021,12.25796],[75.30779,12.27057],[75.34875,12.26776],[75.39208,12.29539],[75.4611,12.29364],[75.46997,12.30049]],[[75.53973,11.73507],[75.52833,11.72024],[75.55752,11.71822],[75.54363,11.7593],[75.54052,11.73706],[75.53973,11.73507]]]}},{"type":"Feature","properties":{"DISTRICT":"Kasaragod","ST_NM":"Kerala","ST_CEN_CD":32,"DT_CEN_CD":1,"censuscode":588},"geometry":{"type":"Polygon","coordinates":[[[75.41667,12.50166],[75.42478,12.46504],[75.39408,12.45003],[75.36865,12.45656],[75.3677,12.41196],[75.42382,12.37174],[75.41247,12.34635],[75.43297,12.30457],[75.34875,12.26776],[75.30132,12.26823],[75.29105,12.23483],[75.17374,12.19141],[75.1951,12.14347],[75.19214,12.10024],[75.17147,12.09312],[75.18299,12.06077],[75.08081,12.30998],[74.99054,12.49182],[74.97979,12.49031],[74.86304,12.75828],[75.00507,12.78979],[75.00845,12.76474],[74.98455,12.73417],[75.01209,12.72716],[75.007,12.71354],[75.04977,12.71908],[75.04799,12.66448],[75.08344,12.67085],[75.08641,12.7022],[75.11314,12.68038],[75.15128,12.68086],[75.16202,12.6686],[75.14365,12.63783],[75.15996,12.6216],[75.20241,12.62972],[75.20447,12.58519],[75.22409,12.5673],[75.27808,12.61637],[75.32949,12.58998],[75.27234,12.55826],[75.28266,12.52289],[75.30629,12.52208],[75.30661,12.50155],[75.33667,12.49508],[75.33865,12.46263],[75.37408,12.47368],[75.38512,12.49757],[75.41107,12.49914],[75.41667,12.50166]]]}},{"type":"Feature","properties":{"DISTRICT":"Kollam","ST_NM":"Kerala","ST_CEN_CD":32,"DT_CEN_CD":13,"censuscode":600},"geometry":{"type":"Polygon","coordinates":[[[77.2086,9.07053],[77.19924,9.04505],[77.17084,9.04502],[77.14926,9.02024],[77.1976,8.9555],[77.19795,8.9242],[77.22234,8.92592],[77.22392,8.90169],[77.26086,8.86785],[77.26503,8.84046],[77.21587,8.76612],[77.10788,8.82883],[77.04479,8.84439],[77.01345,8.80826],[77.02961,8.77375],[76.98117,8.78517],[76.93499,8.76051],[76.90226,8.81022],[76.85498,8.81712],[76.82309,8.85363],[76.78496,8.85955],[76.79258,8.80796],[76.76031,8.79422],[76.72247,8.80082],[76.68341,8.77527],[76.60321,8.86783],[76.55376,8.89055],[76.47959,9.11632],[76.54315,9.13557],[76.5512,9.10966],[76.56968,9.10807],[76.6561,9.14895],[76.6603,9.09342],[76.75574,9.08881],[76.75917,9.07299],[76.78485,9.11332],[76.82917,9.09324],[76.87566,9.13022],[76.90429,9.11576],[76.95375,9.11887],[76.96599,9.12732],[76.92931,9.13893],[76.93067,9.17154],[77.00025,9.13213],[77.05485,9.12656],[77.2059,9.06908],[77.2086,9.07053]]]}},{"type":"Feature","properties":{"DISTRICT":"Kottayam","ST_NM":"Kerala","ST_CEN_CD":32,"DT_CEN_CD":10,"censuscode":597},"geometry":{"type":"Polygon","coordinates":[[[76.63309,9.85565],[76.74259,9.80423],[76.75768,9.81461],[76.78359,9.80462],[76.8881,9.71659],[76.93721,9.61965],[76.89482,9.62567],[76.89014,9.53684],[76.94856,9.49083],[76.96741,9.5063],[76.98561,9.48483],[76.98493,9.46681],[76.94215,9.44477],[76.93956,9.4217],[76.85528,9.45694],[76.76426,9.439],[76.74767,9.47333],[76.7092,9.45412],[76.70007,9.47557],[76.66291,9.48071],[76.60299,9.45662],[76.59395,9.41487],[76.54465,9.42073],[76.51568,9.40011],[76.51148,9.433],[76.49668,9.43962],[76.5078,9.4987],[76.48164,9.50574],[76.46587,9.55872],[76.42752,9.54753],[76.41078,9.56093],[76.39174,9.54585],[76.40331,9.68433],[76.37734,9.69521],[76.37334,9.83565],[76.3873,9.84278],[76.41813,9.82215],[76.46236,9.84806],[76.5103,9.85119],[76.5488,9.79981],[76.58189,9.82275],[76.58349,9.84153],[76.61406,9.8399],[76.63102,9.8567],[76.63309,9.85565]]]}},{"type":"Feature","properties":{"DISTRICT":"Kozhikode","ST_NM":"Kerala","ST_CEN_CD":32,"DT_CEN_CD":4,"censuscode":591},"geometry":{"type":"Polygon","coordinates":[[[75.53697,11.69275],[75.55624,11.70136],[75.57072,11.67411],[75.60333,11.68756],[75.59247,11.71505],[75.66827,11.75836],[75.69451,11.79755],[75.73334,11.7796],[75.75505,11.78451],[75.75358,11.80331],[75.7885,11.7928],[75.79558,11.7422],[75.85084,11.69942],[75.91617,11.68788],[75.90213,11.67683],[75.90813,11.60255],[75.95728,11.57935],[75.9683,11.55051],[76.04194,11.50115],[76.07751,11.52011],[76.09538,11.48169],[76.1426,11.4492],[76.14157,11.419],[76.10145,11.39593],[76.09381,11.35265],[76.11802,11.33603],[76.11604,11.31736],[76.04565,11.26538],[76.01715,11.26943],[75.99395,11.25209],[75.97519,11.26662],[75.91858,11.2375],[75.90254,11.2435],[75.8605,11.19387],[75.8901,11.17956],[75.85656,11.15631],[75.85937,11.13449],[75.82885,11.12444],[75.81019,11.15416],[75.82305,11.16804],[75.80104,11.17208],[75.73949,11.32795],[75.73958,11.35714],[75.68856,11.43867],[75.62073,11.47732],[75.53891,11.68981],[75.53697,11.69275]]]}},{"type":"Feature","properties":{"DISTRICT":"Malappuram","ST_NM":"Kerala","ST_CEN_CD":32,"DT_CEN_CD":5,"censuscode":592},"geometry":{"type":"Polygon","coordinates":[[[76.44699,11.20171],[76.41129,11.20531],[76.41306,11.11438],[76.35223,11.09256],[76.33467,11.05462],[76.28695,11.03676],[76.2895,11.0205],[76.33049,11.02174],[76.33665,10.99823],[76.3708,10.99612],[76.36351,10.9748],[76.33011,10.97832],[76.33307,10.90547],[76.27089,10.91642],[76.25192,10.88652],[76.23292,10.88553],[76.21929,10.91183],[76.1996,10.89662],[76.16811,10.91362],[76.15044,10.88927],[76.1296,10.89528],[76.09931,10.84107],[76.04548,10.8457],[76.02706,10.8214],[76.05,10.79698],[76.04084,10.75305],[76.06399,10.74469],[76.06869,10.72185],[76.01038,10.68684],[75.95449,10.68634],[75.90166,10.80252],[75.82902,11.12435],[75.85937,11.13449],[75.85656,11.15631],[75.8901,11.17956],[75.8605,11.19387],[75.88177,11.22526],[75.97519,11.26662],[75.99395,11.25209],[76.01715,11.26943],[76.04565,11.26538],[76.11604,11.31736],[76.11802,11.33603],[76.09381,11.35265],[76.10609,11.40838],[76.14157,11.419],[76.1426,11.4492],[76.24068,11.52536],[76.24774,11.46634],[76.28581,11.48131],[76.32889,11.45157],[76.3417,11.46559],[76.39885,11.43497],[76.41873,11.44064],[76.41655,11.42187],[76.45698,11.38856],[76.51894,11.36841],[76.51835,11.35389],[76.54718,11.35892],[76.53759,11.31078],[76.54929,11.2997],[76.52263,11.26926],[76.4553,11.23763],[76.45185,11.20725],[76.44699,11.20171]]]}},{"type":"Feature","properties":{"DISTRICT":"Palakkad","ST_NM":"Kerala","ST_CEN_CD":32,"DT_CEN_CD":6,"censuscode":593},"geometry":{"type":"Polygon","coordinates":[[[76.83918,10.33834],[76.81858,10.34801],[76.75519,10.33644],[76.76604,10.36256],[76.72103,10.37358],[76.68948,10.36228],[76.65948,10.38505],[76.63067,10.3758],[76.58643,10.4354],[76.56095,10.43175],[76.43496,10.53198],[76.4405,10.55417],[76.40413,10.59404],[76.43016,10.61519],[76.42557,10.64711],[76.45272,10.65919],[76.44484,10.69639],[76.47998,10.73225],[76.47088,10.75144],[76.40327,10.74539],[76.3835,10.76845],[76.35658,10.74403],[76.28816,10.75694],[76.25195,10.74705],[76.24239,10.77237],[76.19202,10.78339],[76.20314,10.7533],[76.1634,10.70451],[76.0701,10.72724],[76.04084,10.75305],[76.05,10.79698],[76.02706,10.8214],[76.04141,10.84342],[76.09931,10.84107],[76.10553,10.86847],[76.1313,10.87835],[76.1296,10.89528],[76.15044,10.88927],[76.16351,10.91328],[76.1996,10.89662],[76.21929,10.91183],[76.23292,10.88553],[76.25192,10.88652],[76.27089,10.91642],[76.33307,10.90547],[76.33011,10.97832],[76.36351,10.9748],[76.3708,10.99612],[76.33665,10.99823],[76.33049,11.02174],[76.2895,11.0205],[76.28695,11.03676],[76.33467,11.05462],[76.35223,11.09256],[76.41306,11.11438],[76.41129,11.20531],[76.46177,11.1874],[76.49677,11.21005],[76.63269,11.19322],[76.70679,11.23904],[76.73553,11.21666],[76.73117,11.19228],[76.69896,11.17279],[76.70118,11.15222],[76.74893,11.12911],[76.7444,11.10118],[76.75839,11.08295],[76.74748,11.05533],[76.7777,11.04012],[76.80305,11.05033],[76.76748,11.03247],[76.71684,11.03911],[76.65951,10.93181],[76.74344,10.88882],[76.82863,10.86984],[76.85645,10.83461],[76.85172,10.81576],[76.89976,10.80809],[76.90909,10.77903],[76.89542,10.71556],[76.86716,10.68341],[76.88445,10.63761],[76.81659,10.63438],[76.82032,10.60252],[76.84152,10.59314],[76.81947,10.42295],[76.85174,10.36782],[76.8381,10.34229],[76.83918,10.33834]]]}},{"type":"Feature","properties":{"DISTRICT":"Pathanamthitta","ST_NM":"Kerala","ST_CEN_CD":32,"DT_CEN_CD":12,"censuscode":599},"geometry":{"type":"Polygon","coordinates":[[[77.28437,9.2713],[77.28371,9.2177],[77.25351,9.18797],[77.26884,9.15184],[77.2129,9.09703],[77.2059,9.06908],[77.05485,9.12656],[77.00025,9.13213],[76.93067,9.17154],[76.92931,9.13893],[76.96599,9.12732],[76.95375,9.11887],[76.90429,9.11576],[76.87566,9.13022],[76.82917,9.09324],[76.78485,9.11332],[76.75917,9.07299],[76.75574,9.08881],[76.65692,9.09667],[76.6561,9.14895],[76.68636,9.17271],[76.66838,9.19785],[76.64482,9.20172],[76.64096,9.22991],[76.69385,9.2942],[76.65574,9.28821],[76.64198,9.34204],[76.57295,9.35329],[76.55139,9.34668],[76.55002,9.32142],[76.47644,9.32838],[76.5234,9.36248],[76.50945,9.37574],[76.51579,9.40752],[76.54882,9.42145],[76.59395,9.41487],[76.60299,9.45662],[76.65405,9.48016],[76.70007,9.47557],[76.7092,9.45412],[76.74767,9.47333],[76.76426,9.439],[76.85528,9.45694],[76.92488,9.41788],[76.96368,9.4293],[77.02216,9.4066],[77.06801,9.4164],[77.05483,9.45982],[77.07376,9.4549],[77.13173,9.49167],[77.14361,9.46052],[77.18155,9.47044],[77.22464,9.43265],[77.24968,9.38113],[77.22749,9.29593],[77.27523,9.2751],[77.28437,9.2713]]]}},{"type":"Feature","properties":{"DISTRICT":"Thiruvananthapuram","ST_NM":"Kerala","ST_CEN_CD":32,"DT_CEN_CD":14,"censuscode":601},"geometry":{"type":"Polygon","coordinates":[[[77.20101,8.76946],[77.19459,8.74333],[77.17333,8.7458],[77.17981,8.72341],[77.28412,8.54584],[77.26655,8.50968],[77.20535,8.50149],[77.22864,8.44585],[77.20774,8.44281],[77.17284,8.38535],[77.15391,8.38638],[77.15496,8.35349],[77.17384,8.35928],[77.17902,8.32036],[77.14118,8.3307],[77.10006,8.29136],[76.98276,8.38034],[76.97099,8.41284],[76.67225,8.78069],[76.79258,8.80796],[76.78496,8.85955],[76.82309,8.85363],[76.85498,8.81712],[76.90226,8.81022],[76.93499,8.76051],[76.98117,8.78517],[77.02961,8.77375],[77.01345,8.80826],[77.04479,8.84439],[77.10788,8.82883],[77.18847,8.77491],[77.20101,8.76946]]]}},{"type":"Feature","properties":{"DISTRICT":"Thrissur","ST_NM":"Kerala","ST_CEN_CD":32,"DT_CEN_CD":7,"censuscode":594},"geometry":{"type":"Polygon","coordinates":[[[76.83918,10.33834],[76.83217,10.3033],[76.85116,10.2857],[76.87691,10.2982],[76.875,10.27521],[76.90468,10.2513],[76.8413,10.28429],[76.69944,10.26554],[76.65868,10.28057],[76.62283,10.27473],[76.57921,10.30179],[76.57334,10.28317],[76.55705,10.28242],[76.41764,10.29564],[76.37553,10.2416],[76.31332,10.20533],[76.31469,10.18048],[76.27647,10.17398],[76.26484,10.19839],[76.22156,10.20665],[76.16892,10.18387],[76.04302,10.49442],[76.05847,10.47957],[76.04022,10.52189],[76.05498,10.52673],[76.06868,10.50946],[76.06575,10.53525],[76.04145,10.5656],[76.0483,10.53303],[76.03291,10.50671],[75.95476,10.68619],[76.01038,10.68684],[76.05332,10.70363],[76.0701,10.72724],[76.1634,10.70451],[76.20314,10.7533],[76.19202,10.78339],[76.24239,10.77237],[76.25195,10.74705],[76.28816,10.75694],[76.35658,10.74403],[76.3835,10.76845],[76.40327,10.74539],[76.47088,10.75144],[76.47998,10.73225],[76.44484,10.69639],[76.45272,10.65919],[76.42557,10.64711],[76.43016,10.61519],[76.40413,10.59404],[76.4405,10.55417],[76.43496,10.53198],[76.56095,10.43175],[76.58643,10.4354],[76.63067,10.3758],[76.65948,10.38505],[76.68948,10.36228],[76.72103,10.37358],[76.76604,10.36256],[76.75519,10.33644],[76.81858,10.34801],[76.83516,10.33669],[76.83918,10.33834]]]}},{"type":"Feature","properties":{"DISTRICT":"Wayanad","ST_NM":"Kerala","ST_CEN_CD":32,"DT_CEN_CD":3,"censuscode":590},"geometry":{"type":"Polygon","coordinates":[[[76.41534,11.76027],[76.42667,11.72406],[76.40411,11.70802],[76.44222,11.64056],[76.38789,11.62936],[76.37856,11.6004],[76.34333,11.5852],[76.33627,11.5954],[76.30554,11.57111],[76.2835,11.59669],[76.26713,11.59365],[76.2331,11.57109],[76.25047,11.53088],[76.1426,11.4492],[76.09538,11.48169],[76.07751,11.52011],[76.04194,11.50115],[75.9683,11.55051],[75.95728,11.57935],[75.90813,11.60255],[75.90213,11.67683],[75.91617,11.68788],[75.85084,11.69942],[75.79558,11.7422],[75.79265,11.78905],[75.77724,11.79769],[75.80761,11.85453],[75.92685,11.83982],[75.9306,11.86064],[75.91345,11.8728],[75.93575,11.88775],[75.9306,11.93885],[76.00391,11.92975],[76.11397,11.97694],[76.12288,11.8494],[76.19062,11.87024],[76.20755,11.86064],[76.22537,11.80661],[76.27905,11.8102],[76.34241,11.73744],[76.41534,11.76028],[76.41534,11.76027]]]}}]}
