{"type":"FeatureCollection","properties":{"source":"DataMeet Community Maps Project - Districts/Census_2011","state":"Ladakh","stateSlug":"ladakh"},"features":[{"type":"Feature","properties":{"DISTRICT":"Kargil","ST_NM":"Ladakh","ST_CEN_CD":1,"DT_CEN_CD":4,"censuscode":4},"geometry":{"type":"Polygon","coordinates":[[[76.6604,34.38012],[76.68065,34.28852],[76.71119,34.24608],[76.65793,34.15799],[76.62922,34.05798],[76.65354,33.99013],[76.7124,33.92221],[76.79764,33.86777],[76.91735,33.82333],[76.97803,33.77563],[77.22347,33.74558],[77.27188,33.71306],[77.32786,33.62791],[77.4898,33.60973],[77.52998,33.58056],[77.52525,33.52465],[77.49849,33.48757],[77.34545,33.36158],[77.33459,33.28536],[77.34411,33.22765],[77.26653,33.12645],[77.26291,32.94846],[77.23826,32.89485],[77.19152,32.92924],[77.16381,32.91214],[77.15413,32.97868],[77.12089,32.98548],[77.09259,32.97165],[77.05304,32.99808],[77.01614,32.98801],[76.93522,33.03231],[76.89506,33.11305],[76.86227,33.11115],[76.82135,33.15468],[76.82127,33.1929],[76.84643,33.24548],[76.82081,33.23577],[76.79598,33.25486],[76.77546,33.30491],[76.6746,33.34918],[76.68074,33.38647],[76.66465,33.42888],[76.59798,33.47643],[76.58183,33.51544],[76.48465,33.58498],[76.42584,33.64939],[76.36701,33.67308],[76.32245,33.64758],[76.31237,33.62214],[76.24958,33.60846],[76.21046,33.7864],[76.11045,33.89464],[76.0571,33.98602],[76.0163,34.00113],[75.9431,33.98725],[75.86308,34.06994],[75.79351,34.10346],[75.74169,34.19811],[75.70735,34.21582],[75.70875,34.22842],[75.63102,34.22268],[75.35817,34.352],[75.43362,34.3501],[75.39995,34.42271],[75.39242,34.54345],[75.8156,34.64281],[76.07801,34.683],[76.3075,34.86162],[76.34248,34.85828],[76.41248,34.8007],[76.4824,34.68204],[76.58702,34.62605],[76.65025,34.42591],[76.6604,34.38012]]]}},{"type":"Feature","properties":{"DISTRICT":"Leh (ladakh)","ST_NM":"Ladakh","ST_CEN_CD":1,"DT_CEN_CD":3,"censuscode":3},"geometry":{"type":"Polygon","coordinates":[[[79.38467,35.99429],[79.42207,35.89653],[79.51837,35.88351],[79.73754,35.80201],[79.87109,35.78303],[79.92999,35.82745],[79.99918,35.83775],[80.03824,35.79976],[80.1081,35.68093],[80.23734,35.64194],[80.2915,35.60742],[80.32864,35.47258],[80.28108,35.44086],[80.27092,35.34423],[80.23567,35.27663],[80.226,35.22002],[80.18354,35.16673],[80.17476,35.00233],[80.12367,34.89343],[80.07315,34.82843],[80.06904,34.71478],[79.94456,34.68106],[79.86067,34.68875],[79.81654,34.64344],[79.77591,34.62759],[79.79301,34.58964],[79.77101,34.58208],[79.75846,34.55472],[79.81029,34.53131],[79.81454,34.50007],[79.79403,34.48505],[79.66202,34.47967],[79.59325,34.50082],[79.50851,34.47428],[79.52814,34.41799],[79.56121,34.41001],[79.55957,34.33243],[79.59216,34.28165],[79.57919,34.22916],[79.54009,34.20554],[79.51109,34.2105],[79.49474,34.13588],[79.42035,34.07813],[79.41423,34.05583],[79.43374,34.02298],[79.41432,34.01486],[79.35553,34.03694],[79.19805,34.05124],[79.17124,34.07287],[79.15163,34.0681],[79.13581,34.02725],[79.11258,34.01972],[79.02237,34.0509],[78.95202,34.02887],[78.90568,33.97621],[78.94831,33.92072],[79.00083,33.80333],[79.01919,33.79882],[79.01675,33.7787],[79.03414,33.78371],[79.04726,33.76612],[79.06027,33.78032],[79.06849,33.75644],[79.04297,33.74971],[79.02052,33.70574],[79.05396,33.67814],[79.09117,33.687],[79.10707,33.61688],[79.0478,33.62772],[78.98992,33.61119],[78.91671,33.63234],[78.91516,33.57435],[78.94279,33.5093],[78.93335,33.4328],[78.95367,33.38112],[78.98997,33.33285],[79.0178,33.33548],[79.09732,33.2946],[79.24062,33.29781],[79.31572,33.27321],[79.37005,33.28265],[79.45343,33.26039],[79.44666,33.20582],[79.37739,33.08474],[79.39376,33.03618],[79.33197,33.01207],[79.38407,32.98909],[79.38555,32.96796],[79.42231,32.96154],[79.56799,32.78681],[79.60323,32.77697],[79.6269,32.73754],[79.51574,32.60812],[79.46981,32.57631],[79.44813,32.53252],[79.40682,32.52968],[79.39453,32.57231],[79.32075,32.59273],[79.2951,32.55011],[79.25088,32.53412],[79.23781,32.50586],[79.19514,32.483],[79.13742,32.47695],[79.14433,32.42274],[79.11509,32.38422],[79.03374,32.38591],[78.98192,32.33784],[78.85887,32.44065],[78.82722,32.43871],[78.77677,32.55836],[78.79711,32.59837],[78.76267,32.65508],[78.76913,32.69705],[78.72305,32.66119],[78.66231,32.65403],[78.62092,32.59672],[78.57339,32.61761],[78.49955,32.5817],[78.45984,32.58001],[78.42801,32.53183],[78.32782,32.47225],[78.29598,32.50432],[78.3167,32.52566],[78.31423,32.57395],[78.40657,32.61966],[78.38098,32.6685],[78.39575,32.71586],[78.38936,32.75844],[78.30558,32.73447],[78.31361,32.70942],[78.25439,32.6913],[78.23069,32.66581],[78.17026,32.67571],[78.13914,32.63901],[78.11104,32.65886],[78.0829,32.62098],[78.05147,32.63235],[78.05328,32.58864],[78.00001,32.58325],[77.92086,32.69002],[77.93291,32.76308],[77.89866,32.77246],[77.86546,32.82557],[77.7793,32.86212],[77.80814,32.90274],[77.73057,32.96929],[77.68328,32.98359],[77.67131,32.95694],[77.60185,32.94139],[77.53736,32.88499],[77.50232,32.88417],[77.47291,32.85938],[77.44343,32.88138],[77.40518,32.88328],[77.37731,32.85734],[77.36595,32.81892],[77.33916,32.82015],[77.32274,32.85187],[77.27593,32.87428],[77.25644,32.86309],[77.23826,32.89485],[77.26291,32.94846],[77.26653,33.12645],[77.34411,33.22765],[77.33459,33.28536],[77.34545,33.36158],[77.49849,33.48757],[77.52525,33.52465],[77.52998,33.58056],[77.4898,33.60973],[77.32786,33.62791],[77.27188,33.71306],[77.22347,33.74558],[76.97803,33.77563],[76.91735,33.82333],[76.79764,33.86777],[76.7124,33.92221],[76.65354,33.99013],[76.62922,34.05798],[76.65793,34.15799],[76.71119,34.24608],[76.68065,34.28852],[76.60953,34.58026],[76.56858,34.64302],[76.4824,34.68204],[76.41248,34.8007],[76.37511,34.83315],[76.84741,34.83328],[77.04137,34.86761],[77.09381,34.91454],[77.10897,34.96159],[77.09446,35.04354],[77.04482,35.07441],[77.04246,35.10307],[77.06505,35.13983],[77.27933,35.14514],[77.48089,35.47793],[77.56057,35.48624],[77.61769,35.46983],[77.64605,35.48909],[77.67236,35.47055],[77.72296,35.47553],[77.73359,35.52455],[77.77281,35.49535],[77.81848,35.51294],[77.90128,35.46805],[77.92204,35.49445],[77.98254,35.45586],[77.96491,35.49601],[77.93123,35.51575],[77.96675,35.5716],[77.95248,35.60698],[77.99102,35.58184],[78.04195,35.58739],[78.07771,35.54916],[78.13732,35.53887],[78.15667,35.55203],[78.1622,35.62938],[78.18608,35.62403],[78.19966,35.66916],[78.25507,35.64563],[78.27207,35.66889],[78.27334,35.72195],[78.3861,35.73551],[78.42322,35.78532],[78.52127,35.76377],[78.66495,35.85739],[78.76877,35.86967],[78.82376,35.85583],[78.96051,35.89259],[79.02164,35.84875],[79.13253,35.83622],[79.19405,35.88692],[79.18981,35.9472],[79.21546,35.97878],[79.38026,35.99525],[79.38467,35.99429]]]}}]}
