{"type":"FeatureCollection","properties":{"source":"DataMeet Community Maps Project - Districts/Census_2011","state":"Lakshadweep","stateSlug":"lakshadweep"},"features":[{"type":"Feature","properties":{"DISTRICT":"Lakshadweep","ST_NM":"Lakshadweep","ST_CEN_CD":31,"DT_CEN_CD":1,"censuscode":587},"geometry":{"type":"MultiPolygon","coordinates":[[[[74.10131,11.20431],[74.05565,11.21124],[74.00069,11.25023],[73.96506,11.30596],[73.9727,11.34365],[74.00772,11.35013],[74.08284,11.30543],[74.12185,11.24505],[74.10355,11.20486],[74.10131,11.20431]]],[[[71.84486,11.83547],[71.8401,11.82146],[71.78371,11.83442],[71.76102,11.87232],[71.75176,11.9279],[71.73148,11.95444],[71.77335,12.00351],[71.79485,11.98653],[71.84325,11.83775],[71.84486,11.83547]]],[[[72.26489,10.0113],[72.23586,10.01479],[72.24357,10.0542],[72.32958,10.13906],[72.33429,10.07877],[72.30566,10.0339],[72.26744,10.013],[72.26489,10.0113]]],[[[72.17878,11.49135],[72.1486,11.50125],[72.13739,11.54313],[72.17436,11.60675],[72.19533,11.58834],[72.19707,11.4992],[72.18022,11.49146],[72.17878,11.49135]]],[[[72.09563,11.1924],[72.07969,11.13557],[72.05458,11.12138],[72.00094,11.19394],[72.06711,11.19285],[72.10014,11.22207],[72.09651,11.19473],[72.09563,11.1924]]],[[[71.90091,12.28532],[71.87954,12.38944],[71.89668,12.40315],[71.92648,12.37751],[71.90247,12.28578],[71.90091,12.28532]]],[[[73.06269,8.32895],[73.08522,8.32741],[73.06917,8.28215],[73.04716,8.26055],[73.01049,8.27007],[73.01033,8.30252],[73.06107,8.32921],[73.06269,8.32895]]],[[[73.64594,10.05337],[73.62151,10.07513],[73.62,10.10187],[73.66025,10.15505],[73.6471,10.05429],[73.64594,10.05337]]],[[[72.64708,10.5778],[72.6514,10.56161],[72.61745,10.53899],[72.63137,10.57673],[72.64628,10.57839],[72.64708,10.5778]]],[[[73.66995,10.81688],[73.70388,10.81148],[73.6652,10.8009],[73.6683,10.81701],[73.66995,10.81688]]],[[[72.17003,10.80874],[72.20655,10.87782],[72.17048,10.80886],[72.17003,10.80874]]],[[[72.79119,11.25906],[72.76237,11.18073],[72.79114,11.25906],[72.79119,11.25906]]],[[[73.00944,11.467],[73.00069,11.49744],[73.0101,11.46739],[73.00944,11.467]]],[[[72.71892,11.69523],[72.70053,11.68369],[72.71892,11.69578],[72.71892,11.69523]]],[[[72.72191,11.11153],[72.73516,11.13527],[72.722,11.11167],[72.72191,11.11153]]],[[[72.29148,10.94508],[72.28583,10.93447],[72.29105,10.94512],[72.29148,10.94508]]],[[[72.32723,10.94907],[72.31542,10.94199],[72.32744,10.94924],[72.32723,10.94907]]]]}}]}
