{"type":"FeatureCollection","properties":{"source":"DataMeet Community Maps Project - Districts/Census_2011","state":"Maharashtra","stateSlug":"maharashtra"},"features":[{"type":"Feature","properties":{"DISTRICT":"Ahmadnagar","ST_NM":"Maharashtra","ST_CEN_CD":27,"DT_CEN_CD":26,"censuscode":522},"geometry":{"type":"Polygon","coordinates":[[[74.67333,19.9467],[74.68195,19.92493],[74.64916,19.90983],[74.66087,19.83905],[74.60669,19.84963],[74.59783,19.77302],[74.63613,19.79432],[74.69536,19.75941],[74.71304,19.78227],[74.72372,19.75254],[74.70664,19.72182],[74.7299,19.72347],[74.72995,19.69918],[74.75127,19.69076],[74.78747,19.71661],[74.80665,19.703],[74.78217,19.67172],[74.78885,19.64955],[74.82482,19.67234],[74.85296,19.64793],[74.9665,19.64711],[75.06177,19.60337],[75.19445,19.59322],[75.20678,19.56183],[75.25759,19.52333],[75.28134,19.54898],[75.27683,19.51286],[75.31448,19.49404],[75.33291,19.50295],[75.33051,19.47921],[75.35595,19.50062],[75.36153,19.47959],[75.32472,19.45397],[75.33205,19.43695],[75.35605,19.44117],[75.34308,19.40572],[75.36617,19.39737],[75.44409,19.42742],[75.45285,19.41177],[75.48356,19.41945],[75.48886,19.37897],[75.53547,19.37492],[75.5193,19.32967],[75.5442,19.32571],[75.51741,19.27652],[75.46413,19.25225],[75.44547,19.21698],[75.42446,19.21862],[75.40526,19.19894],[75.42833,19.17115],[75.44885,19.17002],[75.45446,19.14203],[75.42733,19.13645],[75.43385,19.11645],[75.48515,19.12576],[75.48726,19.10362],[75.45698,19.08429],[75.37078,19.08222],[75.41059,19.13392],[75.35495,19.12516],[75.33824,19.15318],[75.33152,19.13483],[75.36195,19.10774],[75.36456,19.0762],[75.31534,19.09369],[75.28374,19.08316],[75.28739,19.03207],[75.34709,19.02285],[75.34175,18.98961],[75.29795,18.97771],[75.27331,18.99239],[75.2636,19.06966],[75.22659,19.0657],[75.22259,19.11018],[75.19021,19.0927],[75.189,19.04997],[75.20991,19.02277],[75.18135,19.01268],[75.16863,19.03577],[75.07163,19.05752],[75.09011,19.06879],[75.08104,19.08036],[75.09709,19.07937],[75.10998,19.12372],[75.0543,19.09876],[74.94244,19.1298],[74.91637,19.03991],[74.95239,19.03287],[74.95308,18.96842],[74.93932,18.97643],[74.91716,18.9601],[74.8783,18.98296],[74.84285,18.96829],[74.8268,18.98809],[74.81242,18.97283],[74.83547,18.95859],[74.82849,18.93832],[74.85817,18.90441],[74.88646,18.90948],[74.89909,18.8474],[74.92171,18.85187],[74.9172,18.83093],[74.96714,18.82474],[74.98714,18.79766],[75.00855,18.80441],[75.00758,18.77922],[75.14978,18.64986],[75.16545,18.66213],[75.17418,18.73586],[75.25426,18.7208],[75.32728,18.79815],[75.3822,18.76841],[75.39844,18.83082],[75.44085,18.79107],[75.45075,18.75012],[75.50408,18.72317],[75.52775,18.73074],[75.52654,18.75333],[75.55686,18.741],[75.5532,18.71298],[75.58884,18.6877],[75.54866,18.68233],[75.55134,18.64399],[75.48841,18.62411],[75.4191,18.5331],[75.34586,18.56167],[75.33556,18.5249],[75.26131,18.50884],[75.21537,18.55443],[75.19736,18.5285],[75.1349,18.52624],[75.07863,18.42055],[75.01623,18.43664],[75.00415,18.40291],[74.91583,18.37712],[74.90737,18.3562],[74.87117,18.35288],[74.85187,18.33075],[74.79592,18.3511],[74.80849,18.38605],[74.77985,18.40841],[74.73458,18.39791],[74.71471,18.43026],[74.72694,18.47969],[74.70492,18.50415],[74.65948,18.48537],[74.67465,18.4613],[74.64357,18.4498],[74.55387,18.49885],[74.54979,18.5138],[74.58153,18.54784],[74.54376,18.58335],[74.55069,18.61397],[74.51072,18.61591],[74.47456,18.64121],[74.51156,18.66743],[74.47907,18.68156],[74.47715,18.7222],[74.45111,18.71945],[74.42493,18.74894],[74.39954,18.74131],[74.38553,18.80319],[74.39743,18.83041],[74.32158,18.84336],[74.29442,18.90322],[74.23987,18.95337],[74.21475,19.00692],[74.17513,19.03588],[74.21057,19.12507],[74.23601,19.1233],[74.26815,19.18453],[74.30431,19.18877],[74.31645,19.20806],[74.26488,19.22407],[74.22171,19.20151],[74.16862,19.21966],[74.15894,19.20274],[74.15283,19.2218],[74.09386,19.22622],[74.04741,19.25825],[74.03456,19.25025],[74.03191,19.28371],[74.01413,19.29558],[74.0283,19.31032],[74.00003,19.35752],[73.93095,19.34056],[73.89616,19.37427],[73.85721,19.35878],[73.8137,19.39287],[73.75529,19.39699],[73.72903,19.43026],[73.68695,19.44376],[73.67579,19.46259],[73.70925,19.49631],[73.65649,19.53478],[73.63512,19.53281],[73.62021,19.58703],[73.68325,19.58898],[73.72235,19.6193],[73.7781,19.63183],[73.79378,19.6458],[73.78369,19.6608],[73.80588,19.67852],[73.79514,19.68763],[73.81354,19.68566],[73.84278,19.74095],[73.89123,19.75253],[73.91566,19.68161],[74.12146,19.64373],[74.14365,19.67329],[74.13598,19.69492],[74.15353,19.69056],[74.16765,19.72808],[74.24601,19.74392],[74.27825,19.77838],[74.31903,19.76732],[74.33373,19.79903],[74.37806,19.80585],[74.36471,19.87056],[74.27779,19.90816],[74.27289,19.93298],[74.25022,19.93678],[74.25169,19.96408],[74.28352,19.95891],[74.29,19.98676],[74.30961,19.96701],[74.31976,19.98542],[74.3659,19.96549],[74.38598,19.98048],[74.44553,19.9742],[74.46922,19.98771],[74.48537,19.97991],[74.48019,19.96626],[74.53148,19.9754],[74.57352,19.95453],[74.65898,19.94705],[74.67333,19.9467]]]}},{"type":"Feature","properties":{"DISTRICT":"Akola","ST_NM":"Maharashtra","ST_CEN_CD":27,"DT_CEN_CD":5,"censuscode":501},"geometry":{"type":"Polygon","coordinates":[[[77.61612,20.75991],[77.59116,20.75722],[77.56581,20.72102],[77.51873,20.72853],[77.50803,20.71005],[77.54358,20.67549],[77.51284,20.68308],[77.50439,20.66445],[77.4713,20.68809],[77.4567,20.6539],[77.43398,20.66133],[77.46682,20.6101],[77.41771,20.60843],[77.40393,20.57876],[77.36559,20.58131],[77.36245,20.56755],[77.34048,20.57664],[77.33621,20.52662],[77.39794,20.52586],[77.38101,20.48308],[77.36741,20.47971],[77.37135,20.4979],[77.32906,20.49862],[77.34868,20.46494],[77.30121,20.44744],[77.29553,20.41975],[77.18672,20.44873],[77.19267,20.407],[77.15222,20.4009],[77.14101,20.38257],[77.07826,20.43746],[77.02469,20.45029],[77.01763,20.41271],[76.99392,20.40847],[76.97963,20.37194],[76.93461,20.37038],[76.90039,20.34052],[76.89224,20.31801],[76.90871,20.31403],[76.8763,20.27822],[76.83989,20.30137],[76.82172,20.2804],[76.79212,20.28602],[76.79284,20.3153],[76.76948,20.31395],[76.74423,20.32623],[76.74705,20.33813],[76.69961,20.35336],[76.72766,20.40147],[76.69393,20.45847],[76.71223,20.50787],[76.73619,20.51273],[76.73712,20.49179],[76.77007,20.51291],[76.78478,20.57149],[76.77037,20.57544],[76.79067,20.59541],[76.76335,20.60297],[76.77222,20.62738],[76.7512,20.6316],[76.76616,20.64986],[76.7356,20.65728],[76.73781,20.68914],[76.72295,20.69307],[76.76044,20.72289],[76.77252,20.78368],[76.74529,20.7983],[76.7454,20.82038],[76.76288,20.85776],[76.7436,20.89017],[76.72287,20.88591],[76.68838,20.91662],[76.74655,20.92793],[76.78569,20.90848],[76.77577,20.9318],[76.78827,20.9619],[76.80793,20.9576],[76.77617,20.99001],[76.78915,21.03181],[76.76548,21.03866],[76.78863,21.1103],[76.77522,21.18889],[76.99916,21.20411],[77.02382,21.24594],[77.07987,21.2171],[77.16476,21.2371],[77.18276,21.2037],[77.15906,21.1456],[77.19691,21.13865],[77.19582,21.12173],[77.17254,21.11991],[77.17604,21.0748],[77.1492,21.07268],[77.15097,21.03679],[77.17374,21.00761],[77.16937,20.98988],[77.13576,20.98728],[77.13617,20.97437],[77.16295,20.97169],[77.1368,20.9161],[77.13416,20.86335],[77.43803,20.84502],[77.46416,20.85536],[77.46227,20.87907],[77.47958,20.87927],[77.47706,20.86249],[77.55116,20.85315],[77.55483,20.82433],[77.61083,20.7982],[77.61955,20.76887],[77.61612,20.75991]]]}},{"type":"Feature","properties":{"DISTRICT":"Amravati","ST_NM":"Maharashtra","ST_CEN_CD":27,"DT_CEN_CD":7,"censuscode":503},"geometry":{"type":"Polygon","coordinates":[[[78.34151,21.58875],[78.36573,21.57656],[78.3843,21.61688],[78.42741,21.60022],[78.41833,21.57604],[78.44869,21.40455],[78.40942,21.38367],[78.37378,21.39454],[78.34849,21.38486],[78.25127,21.3286],[78.15798,21.32978],[78.07512,21.35329],[78.06801,21.29882],[78.0817,21.27779],[78.0612,21.27422],[78.05549,21.24916],[78.09876,21.19922],[78.09456,21.1769],[78.14531,21.13719],[78.13221,21.11298],[78.15394,21.0749],[78.13757,21.00409],[78.14612,20.95222],[78.16955,20.941],[78.1844,20.90464],[78.21599,20.90827],[78.25568,20.88644],[78.29387,20.82765],[78.31786,20.82309],[78.29554,20.80244],[78.31137,20.73495],[78.29935,20.701],[78.25402,20.68392],[78.21338,20.68935],[78.15902,20.65913],[78.13224,20.66433],[78.1119,20.64017],[78.0933,20.64096],[78.10032,20.66598],[78.08902,20.67207],[78.03866,20.66645],[78.02665,20.63283],[77.92433,20.55855],[77.91237,20.56542],[77.91908,20.60452],[77.89309,20.62346],[77.84668,20.58765],[77.8468,20.57039],[77.81151,20.58719],[77.77161,20.53994],[77.68739,20.57972],[77.63076,20.56679],[77.65573,20.64717],[77.65293,20.66262],[77.63701,20.65743],[77.63353,20.7115],[77.61417,20.71901],[77.63648,20.75513],[77.61611,20.7599],[77.61083,20.7982],[77.55483,20.82433],[77.54927,20.85391],[77.47706,20.86249],[77.47958,20.87927],[77.46688,20.88046],[77.46416,20.85536],[77.43803,20.84502],[77.13416,20.86335],[77.1368,20.9161],[77.16295,20.97169],[77.13617,20.97437],[77.13576,20.98728],[77.16937,20.98988],[77.17374,21.00761],[77.15097,21.03679],[77.1492,21.07268],[77.17604,21.0748],[77.17254,21.11991],[77.19582,21.12173],[77.19691,21.13865],[77.15906,21.1456],[77.18276,21.2037],[77.16476,21.2371],[77.07987,21.2171],[77.02382,21.24594],[76.99916,21.20411],[76.79271,21.18479],[76.76599,21.19397],[76.72409,21.28907],[76.6628,21.28023],[76.6262,21.33286],[76.73402,21.40652],[76.74537,21.44082],[76.78624,21.46415],[76.79389,21.48753],[76.76498,21.52025],[76.78993,21.53772],[76.78235,21.56005],[76.7975,21.59508],[76.83576,21.59062],[76.85441,21.61257],[76.90347,21.59838],[77.07507,21.72042],[77.16066,21.71093],[77.17436,21.72478],[77.21038,21.69156],[77.22761,21.71543],[77.28627,21.72178],[77.2894,21.76027],[77.40447,21.75374],[77.47893,21.76902],[77.54575,21.6987],[77.5749,21.62481],[77.57455,21.56046],[77.61073,21.54064],[77.57052,21.52762],[77.46086,21.55437],[77.42025,21.53086],[77.44163,21.47079],[77.47264,21.4548],[77.49038,21.37574],[77.51392,21.37477],[77.53058,21.419],[77.58796,21.36254],[77.60837,21.36506],[77.6051,21.3916],[77.65461,21.39145],[77.67088,21.36958],[77.69484,21.39514],[77.70895,21.3572],[77.73764,21.36285],[77.75027,21.38233],[77.79731,21.38888],[77.80325,21.41042],[77.88588,21.37589],[77.94286,21.38513],[78.17381,21.49673],[78.18544,21.55683],[78.2739,21.56892],[78.26683,21.59193],[78.30467,21.58327],[78.30879,21.56967],[78.33318,21.57941],[78.34151,21.58875]]]}},{"type":"Feature","properties":{"DISTRICT":"Aurangabad","ST_NM":"Maharashtra","ST_CEN_CD":27,"DT_CEN_CD":19,"censuscode":515},"geometry":{"type":"Polygon","coordinates":[[[75.88953,20.56336],[75.86497,20.56175],[75.88714,20.526],[75.86359,20.52765],[75.85167,20.49023],[75.89434,20.44705],[75.86523,20.4412],[75.85941,20.46192],[75.82559,20.47428],[75.79896,20.453],[75.76549,20.45071],[75.73729,20.41429],[75.77336,20.33679],[75.71886,20.33185],[75.68572,20.30937],[75.69664,20.28616],[75.67608,20.24013],[75.67921,20.19102],[75.64871,20.19133],[75.62716,20.10537],[75.58937,20.10196],[75.60738,20.05179],[75.59369,20.02332],[75.60497,20.00586],[75.63854,20.00378],[75.63738,19.95508],[75.66801,19.93973],[75.6475,19.87388],[75.6526,19.81507],[75.63664,19.81362],[75.64539,19.78489],[75.62786,19.77591],[75.63351,19.65539],[75.59094,19.63763],[75.60083,19.60225],[75.6519,19.59483],[75.65713,19.56667],[75.6348,19.4644],[75.61133,19.45334],[75.60987,19.38144],[75.52303,19.40066],[75.49191,19.43999],[75.46881,19.41309],[75.44409,19.42742],[75.36617,19.39737],[75.34308,19.40572],[75.35605,19.44117],[75.33205,19.43695],[75.32472,19.45397],[75.36153,19.47959],[75.35595,19.50062],[75.33051,19.47921],[75.33291,19.50295],[75.31448,19.49404],[75.27683,19.51286],[75.28134,19.54898],[75.25759,19.52333],[75.20678,19.56183],[75.19445,19.59322],[75.06177,19.60337],[74.9665,19.64711],[74.85296,19.64793],[74.82482,19.67234],[74.78885,19.64955],[74.78217,19.67172],[74.80665,19.703],[74.78747,19.71661],[74.75127,19.69076],[74.72995,19.69918],[74.7299,19.72347],[74.70664,19.72182],[74.72372,19.75254],[74.71304,19.78227],[74.69536,19.75941],[74.63613,19.79432],[74.61549,19.77229],[74.59338,19.77649],[74.60669,19.84963],[74.66087,19.83905],[74.64916,19.90983],[74.68195,19.92493],[74.6752,19.96313],[74.68952,19.97149],[74.6919,20.00634],[74.72023,20.02114],[74.71085,20.07838],[74.73825,20.0823],[74.73046,20.11143],[74.7053,20.11459],[74.72401,20.19034],[74.76411,20.18279],[74.75997,20.19951],[74.78437,20.20396],[74.8041,20.23109],[74.78387,20.23044],[74.82883,20.24305],[74.8586,20.22709],[74.85611,20.17706],[74.89905,20.1768],[74.91091,20.15265],[74.93051,20.15252],[74.93142,20.21369],[74.91111,20.21573],[74.90839,20.24335],[74.93422,20.24666],[74.95362,20.28979],[74.98747,20.30237],[74.99539,20.3359],[75.05651,20.30731],[75.05946,20.33401],[75.12546,20.34939],[75.10843,20.41186],[75.16147,20.43659],[75.16345,20.47597],[75.23116,20.49305],[75.22737,20.51443],[75.25999,20.57892],[75.29292,20.56917],[75.32131,20.59153],[75.36254,20.59686],[75.37025,20.57691],[75.39413,20.57444],[75.39732,20.52408],[75.4342,20.51326],[75.42853,20.5321],[75.45098,20.54029],[75.45861,20.51602],[75.46091,20.55293],[75.49567,20.52777],[75.5262,20.56069],[75.53674,20.60965],[75.59032,20.60265],[75.61494,20.60923],[75.61499,20.62415],[75.66,20.62664],[75.66943,20.67047],[75.70588,20.66153],[75.70312,20.61772],[75.75871,20.61419],[75.75978,20.57995],[75.7897,20.58659],[75.78921,20.56537],[75.84907,20.56999],[75.82962,20.57435],[75.85607,20.62481],[75.8874,20.59683],[75.88868,20.5681],[75.88953,20.56336]]]}},{"type":"Feature","properties":{"DISTRICT":"Bhandara","ST_NM":"Maharashtra","ST_CEN_CD":27,"DT_CEN_CD":10,"censuscode":506},"geometry":{"type":"Polygon","coordinates":[[[79.92223,21.52415],[79.92586,21.48648],[79.88304,21.42443],[79.79947,21.37686],[79.81537,21.31587],[79.83875,21.31019],[79.82604,21.27033],[79.86542,21.25823],[79.84265,21.25508],[79.83247,21.22958],[79.92285,21.2533],[80.00805,21.21605],[80.02306,21.22553],[80.05828,21.19966],[80.08366,21.14343],[80.06128,21.10535],[80.08099,21.10019],[80.08576,21.046],[80.04762,21.00305],[80.0194,21.00122],[80,21.02201],[79.98756,21.00775],[79.94925,21.01179],[79.94781,20.92605],[79.90534,20.88363],[79.86532,20.87614],[79.866,20.78131],[79.88507,20.78997],[79.8888,20.76624],[79.94033,20.78531],[79.91591,20.73821],[79.92882,20.73922],[79.9344,20.71191],[79.97038,20.71395],[79.97204,20.70125],[79.93299,20.66653],[79.89426,20.68308],[79.80288,20.68422],[79.7893,20.71742],[79.76174,20.73105],[79.75256,20.68575],[79.71349,20.6853],[79.69347,20.66875],[79.69566,20.64034],[79.62315,20.67297],[79.61315,20.69117],[79.50902,20.70395],[79.56043,20.80287],[79.54159,20.8478],[79.58303,20.84241],[79.61913,20.86472],[79.61659,20.90253],[79.64414,20.91654],[79.66092,20.95281],[79.59965,21.07246],[79.57312,21.06723],[79.55193,21.08639],[79.52947,21.07532],[79.52754,21.11749],[79.49274,21.13936],[79.51049,21.16267],[79.50165,21.18327],[79.53255,21.17449],[79.53434,21.15609],[79.56178,21.15549],[79.55318,21.20615],[79.57672,21.27743],[79.55692,21.3303],[79.48789,21.39867],[79.48328,21.42732],[79.45523,21.429],[79.4493,21.45652],[79.51423,21.53413],[79.65368,21.55648],[79.66434,21.57662],[79.73889,21.60185],[79.79812,21.58081],[79.86344,21.53045],[79.92222,21.52408],[79.92223,21.52415]]]}},{"type":"Feature","properties":{"DISTRICT":"Bid","ST_NM":"Maharashtra","ST_CEN_CD":27,"DT_CEN_CD":27,"censuscode":523},"geometry":{"type":"Polygon","coordinates":[[[75.60987,19.38144],[75.68802,19.3553],[75.75444,19.35865],[75.77198,19.39522],[75.83968,19.3706],[75.91799,19.3878],[75.90479,19.33024],[75.93368,19.29362],[75.97085,19.29932],[76.01943,19.33938],[76.03928,19.28591],[76.08355,19.27964],[76.10132,19.30815],[76.19901,19.28465],[76.22651,19.24144],[76.25592,19.23996],[76.29143,19.26228],[76.35706,19.24317],[76.36092,19.15215],[76.33411,19.13559],[76.3247,19.10704],[76.35523,19.1026],[76.3783,19.13105],[76.4118,19.09249],[76.43723,19.09565],[76.45181,19.05103],[76.44218,19.03821],[76.45632,19.00764],[76.47896,19.00068],[76.47885,18.95644],[76.50112,18.95104],[76.52284,18.91722],[76.53686,18.91725],[76.53964,18.94942],[76.58396,18.94482],[76.58815,18.87416],[76.62297,18.86906],[76.64814,18.8219],[76.66737,18.81904],[76.67595,18.76128],[76.72712,18.74926],[76.73633,18.6998],[76.68579,18.69186],[76.66536,18.65605],[76.68233,18.63699],[76.63361,18.551],[76.70559,18.54719],[76.69948,18.50027],[76.65261,18.48213],[76.64082,18.52553],[76.61806,18.48917],[76.6298,18.46434],[76.60518,18.45463],[76.56948,18.46455],[76.55758,18.49677],[76.54906,18.46529],[76.51139,18.4692],[76.46828,18.49631],[76.42402,18.55282],[76.3775,18.54257],[76.3473,18.56557],[76.28233,18.5748],[76.27692,18.55697],[76.25432,18.57684],[76.18716,18.58509],[76.17089,18.58504],[76.15897,18.55808],[76.15138,18.58313],[76.09874,18.58778],[76.05807,18.57341],[76.02065,18.60443],[75.99065,18.59038],[75.9939,18.62005],[75.94981,18.60845],[75.94132,18.6452],[75.86276,18.64988],[75.81103,18.67367],[75.79636,18.65581],[75.69016,18.69063],[75.67053,18.6875],[75.66545,18.64827],[75.64736,18.64834],[75.60165,18.69253],[75.55872,18.70581],[75.55686,18.741],[75.52654,18.75333],[75.52775,18.73074],[75.50408,18.72317],[75.45075,18.75012],[75.44085,18.79107],[75.39844,18.83082],[75.3822,18.76841],[75.32728,18.79815],[75.25426,18.7208],[75.17418,18.73586],[75.15362,18.64861],[75.00758,18.77922],[75.00855,18.80441],[74.99089,18.79648],[74.96714,18.82474],[74.9172,18.83093],[74.92171,18.85187],[74.89909,18.8474],[74.88646,18.90948],[74.86859,18.899],[74.82849,18.93832],[74.83897,18.95259],[74.81242,18.97283],[74.8268,18.98809],[74.84285,18.96829],[74.8783,18.98296],[74.91716,18.9601],[74.95659,18.97299],[74.95239,19.03287],[74.91637,19.03991],[74.94244,19.1298],[75.0543,19.09876],[75.10998,19.12372],[75.09709,19.07937],[75.08104,19.08036],[75.09011,19.06879],[75.07163,19.05752],[75.16863,19.03577],[75.18135,19.01268],[75.20991,19.02277],[75.189,19.04997],[75.19021,19.0927],[75.22259,19.11018],[75.22659,19.0657],[75.2636,19.06966],[75.27331,18.99239],[75.29795,18.97771],[75.34175,18.98961],[75.34709,19.02285],[75.28739,19.03207],[75.28364,19.07857],[75.31534,19.09369],[75.36456,19.0762],[75.36195,19.10774],[75.33448,19.12921],[75.33238,19.15002],[75.35206,19.14729],[75.35495,19.12516],[75.41059,19.13392],[75.3689,19.0891],[75.38437,19.07782],[75.45698,19.08429],[75.48726,19.10362],[75.48515,19.12576],[75.43385,19.11645],[75.42733,19.13645],[75.45446,19.14203],[75.44885,19.17002],[75.40454,19.19361],[75.54171,19.30845],[75.5442,19.32571],[75.5193,19.32967],[75.53547,19.37492],[75.48886,19.37897],[75.4803,19.43156],[75.49191,19.43999],[75.51952,19.40324],[75.57203,19.37961],[75.60134,19.38305],[75.60987,19.38144]]]}},{"type":"Feature","properties":{"DISTRICT":"Buldana","ST_NM":"Maharashtra","ST_CEN_CD":27,"DT_CEN_CD":4,"censuscode":500},"geometry":{"type":"Polygon","coordinates":[[[76.78376,21.18896],[76.77218,21.18092],[76.78863,21.1103],[76.76548,21.03866],[76.78915,21.03181],[76.77617,20.99001],[76.80793,20.9576],[76.78827,20.9619],[76.77577,20.9318],[76.78569,20.90848],[76.74655,20.92793],[76.68838,20.91662],[76.72287,20.88591],[76.7436,20.89017],[76.76288,20.85776],[76.7454,20.82038],[76.74529,20.7983],[76.77252,20.78368],[76.76044,20.72289],[76.72295,20.69307],[76.73781,20.68914],[76.7356,20.65728],[76.76616,20.64986],[76.7512,20.6316],[76.77222,20.62738],[76.76335,20.60297],[76.79067,20.59541],[76.77037,20.57544],[76.78478,20.57149],[76.77007,20.51291],[76.73712,20.49179],[76.73902,20.51068],[76.71656,20.51358],[76.69393,20.45847],[76.72766,20.40147],[76.69961,20.35336],[76.74705,20.33813],[76.74423,20.32623],[76.76948,20.31395],[76.79284,20.3153],[76.78856,20.29013],[76.82977,20.26696],[76.8115,20.21959],[76.78684,20.20301],[76.74722,20.20474],[76.75866,20.13076],[76.67091,20.12635],[76.64771,20.0684],[76.63039,20.08229],[76.62488,20.04971],[76.66258,20.04794],[76.6455,19.98175],[76.65941,19.96293],[76.63805,19.95845],[76.63345,19.9265],[76.60674,19.92098],[76.61176,19.89044],[76.65658,19.89706],[76.65266,19.8741],[76.62337,19.84254],[76.56905,19.83838],[76.54042,19.84477],[76.50025,19.88348],[76.49068,19.91807],[76.40822,19.91972],[76.39023,19.90425],[76.36816,19.92567],[76.33958,19.88191],[76.29819,19.86959],[76.25657,19.8733],[76.14011,19.84446],[76.12931,19.86283],[76.10024,19.85591],[76.08055,19.91152],[76.04862,19.94725],[76.01401,19.95323],[76.01665,19.97397],[75.99045,19.97516],[75.96725,20.00009],[76.02471,20.02313],[76.01972,20.05899],[76.06813,20.06959],[76.0573,20.09843],[76.09741,20.09726],[76.11092,20.16159],[76.15124,20.20454],[76.13418,20.22172],[76.1664,20.23668],[76.19489,20.30031],[76.14188,20.2999],[76.1455,20.31097],[76.12629,20.31521],[76.12892,20.34112],[76.09557,20.34553],[76.08315,20.36471],[76.04956,20.33571],[76.03114,20.28843],[76.00242,20.28795],[75.9977,20.31306],[75.92814,20.30691],[75.94217,20.37123],[75.96814,20.37362],[75.9422,20.42555],[75.95767,20.45673],[75.94242,20.49561],[75.95055,20.51955],[75.97398,20.53347],[76.01845,20.53027],[76.01849,20.55029],[76.0403,20.55505],[76.03284,20.63848],[76.01107,20.64302],[75.99814,20.66736],[75.99872,20.71269],[76.01603,20.73142],[75.98691,20.75885],[76.01231,20.78552],[76.04993,20.78824],[76.05108,20.81647],[76.11165,20.8817],[76.11541,20.89328],[76.08072,20.90804],[76.08411,20.92753],[76.15943,21.00035],[76.16651,21.04002],[76.22581,21.01191],[76.28058,20.9582],[76.34691,20.94977],[76.38331,20.97751],[76.39441,21.01414],[76.38353,21.07728],[76.41293,21.1052],[76.4539,21.11281],[76.4887,21.19392],[76.5306,21.18717],[76.56085,21.20368],[76.62499,21.19054],[76.64425,21.24557],[76.6602,21.24566],[76.6628,21.28023],[76.72409,21.28907],[76.74905,21.25327],[76.74836,21.22206],[76.76802,21.19187],[76.78255,21.19277],[76.78376,21.18896]]]}},{"type":"Feature","properties":{"DISTRICT":"Chandrapur","ST_NM":"Maharashtra","ST_CEN_CD":27,"DT_CEN_CD":13,"censuscode":509},"geometry":{"type":"Polygon","coordinates":[[[79.93299,20.66653],[79.94285,20.6241],[79.92762,20.55217],[79.95281,20.52815],[79.94131,20.44675],[79.97351,20.36074],[79.94539,20.29401],[79.99584,20.21977],[79.9342,20.18689],[79.91221,20.14552],[79.97236,20.11274],[79.99159,20.04534],[79.95054,19.98477],[79.9125,19.96759],[79.87116,19.98402],[79.84869,20.03248],[79.8142,20.02887],[79.7807,20.00036],[79.77687,19.95002],[79.80515,19.89363],[79.74381,19.81652],[79.75499,19.76038],[79.78681,19.71744],[79.79195,19.59599],[79.7468,19.60547],[79.71938,19.58566],[79.6461,19.57726],[79.62218,19.56088],[79.60442,19.50608],[79.55881,19.52228],[79.54896,19.55071],[79.52125,19.54412],[79.51968,19.52027],[79.47666,19.49962],[79.44745,19.5356],[79.41976,19.53554],[79.37512,19.57318],[79.32029,19.56742],[79.31084,19.592],[79.2498,19.61429],[79.24258,19.52867],[79.21278,19.49356],[79.22888,19.46974],[79.19495,19.46062],[79.1024,19.53218],[79.02402,19.54157],[78.99848,19.56359],[78.96014,19.55335],[78.98612,19.58658],[78.96844,19.61875],[78.97453,19.65062],[78.92141,19.66904],[78.86423,19.65757],[78.8689,19.69797],[78.84972,19.7601],[78.87505,19.76765],[78.9029,19.73708],[78.9489,19.74861],[78.94044,19.77828],[78.95862,19.80321],[79.02046,19.79909],[79.06563,19.81475],[79.15166,19.89304],[79.09489,19.91466],[79.0936,19.94564],[79.11045,19.96463],[79.09372,19.97713],[79.11521,19.98844],[79.10861,20.00799],[79.01668,20.11277],[78.97052,20.12318],[78.98142,20.14865],[78.95512,20.1683],[78.96271,20.20263],[78.9213,20.25235],[78.81253,20.25386],[78.81979,20.27057],[78.80123,20.30142],[78.83371,20.32805],[78.81939,20.39284],[78.85571,20.40897],[78.8418,20.43106],[78.95082,20.42844],[78.96855,20.45855],[78.98972,20.46283],[79.00186,20.44765],[79.02396,20.47848],[79.1307,20.45404],[79.21438,20.54642],[79.22639,20.58336],[79.32179,20.58324],[79.35283,20.67129],[79.37552,20.6773],[79.39902,20.65733],[79.43492,20.65878],[79.49156,20.70404],[79.52079,20.70869],[79.61315,20.69117],[79.62315,20.67297],[79.69566,20.64034],[79.69347,20.66875],[79.71349,20.6853],[79.75256,20.68575],[79.76174,20.73105],[79.7893,20.71742],[79.80288,20.68422],[79.90389,20.67643],[79.93299,20.66653]]]}},{"type":"Feature","properties":{"DISTRICT":"Dhule","ST_NM":"Maharashtra","ST_CEN_CD":27,"DT_CEN_CD":2,"censuscode":498},"geometry":{"type":"Polygon","coordinates":[[[75.20572,21.41368],[75.14157,21.38415],[75.14823,21.34912],[75.12152,21.34382],[75.15198,21.32303],[75.13675,21.3167],[75.13027,21.26991],[75.10439,21.236],[74.99922,21.18736],[74.97368,21.22088],[74.94376,21.22497],[74.96343,21.19176],[74.88881,21.14505],[74.85811,21.06306],[74.89111,21.05245],[74.92121,21.01057],[74.93078,20.96716],[74.91263,20.96203],[74.91415,20.92683],[74.96198,20.90512],[74.98646,20.82226],[74.96193,20.80486],[74.99426,20.74873],[74.95102,20.72045],[74.95596,20.69419],[74.92946,20.65745],[74.86843,20.63809],[74.80348,20.63621],[74.79848,20.65975],[74.65085,20.6949],[74.66503,20.77419],[74.5824,20.814],[74.57262,20.83276],[74.53952,20.83459],[74.51231,20.80789],[74.47837,20.8312],[74.43802,20.80133],[74.38764,20.83461],[74.40531,20.83573],[74.39678,20.85929],[74.38532,20.8403],[74.35826,20.84296],[74.3488,20.85919],[74.33604,20.83837],[74.29089,20.85521],[74.16766,20.86286],[74.14478,20.85212],[74.12635,20.86507],[74.09734,20.84118],[74.06067,20.84821],[74.04133,20.83538],[74.02565,20.85083],[74.02159,20.83573],[74.00003,20.83561],[73.96818,20.85136],[73.93889,20.83917],[73.92482,20.84745],[73.92113,20.89813],[73.89006,20.93204],[73.90497,20.97444],[73.85093,20.99675],[73.85638,21.02996],[73.95468,21.03174],[73.95132,21.08594],[73.97549,21.11104],[74.00297,21.11969],[74.01728,21.10286],[74.01964,21.14393],[74.04072,21.1444],[74.051,21.1275],[74.083,21.1364],[74.05816,21.17124],[74.11441,21.21131],[74.14605,21.20868],[74.15661,21.23184],[74.18071,21.20883],[74.25137,21.24848],[74.3145,21.24701],[74.34297,21.22912],[74.35507,21.25167],[74.40855,21.26693],[74.43249,21.26294],[74.4381,21.23718],[74.49182,21.23953],[74.49786,21.29021],[74.47549,21.30588],[74.47912,21.35307],[74.50857,21.3896],[74.49471,21.39186],[74.49804,21.42735],[74.5728,21.40345],[74.6085,21.41532],[74.63856,21.39945],[74.68583,21.40251],[74.69854,21.47046],[74.75411,21.476],[74.75684,21.57547],[74.77212,21.6135],[74.82792,21.60834],[74.86166,21.63174],[74.89663,21.62873],[75.05153,21.56501],[75.11315,21.45742],[75.20198,21.41516],[75.20572,21.41368]]]}},{"type":"Feature","properties":{"DISTRICT":"Garhchiroli","ST_NM":"Maharashtra","ST_CEN_CD":27,"DT_CEN_CD":12,"censuscode":508},"geometry":{"type":"Polygon","coordinates":[[[80.56275,20.82099],[80.5524,20.76675],[80.58524,20.68032],[80.51446,20.65611],[80.48844,20.61864],[80.51877,20.58674],[80.57421,20.61406],[80.62926,20.60558],[80.60164,20.44836],[80.6104,20.43523],[80.59298,20.39763],[80.62367,20.32791],[80.54896,20.30897],[80.51777,20.27174],[80.47235,20.27371],[80.38982,20.24376],[80.42087,20.19238],[80.39289,20.16498],[80.40072,20.14623],[80.44654,20.13141],[80.45826,20.14715],[80.50497,20.14126],[80.54735,20.11226],[80.55316,20.06822],[80.53956,20.00653],[80.55257,19.98983],[80.5274,19.93359],[80.48747,19.93047],[80.45066,19.95525],[80.41323,19.93507],[80.41464,19.90852],[80.48964,19.90161],[80.50455,19.87153],[80.43866,19.8131],[80.40451,19.81899],[80.40167,19.79737],[80.45946,19.79576],[80.48513,19.77533],[80.48727,19.79833],[80.46656,19.81417],[80.47618,19.82749],[80.54951,19.8222],[80.54675,19.77759],[80.67302,19.6955],[80.66403,19.61568],[80.72824,19.6119],[80.77155,19.58843],[80.7737,19.57195],[80.83494,19.56639],[80.85273,19.53296],[80.89293,19.51313],[80.89947,19.46964],[80.87488,19.44743],[80.79528,19.4306],[80.82012,19.38675],[80.85243,19.36499],[80.75663,19.29083],[80.69597,19.28752],[80.67921,19.33038],[80.61744,19.31102],[80.57505,19.40459],[80.52105,19.35189],[80.48278,19.33871],[80.45262,19.27364],[80.38633,19.23632],[80.39384,19.19283],[80.33201,19.14535],[80.3293,19.07879],[80.29602,19.05022],[80.30059,19.02557],[80.27491,18.99133],[80.27484,18.9329],[80.34303,18.86044],[80.35355,18.81549],[80.30146,18.79497],[80.27911,18.76661],[80.24943,18.76412],[80.27485,18.72244],[80.25396,18.70578],[80.21515,18.70488],[80.19621,18.68002],[80.16533,18.70031],[80.11801,18.68052],[80.05348,18.72508],[80.01941,18.77081],[79.93896,18.78835],[79.90092,18.83464],[79.93245,18.84136],[79.94594,18.86269],[79.94136,19.02521],[79.92295,19.05081],[79.86637,19.03803],[79.86481,19.10739],[79.95004,19.17388],[79.92695,19.22957],[79.96858,19.30058],[79.9798,19.40395],[79.94691,19.4673],[79.8348,19.53954],[79.82315,19.57148],[79.79283,19.59205],[79.78681,19.71744],[79.75499,19.76038],[79.74381,19.81652],[79.80515,19.89363],[79.77221,19.97196],[79.79872,20.02028],[79.84869,20.03248],[79.87116,19.98402],[79.92437,19.97059],[79.99159,20.04534],[79.97236,20.11274],[79.91221,20.14552],[79.9342,20.18689],[79.99584,20.21977],[79.94539,20.29401],[79.94999,20.32688],[79.97386,20.34998],[79.94131,20.44675],[79.95281,20.52815],[79.92762,20.55217],[79.94285,20.6241],[79.93446,20.67618],[79.96144,20.69066],[80.01851,20.66626],[80.0584,20.70776],[80.0871,20.6887],[80.16159,20.68698],[80.2416,20.65303],[80.30446,20.71371],[80.33178,20.81963],[80.38083,20.80492],[80.41539,20.82357],[80.54362,20.82294],[80.56275,20.82099]]]}},{"type":"Feature","properties":{"DISTRICT":"Gondiya","ST_NM":"Maharashtra","ST_CEN_CD":27,"DT_CEN_CD":11,"censuscode":507},"geometry":{"type":"Polygon","coordinates":[[[80.66342,21.33138],[80.67984,21.29897],[80.64219,21.25086],[80.56463,21.20465],[80.52757,21.20419],[80.51445,21.18312],[80.46408,21.17349],[80.44543,21.12211],[80.45603,21.11269],[80.44008,21.09788],[80.45413,21.03747],[80.43053,21.01046],[80.45557,20.94629],[80.47212,20.92833],[80.5487,20.93503],[80.56275,20.82099],[80.41539,20.82357],[80.38083,20.80492],[80.33178,20.81963],[80.30446,20.71371],[80.2416,20.65303],[80.16159,20.68698],[80.0871,20.6887],[80.0584,20.70776],[80.01851,20.66626],[79.98922,20.67348],[79.96453,20.68987],[79.97038,20.71395],[79.9344,20.71191],[79.92882,20.73922],[79.91591,20.73821],[79.94033,20.78531],[79.8888,20.76624],[79.88507,20.78997],[79.866,20.78131],[79.86532,20.87614],[79.90534,20.88363],[79.94781,20.92605],[79.94925,21.01179],[79.98756,21.00775],[80,21.02201],[80.0194,21.00122],[80.04762,21.00305],[80.08703,21.04821],[80.08099,21.10019],[80.06128,21.10535],[80.08366,21.14343],[80.04975,21.21025],[79.97164,21.2281],[79.94189,21.2522],[79.90165,21.2404],[79.88731,21.25245],[79.86465,21.24442],[79.86898,21.22888],[79.83247,21.22958],[79.84265,21.25508],[79.86542,21.25823],[79.82604,21.27033],[79.83875,21.31019],[79.81537,21.31587],[79.79947,21.37686],[79.88304,21.42443],[79.92586,21.48648],[79.93359,21.5533],[79.9727,21.55687],[80.00316,21.53497],[80.03472,21.557],[80.07008,21.55428],[80.12151,21.60669],[80.15446,21.606],[80.19482,21.6339],[80.2669,21.61993],[80.2986,21.57791],[80.32689,21.5735],[80.33114,21.54868],[80.37734,21.521],[80.41806,21.43841],[80.39581,21.40761],[80.41013,21.37678],[80.44717,21.37243],[80.45509,21.40262],[80.49228,21.39797],[80.52625,21.38996],[80.60003,21.32535],[80.65866,21.3318],[80.66342,21.33138]]]}},{"type":"Feature","properties":{"DISTRICT":"Hingoli","ST_NM":"Maharashtra","ST_CEN_CD":27,"DT_CEN_CD":16,"censuscode":512},"geometry":{"type":"Polygon","coordinates":[[[77.28584,19.91047],[77.29273,19.89929],[77.31777,19.90616],[77.29859,19.87953],[77.32364,19.88496],[77.36532,19.85806],[77.36359,19.83302],[77.34454,19.82912],[77.36223,19.81503],[77.39002,19.82094],[77.38353,19.78812],[77.40993,19.77253],[77.38711,19.76601],[77.38325,19.72879],[77.41333,19.74354],[77.43591,19.72939],[77.44605,19.68766],[77.47006,19.66467],[77.45972,19.61232],[77.48112,19.59993],[77.45394,19.56736],[77.46887,19.56332],[77.47025,19.49861],[77.48972,19.49523],[77.49365,19.46633],[77.47233,19.43679],[77.45249,19.43966],[77.4373,19.40705],[77.44974,19.38276],[77.41973,19.37664],[77.38614,19.34092],[77.31383,19.35396],[77.31028,19.33001],[77.28009,19.31479],[77.2443,19.32089],[77.2382,19.27374],[77.22287,19.27392],[77.17915,19.21705],[77.19154,19.13039],[77.16862,19.11977],[77.15301,19.07763],[77.09803,19.06633],[77.08753,19.08404],[77.10521,19.11711],[77.0935,19.13589],[77.12064,19.14973],[77.09488,19.15658],[77.10014,19.17266],[77.07589,19.18972],[77.03813,19.20128],[77.04929,19.24761],[77.01332,19.25158],[77.02182,19.28243],[76.9702,19.2767],[76.97171,19.25266],[76.92618,19.2475],[76.93221,19.29667],[76.89297,19.31138],[76.89577,19.37832],[76.92227,19.41736],[76.92122,19.44619],[76.95299,19.48874],[76.98643,19.47509],[76.97742,19.50522],[76.95954,19.51138],[76.96924,19.54521],[76.94276,19.62213],[76.91983,19.61578],[76.90337,19.64383],[76.87118,19.61834],[76.85092,19.7043],[76.81596,19.70135],[76.81949,19.66706],[76.80935,19.68154],[76.78836,19.6708],[76.78119,19.73038],[76.75999,19.68443],[76.71647,19.76814],[76.68753,19.78108],[76.70608,19.83582],[76.67659,19.83829],[76.69139,19.87236],[76.73938,19.87196],[76.74644,19.90662],[76.76725,19.9037],[76.77333,19.93269],[76.82345,19.92667],[76.83713,19.96076],[76.89615,19.94598],[76.90086,19.96256],[76.98913,19.9961],[76.99321,20.01777],[77.06108,19.99605],[77.10202,19.93269],[77.20396,19.99134],[77.218,19.97782],[77.21049,19.94295],[77.23932,19.93806],[77.24089,19.89226],[77.285,19.91601],[77.28584,19.91047]]]}},{"type":"Feature","properties":{"DISTRICT":"Jalgaon","ST_NM":"Maharashtra","ST_CEN_CD":27,"DT_CEN_CD":3,"censuscode":499},"geometry":{"type":"Polygon","coordinates":[[[75.61889,21.39088],[75.6729,21.37807],[75.9596,21.39386],[76.05277,21.3504],[76.09918,21.37161],[76.15981,21.25692],[76.14495,21.23589],[76.16463,21.22197],[76.17332,21.18613],[76.16742,21.16858],[76.11476,21.16831],[76.13614,21.1241],[76.16901,21.10332],[76.17318,21.08253],[76.26287,21.09262],[76.28255,21.07325],[76.38379,21.07751],[76.39815,21.03032],[76.38331,20.97751],[76.34691,20.94977],[76.28058,20.9582],[76.22581,21.01191],[76.16651,21.04002],[76.15943,21.00035],[76.08411,20.92753],[76.08072,20.90804],[76.11541,20.89328],[76.11165,20.8817],[76.05108,20.81647],[76.04993,20.78824],[76.01231,20.78552],[75.98691,20.75885],[76.01603,20.73142],[75.99707,20.69656],[76.01062,20.63927],[75.99108,20.62315],[75.95715,20.62497],[75.95492,20.60646],[75.93352,20.5997],[75.92967,20.54986],[75.88953,20.56336],[75.86916,20.62356],[75.84076,20.61654],[75.82962,20.57435],[75.84593,20.56761],[75.78921,20.56537],[75.7897,20.58659],[75.75978,20.57995],[75.75871,20.61419],[75.70312,20.61772],[75.70588,20.66153],[75.66943,20.67047],[75.66,20.62664],[75.61499,20.62415],[75.61494,20.60923],[75.59032,20.60265],[75.53674,20.60965],[75.5262,20.56069],[75.49567,20.52777],[75.46091,20.55293],[75.45861,20.51602],[75.45098,20.54029],[75.42853,20.5321],[75.4342,20.51326],[75.39732,20.52408],[75.39413,20.57444],[75.37025,20.57691],[75.36254,20.59686],[75.32131,20.59153],[75.29292,20.56917],[75.25999,20.57892],[75.22737,20.51443],[75.23116,20.49305],[75.16345,20.47597],[75.16147,20.43659],[75.10843,20.41186],[75.12546,20.34939],[75.05946,20.33401],[75.05651,20.30731],[74.99539,20.3359],[74.98747,20.30237],[74.97101,20.30407],[74.94346,20.2705],[74.85973,20.28181],[74.86767,20.33509],[74.82864,20.40251],[74.84208,20.40989],[74.79545,20.47698],[74.77354,20.4706],[74.78619,20.50011],[74.7619,20.53862],[74.79577,20.5395],[74.81493,20.63375],[74.92946,20.65745],[74.95596,20.69419],[74.95102,20.72045],[74.99426,20.74873],[74.96193,20.80486],[74.98646,20.82226],[74.96198,20.90512],[74.91415,20.92683],[74.91263,20.96203],[74.93078,20.96716],[74.92121,21.01057],[74.89111,21.05245],[74.85811,21.06306],[74.89297,21.1514],[74.96343,21.19176],[74.94376,21.22497],[74.97368,21.22088],[74.99922,21.18736],[75.10439,21.236],[75.13027,21.26991],[75.13675,21.3167],[75.15198,21.32303],[75.12152,21.34382],[75.14823,21.34912],[75.13609,21.36564],[75.16105,21.40275],[75.29815,21.41347],[75.30041,21.38708],[75.36005,21.40102],[75.39716,21.38077],[75.46738,21.39196],[75.5473,21.37025],[75.6188,21.39118],[75.61889,21.39088]]]}},{"type":"Feature","properties":{"DISTRICT":"Jalna","ST_NM":"Maharashtra","ST_CEN_CD":27,"DT_CEN_CD":18,"censuscode":514},"geometry":{"type":"Polygon","coordinates":[[[76.02625,20.64378],[76.0403,20.55505],[76.01849,20.55029],[76.01845,20.53027],[75.95856,20.52739],[75.94434,20.50392],[75.95818,20.46573],[75.9422,20.42555],[75.96814,20.37362],[75.94217,20.37123],[75.92814,20.30691],[75.9977,20.31306],[76.00242,20.28795],[76.03114,20.28843],[76.04956,20.33571],[76.08315,20.36471],[76.09557,20.34553],[76.12892,20.34112],[76.12629,20.31521],[76.1455,20.31097],[76.14188,20.2999],[76.19489,20.30031],[76.1664,20.23668],[76.13418,20.22172],[76.15124,20.20454],[76.11092,20.16159],[76.09741,20.09726],[76.0573,20.09843],[76.06813,20.06959],[76.01972,20.05899],[76.02471,20.02313],[75.96857,20.00221],[75.96965,19.9895],[76.01665,19.97397],[76.01401,19.95323],[76.04862,19.94725],[76.08055,19.91152],[76.10024,19.85591],[76.12931,19.86283],[76.14011,19.84446],[76.33958,19.88191],[76.36816,19.92567],[76.39023,19.90425],[76.40822,19.91972],[76.49068,19.91807],[76.50025,19.88348],[76.53362,19.86428],[76.51172,19.80029],[76.48385,19.79283],[76.51084,19.76229],[76.48574,19.7432],[76.46,19.74652],[76.4587,19.72287],[76.48524,19.71987],[76.4879,19.67692],[76.45007,19.65963],[76.45209,19.61211],[76.43387,19.60158],[76.44856,19.58271],[76.44257,19.54074],[76.37865,19.5361],[76.36551,19.46837],[76.34495,19.46991],[76.34136,19.45393],[76.31524,19.46395],[76.30357,19.43195],[76.29091,19.43208],[76.28529,19.36631],[76.26169,19.35736],[76.27967,19.34416],[76.24191,19.33788],[76.23508,19.31335],[76.21335,19.31823],[76.22168,19.29377],[76.20927,19.27754],[76.10132,19.30815],[76.08355,19.27964],[76.03928,19.28591],[76.01943,19.33938],[75.97085,19.29932],[75.93368,19.29362],[75.90712,19.31913],[75.92292,19.37628],[75.90996,19.38921],[75.83968,19.3706],[75.77198,19.39522],[75.75444,19.35865],[75.68802,19.3553],[75.60987,19.38144],[75.61133,19.45334],[75.6348,19.4644],[75.65713,19.56667],[75.6519,19.59483],[75.60083,19.60225],[75.59094,19.63763],[75.63351,19.65539],[75.62786,19.77591],[75.64539,19.78489],[75.63664,19.81362],[75.6526,19.81507],[75.6475,19.87388],[75.66801,19.93973],[75.63738,19.95508],[75.63854,20.00378],[75.60497,20.00586],[75.59369,20.02332],[75.60738,20.05179],[75.58937,20.10196],[75.62716,20.10537],[75.64871,20.19133],[75.67921,20.19102],[75.67608,20.24013],[75.69664,20.28616],[75.68572,20.30937],[75.71886,20.33185],[75.77336,20.33679],[75.73924,20.41943],[75.75969,20.42716],[75.76897,20.45408],[75.79896,20.453],[75.81975,20.47347],[75.85941,20.46192],[75.86523,20.4412],[75.89434,20.44705],[75.85167,20.49023],[75.86359,20.52765],[75.88714,20.526],[75.86497,20.56175],[75.93167,20.55088],[75.93352,20.5997],[75.95492,20.60646],[75.95715,20.62497],[75.99108,20.62315],[76.02257,20.64512],[76.02625,20.64378]]]}},{"type":"Feature","properties":{"DISTRICT":"Kolhapur","ST_NM":"Maharashtra","ST_CEN_CD":27,"DT_CEN_CD":34,"censuscode":530},"geometry":{"type":"Polygon","coordinates":[[[74.69325,16.71676],[74.69115,16.67656],[74.65542,16.63919],[74.68843,16.60892],[74.63764,16.6084],[74.63117,16.5774],[74.61869,16.58357],[74.58659,16.55721],[74.55416,16.5614],[74.56433,16.58286],[74.54429,16.5938],[74.54587,16.6348],[74.4922,16.62822],[74.47149,16.66234],[74.45687,16.64605],[74.46654,16.6064],[74.39728,16.58027],[74.38366,16.52955],[74.35619,16.54036],[74.35925,16.55868],[74.32287,16.55508],[74.30752,16.50374],[74.30028,16.5308],[74.2829,16.52419],[74.27756,16.5447],[74.26476,16.54028],[74.27902,16.50501],[74.24628,16.49652],[74.26198,16.47768],[74.29323,16.50427],[74.28963,16.46068],[74.33239,16.45384],[74.3362,16.40222],[74.36278,16.39606],[74.3553,16.3665],[74.3366,16.3924],[74.31893,16.38097],[74.32792,16.34227],[74.31649,16.32689],[74.33082,16.32516],[74.34231,16.29327],[74.32417,16.27475],[74.37383,16.2953],[74.38508,16.27742],[74.41515,16.28241],[74.41648,16.25928],[74.49744,16.23291],[74.50726,16.19017],[74.48008,16.14892],[74.49074,16.10354],[74.47614,16.08895],[74.42863,16.11256],[74.37481,16.08021],[74.36191,16.05492],[74.3839,16.03711],[74.43041,16.05871],[74.4645,16.04255],[74.42933,15.95323],[74.38578,15.90324],[74.40562,15.85471],[74.38737,15.85388],[74.36796,15.89368],[74.33827,15.85414],[74.38324,15.84624],[74.36021,15.81762],[74.35868,15.77582],[74.32343,15.77253],[74.28567,15.74147],[74.26742,15.75526],[74.2434,15.74334],[74.22847,15.7561],[74.2287,15.78894],[74.17357,15.77426],[74.1555,15.78782],[74.15939,15.82136],[74.14448,15.83154],[74.11137,15.82154],[74.09476,15.83952],[74.04883,15.80669],[74.05674,15.77422],[74.0797,15.76847],[74.04081,15.75534],[74.02921,15.76433],[74.04258,15.7709],[74.03235,15.83391],[74.09285,15.87166],[74.0736,15.94817],[74.04599,15.95671],[74.08744,16.01567],[74.0567,16.05104],[74.04866,16.03415],[74.00188,16.03768],[73.9976,16.08837],[73.90699,16.09988],[73.89854,16.08903],[73.86035,16.10717],[73.84541,16.09529],[73.85811,16.07504],[73.83578,16.09389],[73.85496,16.1357],[73.84585,16.15231],[73.90992,16.13527],[73.91608,16.17239],[73.94681,16.17222],[73.94228,16.18675],[73.95986,16.20028],[73.92751,16.20007],[73.94418,16.24301],[73.89301,16.23093],[73.92012,16.24589],[73.88164,16.2794],[73.9047,16.32831],[73.84722,16.30012],[73.84126,16.31678],[73.83574,16.34595],[73.86634,16.37371],[73.83785,16.403],[73.88854,16.45751],[73.88491,16.47477],[73.85361,16.48719],[73.84834,16.52634],[73.81813,16.54495],[73.83268,16.54646],[73.86337,16.60839],[73.8606,16.68059],[73.81331,16.70657],[73.84108,16.73881],[73.78058,16.78237],[73.76212,16.77011],[73.75288,16.81294],[73.71221,16.8299],[73.73779,16.84368],[73.7523,16.83437],[73.76927,16.8541],[73.73955,16.91265],[73.79035,16.90787],[73.79557,16.93018],[73.76585,16.9626],[73.78775,16.99277],[73.83391,16.99063],[73.82309,17.03793],[73.8346,17.05387],[73.80392,17.06164],[73.80765,17.08562],[73.74689,17.13128],[73.73945,17.1216],[73.69421,17.13872],[73.68946,17.15832],[73.7434,17.17525],[73.74995,17.15216],[73.77698,17.15181],[73.78059,17.18003],[73.84931,17.15267],[73.91691,17.06799],[73.93357,17.07229],[73.981,17.03411],[73.97126,16.99308],[74.02268,16.98441],[74.02354,16.94208],[74.06643,16.90334],[74.12133,16.91142],[74.14806,16.88389],[74.17023,16.89818],[74.21223,16.89225],[74.22337,16.91063],[74.24399,16.88518],[74.2817,16.91546],[74.36132,16.85339],[74.40284,16.87988],[74.41549,16.87715],[74.4139,16.84185],[74.46077,16.85157],[74.47016,16.86716],[74.49596,16.85553],[74.49781,16.82906],[74.51696,16.85665],[74.55929,16.80667],[74.63184,16.78581],[74.64801,16.75074],[74.70046,16.73397],[74.69762,16.72295],[74.69325,16.71676]],[[74.28975,15.8308],[74.26035,15.82689],[74.26502,15.79445],[74.29779,15.78859],[74.30911,15.79856],[74.29628,15.8157],[74.28975,15.8308]]]}},{"type":"Feature","properties":{"DISTRICT":"Latur","ST_NM":"Maharashtra","ST_CEN_CD":27,"DT_CEN_CD":28,"censuscode":524},"geometry":{"type":"Polygon","coordinates":[[[76.99537,18.82738],[77.00813,18.7671],[77.05685,18.76584],[77.04655,18.683],[77.13631,18.69834],[77.13663,18.71088],[77.18213,18.70245],[77.19436,18.68946],[77.15938,18.68038],[77.15584,18.64634],[77.19979,18.64724],[77.21419,18.62482],[77.27062,18.61096],[77.26666,18.56547],[77.29649,18.54733],[77.24729,18.49912],[77.2749,18.47486],[77.25651,18.45363],[77.26741,18.41978],[77.24303,18.41004],[77.23566,18.38755],[77.24786,18.37202],[77.21273,18.31522],[77.19815,18.31418],[77.20895,18.27949],[77.17321,18.28236],[77.15264,18.21811],[77.09807,18.19663],[77.1189,18.16918],[77.11146,18.15429],[77.06011,18.15391],[77.03521,18.18527],[77.02636,18.16419],[77.00006,18.16834],[76.98279,18.19083],[76.95629,18.18631],[76.92749,18.14627],[76.92468,18.11759],[76.97052,18.09865],[76.94924,18.07532],[76.95686,18.04128],[76.91986,18.03481],[76.91862,17.91681],[76.79933,17.87101],[76.76774,17.90004],[76.67559,17.92197],[76.68533,17.98749],[76.60738,18.01044],[76.6124,18.03789],[76.56814,18.03896],[76.53267,18.02101],[76.42839,18.03037],[76.38177,18.08931],[76.32134,18.07655],[76.27703,18.13945],[76.30245,18.21337],[76.28334,18.2484],[76.31126,18.26962],[76.31865,18.32898],[76.28522,18.3407],[76.28829,18.38583],[76.25922,18.36456],[76.20034,18.39869],[76.23307,18.43329],[76.27166,18.42004],[76.2553,18.51883],[76.27996,18.5743],[76.35213,18.56444],[76.3775,18.54257],[76.42402,18.55282],[76.46828,18.49631],[76.51139,18.4692],[76.54906,18.46529],[76.55758,18.49677],[76.56948,18.46455],[76.60912,18.45516],[76.6298,18.46434],[76.61806,18.48917],[76.64082,18.52553],[76.65261,18.48213],[76.69948,18.50027],[76.70559,18.54719],[76.63361,18.551],[76.68233,18.63699],[76.66536,18.65605],[76.68579,18.69186],[76.73633,18.6998],[76.72712,18.74926],[76.74553,18.77415],[76.78178,18.77658],[76.7841,18.79346],[76.83914,18.8137],[76.85415,18.8067],[76.88515,18.83478],[76.96355,18.83033],[76.99537,18.82738]]]}},{"type":"Feature","properties":{"DISTRICT":"Mumbai","ST_NM":"Maharashtra","ST_CEN_CD":27,"DT_CEN_CD":23,"censuscode":519},"geometry":{"type":"Polygon","coordinates":[[[72.89682,18.97877],[72.91219,18.96378],[72.90976,18.93868],[72.86953,18.91084],[72.84002,18.84534],[72.80568,18.9046],[72.82228,18.94315],[72.78765,18.93948],[72.81768,19.03254],[72.8594,19.05473],[72.87711,19.04566],[72.88243,18.9812],[72.89682,18.97877]]]}},{"type":"Feature","properties":{"DISTRICT":"Mumbai Suburban","ST_NM":"Maharashtra","ST_CEN_CD":27,"DT_CEN_CD":22,"censuscode":518},"geometry":{"type":"Polygon","coordinates":[[[72.95859,18.98734],[72.88243,18.9812],[72.87711,19.04566],[72.8594,19.05473],[72.81768,19.03254],[72.82579,19.12447],[72.80671,19.13738],[72.78363,19.12517],[72.79464,19.18275],[72.77899,19.21613],[72.78152,19.26325],[72.82479,19.24468],[72.85648,19.26922],[72.90761,19.24676],[72.93734,19.18971],[72.97114,19.17674],[72.98335,19.15131],[72.96776,19.09355],[72.97918,19.04104],[72.96155,18.99979],[72.95859,18.98734]]]}},{"type":"Feature","properties":{"DISTRICT":"Nagpur","ST_NM":"Maharashtra","ST_CEN_CD":27,"DT_CEN_CD":9,"censuscode":505},"geometry":{"type":"Polygon","coordinates":[[[79.51189,21.5894],[79.54364,21.56818],[79.54271,21.54344],[79.48576,21.502],[79.4493,21.45652],[79.4505,21.43495],[79.48328,21.42732],[79.48789,21.39867],[79.55692,21.3303],[79.57672,21.27743],[79.55318,21.20615],[79.56178,21.15549],[79.53434,21.15609],[79.53255,21.17449],[79.50165,21.18327],[79.51049,21.16267],[79.49274,21.13936],[79.52754,21.11749],[79.52947,21.07532],[79.55193,21.08639],[79.57312,21.06723],[79.59965,21.07246],[79.66092,20.95281],[79.64414,20.91654],[79.61659,20.90253],[79.61913,20.86472],[79.58303,20.84241],[79.54159,20.8478],[79.56043,20.80287],[79.50569,20.69989],[79.49156,20.70404],[79.43492,20.65878],[79.35283,20.67129],[79.35739,20.65526],[79.31311,20.58065],[79.19257,20.59611],[79.14288,20.67585],[79.10692,20.68568],[79.10411,20.71217],[78.94516,20.76698],[78.94674,20.79393],[78.9155,20.80641],[78.91592,20.83512],[78.88845,20.84178],[78.87504,20.82672],[78.86471,20.87132],[78.83641,20.89367],[78.80971,20.87612],[78.77847,20.8912],[78.73509,20.94699],[78.73094,21.00461],[78.60692,21.06922],[78.59647,21.10857],[78.55495,21.11786],[78.47817,21.21954],[78.33296,21.25057],[78.32623,21.27118],[78.3075,21.27379],[78.31128,21.29395],[78.25127,21.3286],[78.34849,21.38486],[78.37378,21.39454],[78.40942,21.38367],[78.44869,21.40455],[78.43211,21.49774],[78.48531,21.50455],[78.51352,21.52685],[78.57155,21.51418],[78.5899,21.48541],[78.68923,21.48057],[78.72498,21.46327],[78.75172,21.49251],[78.77746,21.46582],[78.7899,21.48781],[78.88525,21.48372],[78.90118,21.49932],[78.93728,21.48619],[78.94611,21.51247],[78.90987,21.55352],[78.93329,21.55898],[78.91709,21.56957],[78.91869,21.591],[79.00001,21.61743],[79.01512,21.60021],[79.09374,21.59796],[79.15356,21.65926],[79.22569,21.64962],[79.2345,21.72266],[79.35493,21.67778],[79.46454,21.68628],[79.49462,21.67312],[79.5177,21.63021],[79.50425,21.61147],[79.51288,21.60151],[79.51189,21.5894]]]}},{"type":"Feature","properties":{"DISTRICT":"Nanded","ST_NM":"Maharashtra","ST_CEN_CD":27,"DT_CEN_CD":15,"censuscode":511},"geometry":{"type":"Polygon","coordinates":[[[78.31478,19.91311],[78.29868,19.84999],[78.34363,19.83968],[78.3406,19.81916],[78.36516,19.80629],[78.37242,19.78167],[78.34994,19.71424],[78.32066,19.69122],[78.29038,19.69031],[78.27427,19.6638],[78.31561,19.60495],[78.31579,19.5726],[78.28369,19.55902],[78.31661,19.46688],[78.30195,19.44982],[78.27782,19.4548],[78.25657,19.43102],[78.22877,19.43498],[78.20258,19.40841],[78.18661,19.4127],[78.18405,19.35402],[78.20164,19.33279],[78.18781,19.24271],[78.15416,19.2312],[78.08656,19.25583],[78.05538,19.24279],[78.04998,19.27185],[78.02243,19.29726],[77.94466,19.3433],[77.86475,19.30292],[77.86581,19.2849],[77.90969,19.26809],[77.87131,19.25612],[77.85044,19.19789],[77.86232,19.18171],[77.83495,19.13663],[77.85205,19.09113],[77.8325,19.08597],[77.80959,19.10434],[77.801,19.05237],[77.7633,19.06031],[77.77114,18.98254],[77.82102,18.98354],[77.81657,18.95066],[77.85769,18.95354],[77.84443,18.9126],[77.8856,18.90986],[77.90328,18.86933],[77.94828,18.84377],[77.94672,18.82381],[77.91167,18.83098],[77.84141,18.80888],[77.79033,18.68566],[77.76149,18.70856],[77.73665,18.6775],[77.73351,18.64427],[77.75194,18.60693],[77.74034,18.55648],[77.66125,18.52884],[77.65247,18.5542],[77.60083,18.54909],[77.60502,18.52353],[77.58981,18.50452],[77.60465,18.47586],[77.58004,18.48539],[77.57415,18.46849],[77.54967,18.46499],[77.58877,18.44712],[77.53796,18.44402],[77.52938,18.42899],[77.5587,18.41953],[77.52295,18.35099],[77.5738,18.31002],[77.5535,18.29319],[77.51296,18.30851],[77.51367,18.28026],[77.46876,18.26176],[77.44022,18.28379],[77.43965,18.30819],[77.36564,18.30992],[77.35852,18.32013],[77.40151,18.34912],[77.39499,18.36751],[77.41331,18.39011],[77.37286,18.40223],[77.37272,18.44911],[77.3451,18.43174],[77.32037,18.45519],[77.26741,18.41978],[77.25651,18.45363],[77.28648,18.45367],[77.30095,18.47674],[77.24852,18.49111],[77.29649,18.54733],[77.26666,18.56547],[77.27062,18.61096],[77.21419,18.62482],[77.19979,18.64724],[77.15584,18.64634],[77.15938,18.68038],[77.19436,18.68946],[77.18213,18.70245],[77.13663,18.71088],[77.13631,18.69834],[77.04655,18.683],[77.05685,18.76584],[77.00813,18.7671],[76.99537,18.82738],[77.01904,18.84298],[77.01282,18.87791],[76.95715,18.87437],[76.95807,18.88966],[76.93401,18.90029],[76.9619,18.93225],[76.98453,18.91402],[76.99347,18.93625],[77.02625,18.9395],[77.05479,18.98816],[77.04466,19.03007],[77.06561,19.029],[77.06272,19.06739],[77.08493,19.10763],[77.10557,19.09879],[77.09082,19.06866],[77.15869,19.08343],[77.16632,19.11616],[77.19483,19.14374],[77.19497,19.16528],[77.17887,19.16972],[77.18124,19.22348],[77.22287,19.27392],[77.2382,19.27374],[77.2443,19.32089],[77.28009,19.31479],[77.31028,19.33001],[77.31383,19.35396],[77.38096,19.33827],[77.41973,19.37664],[77.44974,19.38276],[77.4373,19.40705],[77.45249,19.43966],[77.47233,19.43679],[77.49365,19.46633],[77.48972,19.49523],[77.47025,19.49861],[77.46887,19.56332],[77.45394,19.56736],[77.48112,19.59993],[77.45972,19.61232],[77.47068,19.64139],[77.45959,19.68195],[77.60746,19.64694],[77.62946,19.60801],[77.64477,19.60779],[77.64932,19.55555],[77.63414,19.55571],[77.74966,19.52179],[77.74029,19.48309],[77.71398,19.47648],[77.69891,19.43865],[77.75618,19.43228],[77.80486,19.4643],[77.83469,19.43932],[77.84754,19.45581],[77.82753,19.4754],[77.84696,19.48674],[77.84287,19.50983],[77.86158,19.51957],[77.88546,19.50033],[77.9076,19.53324],[77.93815,19.50039],[77.97574,19.50609],[77.99144,19.4552],[78.01317,19.46544],[78.02589,19.4974],[78.06786,19.467],[78.12107,19.50136],[78.13626,19.53118],[78.11991,19.55362],[78.18903,19.56736],[78.1957,19.61827],[78.17899,19.65504],[78.13105,19.66712],[78.08986,19.64521],[78.0403,19.70031],[77.98846,19.68079],[77.98539,19.69941],[77.93356,19.73932],[77.89595,19.72558],[77.86053,19.74366],[77.86552,19.77142],[77.84907,19.80077],[77.89811,19.878],[77.9539,19.91123],[78.05327,19.93072],[78.07839,19.9006],[78.10303,19.89668],[78.14947,19.91595],[78.20053,19.90265],[78.2528,19.92935],[78.25965,19.9117],[78.24233,19.8875],[78.25472,19.87299],[78.30249,19.91715],[78.31478,19.91311]]]}},{"type":"Feature","properties":{"DISTRICT":"Nandurbar","ST_NM":"Maharashtra","ST_CEN_CD":27,"DT_CEN_CD":1,"censuscode":497},"geometry":{"type":"Polygon","coordinates":[[[74.77212,21.6135],[74.75684,21.57547],[74.75411,21.476],[74.69854,21.47046],[74.68583,21.40251],[74.63856,21.39945],[74.6085,21.41532],[74.5728,21.40345],[74.49804,21.42735],[74.49471,21.39186],[74.50857,21.3896],[74.47912,21.35307],[74.47549,21.30588],[74.49786,21.29021],[74.49182,21.23953],[74.4381,21.23718],[74.43249,21.26294],[74.40855,21.26693],[74.35507,21.25167],[74.34297,21.22912],[74.3145,21.24701],[74.25137,21.24848],[74.18071,21.20883],[74.15661,21.23184],[74.14605,21.20868],[74.11441,21.21131],[74.05816,21.17124],[74.083,21.1364],[74.051,21.1275],[74.04072,21.1444],[74.01964,21.14393],[74.01728,21.10286],[74.00297,21.11969],[73.97549,21.11104],[73.95132,21.08594],[73.95468,21.03174],[73.85638,21.02996],[73.85093,20.99675],[73.7962,21.04501],[73.81132,21.0838],[73.76376,21.06736],[73.73379,21.08401],[73.74601,21.11321],[73.73223,21.10047],[73.70386,21.1182],[73.68655,21.10019],[73.65301,21.10762],[73.65081,21.12029],[73.62169,21.11942],[73.62208,21.14091],[73.60441,21.15374],[73.58039,21.15605],[73.59987,21.17773],[73.63048,21.15238],[73.62942,21.13191],[73.6745,21.15131],[73.73007,21.13742],[73.73505,21.16622],[73.77723,21.16413],[73.78995,21.18078],[73.81627,21.17094],[73.8297,21.19417],[73.81252,21.20288],[73.82601,21.26643],[73.88605,21.26132],[73.94278,21.29638],[73.94726,21.40116],[73.96316,21.39083],[74.04329,21.41811],[74.06204,21.48057],[74.07304,21.45644],[74.10597,21.44669],[74.124,21.46209],[74.21801,21.45747],[74.22644,21.47829],[74.25307,21.4622],[74.32346,21.49412],[74.33133,21.53857],[74.31156,21.54152],[74.30573,21.56568],[74.26297,21.53347],[74.23471,21.54872],[74.19749,21.5281],[74.17718,21.56025],[74.14105,21.54886],[74.06418,21.5581],[73.9782,21.54074],[73.98035,21.52005],[73.95737,21.5366],[73.9557,21.51803],[73.93391,21.50886],[73.92827,21.52233],[73.9049,21.51895],[73.85501,21.49467],[73.84408,21.50983],[73.8187,21.59715],[73.78172,21.62394],[73.88009,21.64382],[73.89093,21.69901],[73.82564,21.76168],[73.83948,21.78944],[73.80496,21.82214],[73.87429,21.83734],[74.04198,21.92128],[74.14169,21.95241],[74.19745,21.92383],[74.28581,21.93401],[74.30057,21.96736],[74.34568,21.97452],[74.38479,22.01826],[74.43219,22.02903],[74.45048,22.00419],[74.43282,22.00027],[74.44524,21.96917],[74.4901,21.9525],[74.52428,21.90678],[74.50024,21.80525],[74.50942,21.72137],[74.54837,21.71702],[74.55392,21.68162],[74.58088,21.6828],[74.58726,21.66223],[74.77118,21.6135],[74.77212,21.6135]]]}},{"type":"Feature","properties":{"DISTRICT":"Nashik","ST_NM":"Maharashtra","ST_CEN_CD":27,"DT_CEN_CD":20,"censuscode":516},"geometry":{"type":"Polygon","coordinates":[[[74.81493,20.63375],[74.79577,20.5395],[74.7619,20.53862],[74.78619,20.50011],[74.77354,20.4706],[74.79545,20.47698],[74.84208,20.40989],[74.82864,20.40251],[74.86767,20.33509],[74.85973,20.28181],[74.93787,20.27167],[74.93422,20.24666],[74.90839,20.24335],[74.91111,20.21573],[74.93142,20.21369],[74.93051,20.15252],[74.91091,20.15265],[74.89905,20.1768],[74.85611,20.17706],[74.8586,20.22709],[74.82883,20.24305],[74.78387,20.23044],[74.8041,20.23109],[74.78437,20.20396],[74.75997,20.19951],[74.76411,20.18279],[74.72401,20.19034],[74.7053,20.11459],[74.73046,20.11143],[74.73825,20.0823],[74.71085,20.07838],[74.72023,20.02114],[74.6919,20.00634],[74.67333,19.9467],[74.57352,19.95453],[74.53148,19.9754],[74.48019,19.96626],[74.48537,19.97991],[74.46922,19.98771],[74.44553,19.9742],[74.38598,19.98048],[74.3659,19.96549],[74.31976,19.98542],[74.30961,19.96701],[74.29,19.98676],[74.28352,19.95891],[74.25169,19.96408],[74.25022,19.93678],[74.27289,19.93298],[74.27779,19.90816],[74.36471,19.87056],[74.37806,19.80585],[74.33373,19.79903],[74.31903,19.76732],[74.27825,19.77838],[74.24601,19.74392],[74.16765,19.72808],[74.15353,19.69056],[74.13598,19.69492],[74.14365,19.67329],[74.12146,19.64373],[73.91566,19.68161],[73.89123,19.75253],[73.84278,19.74095],[73.81354,19.68566],[73.79514,19.68763],[73.80588,19.67852],[73.77458,19.62972],[73.72235,19.6193],[73.68325,19.58898],[73.57959,19.60028],[73.58646,19.60864],[73.56598,19.61653],[73.5637,19.64234],[73.52025,19.7018],[73.49129,19.71456],[73.50709,19.7298],[73.50094,19.75871],[73.45074,19.76723],[73.44279,19.82545],[73.41793,19.8426],[73.41835,19.86417],[73.43528,19.87293],[73.4237,19.91566],[73.45487,19.95911],[73.4525,19.98199],[73.42612,19.98458],[73.40589,20.01691],[73.3774,20.02546],[73.37311,20.01472],[73.35643,20.03869],[73.29558,20.06049],[73.28099,20.04492],[73.26553,20.0608],[73.27196,20.10495],[73.2499,20.12474],[73.28424,20.15393],[73.28552,20.19625],[73.30491,20.20767],[73.34374,20.19843],[73.35857,20.21331],[73.36528,20.1926],[73.36732,20.20525],[73.38638,20.20907],[73.3939,20.19493],[73.42114,20.2061],[73.41162,20.25686],[73.42825,20.28195],[73.41476,20.35191],[73.40611,20.38138],[73.38281,20.37274],[73.3826,20.39003],[73.42118,20.41417],[73.46765,20.49472],[73.46398,20.51374],[73.49259,20.53989],[73.47357,20.54303],[73.47264,20.58325],[73.42916,20.59717],[73.39316,20.64894],[73.43165,20.66451],[73.44838,20.69304],[73.43912,20.70076],[73.46714,20.72127],[73.4904,20.65303],[73.5305,20.67341],[73.55514,20.64692],[73.61458,20.62477],[73.62688,20.58176],[73.65835,20.56226],[73.69366,20.57779],[73.74103,20.56672],[73.78005,20.60157],[73.83964,20.62275],[73.83863,20.66629],[73.81864,20.67285],[73.81587,20.69305],[73.85696,20.69348],[73.87906,20.72876],[73.9145,20.72265],[73.94325,20.74139],[73.93204,20.75988],[73.93889,20.83917],[73.96818,20.85136],[74.00003,20.83561],[74.02159,20.83573],[74.02565,20.85083],[74.04133,20.83538],[74.06067,20.84821],[74.09734,20.84118],[74.12635,20.86507],[74.14478,20.85212],[74.16766,20.86286],[74.29089,20.85521],[74.33604,20.83837],[74.3488,20.85919],[74.35826,20.84296],[74.38532,20.8403],[74.39678,20.85929],[74.40531,20.83573],[74.38764,20.83461],[74.43802,20.80133],[74.47837,20.8312],[74.51231,20.80789],[74.53952,20.83459],[74.57262,20.83276],[74.5824,20.814],[74.66503,20.77419],[74.65085,20.6949],[74.79848,20.65975],[74.81294,20.63571],[74.81493,20.63375]]]}},{"type":"Feature","properties":{"DISTRICT":"Osmanabad","ST_NM":"Maharashtra","ST_CEN_CD":27,"DT_CEN_CD":29,"censuscode":525},"geometry":{"type":"Polygon","coordinates":[[[76.27692,18.55697],[76.2553,18.51883],[76.27166,18.42004],[76.23307,18.43329],[76.20034,18.39869],[76.25922,18.36456],[76.28829,18.38583],[76.28522,18.3407],[76.31865,18.32898],[76.31126,18.26962],[76.28334,18.2484],[76.30245,18.21337],[76.27703,18.13945],[76.32134,18.07655],[76.38177,18.08931],[76.42839,18.03037],[76.53267,18.02101],[76.56814,18.03896],[76.6124,18.03789],[76.60738,18.01044],[76.68158,17.99266],[76.67559,17.92197],[76.73582,17.9111],[76.73919,17.85869],[76.79005,17.82818],[76.76458,17.78885],[76.7174,17.78362],[76.72935,17.73878],[76.69981,17.72779],[76.68991,17.68031],[76.66473,17.68963],[76.61587,17.76994],[76.57456,17.70385],[76.57462,17.76161],[76.52487,17.76046],[76.52482,17.71685],[76.48745,17.71511],[76.49039,17.66232],[76.44373,17.64352],[76.38131,17.6596],[76.3793,17.68559],[76.31925,17.69707],[76.29919,17.72905],[76.27141,17.72753],[76.21742,17.68945],[76.17647,17.68753],[76.14501,17.70867],[76.17627,17.73108],[76.14824,17.73281],[76.1455,17.75429],[76.12237,17.76905],[76.10004,17.76127],[76.09642,17.77866],[76.00625,17.75013],[76.01847,17.82905],[75.97803,17.84231],[75.96839,17.81876],[75.93972,17.85171],[75.9195,17.83231],[75.87629,17.84603],[75.84535,17.89193],[75.83946,17.97848],[75.85211,18.00643],[75.89998,18.00662],[75.91835,17.97412],[75.97582,17.97061],[76.01623,18.03954],[75.99189,18.06171],[75.99289,18.09369],[75.96168,18.08971],[75.94234,18.12335],[75.96041,18.15893],[75.9391,18.21208],[75.94807,18.23846],[75.88709,18.36358],[75.79881,18.3841],[75.76377,18.44],[75.7285,18.43404],[75.70872,18.39603],[75.72801,18.38617],[75.72018,18.3377],[75.68972,18.32424],[75.65173,18.33049],[75.61895,18.27432],[75.63288,18.24786],[75.57484,18.24009],[75.55458,18.20111],[75.55087,18.14491],[75.53338,18.13441],[75.50815,18.1595],[75.49108,18.15638],[75.49109,18.17402],[75.46535,18.16125],[75.43025,18.17787],[75.43221,18.26162],[75.39696,18.26516],[75.40637,18.32673],[75.33414,18.39051],[75.2853,18.40798],[75.30379,18.43441],[75.3011,18.50321],[75.33556,18.5249],[75.34586,18.56167],[75.4191,18.5331],[75.46785,18.60676],[75.55134,18.64399],[75.54866,18.68233],[75.58737,18.69706],[75.65354,18.64696],[75.66643,18.64998],[75.67285,18.6904],[75.69016,18.69063],[75.79636,18.65581],[75.81103,18.67367],[75.86276,18.64988],[75.94132,18.6452],[75.94981,18.60845],[75.99675,18.61871],[75.98646,18.59567],[76.00002,18.5853],[76.01027,18.60658],[76.05807,18.57341],[76.09874,18.58778],[76.15138,18.58313],[76.15897,18.55808],[76.17089,18.58504],[76.18716,18.58509],[76.25432,18.57684],[76.26884,18.56162],[76.27692,18.55697]]]}},{"type":"Feature","properties":{"DISTRICT":"Parbhani","ST_NM":"Maharashtra","ST_CEN_CD":27,"DT_CEN_CD":17,"censuscode":513},"geometry":{"type":"Polygon","coordinates":[[[76.64695,19.86561],[76.67659,19.83829],[76.70608,19.83582],[76.68753,19.78108],[76.71647,19.76814],[76.75999,19.68443],[76.78119,19.73038],[76.78836,19.6708],[76.80935,19.68154],[76.81949,19.66706],[76.81596,19.70135],[76.85092,19.7043],[76.87118,19.61834],[76.90337,19.64383],[76.91983,19.61578],[76.94276,19.62213],[76.96924,19.54521],[76.95954,19.51138],[76.97742,19.50522],[76.98643,19.47509],[76.95299,19.48874],[76.92122,19.44619],[76.92227,19.41736],[76.89577,19.37832],[76.89381,19.30846],[76.93221,19.29667],[76.92618,19.2475],[76.97171,19.25266],[76.9702,19.2767],[77.02182,19.28243],[77.01332,19.25158],[77.04929,19.24761],[77.03813,19.20128],[77.07589,19.18972],[77.10014,19.17266],[77.09488,19.15658],[77.12064,19.14973],[77.09755,19.14497],[77.10409,19.10372],[77.08493,19.10763],[77.06272,19.06739],[77.06561,19.029],[77.04466,19.03007],[77.05479,18.98816],[77.02625,18.9395],[76.99347,18.93625],[76.98453,18.91402],[76.9619,18.93225],[76.93401,18.90029],[76.95807,18.88966],[76.95715,18.87437],[77.01282,18.87791],[77.01904,18.84298],[76.99537,18.82738],[76.88515,18.83478],[76.85415,18.8067],[76.83914,18.8137],[76.7841,18.79346],[76.78178,18.77658],[76.74553,18.77415],[76.72712,18.74926],[76.67595,18.76128],[76.66737,18.81904],[76.64814,18.8219],[76.62297,18.86906],[76.58815,18.87416],[76.58396,18.94482],[76.53964,18.94942],[76.53686,18.91725],[76.52284,18.91722],[76.50112,18.95104],[76.47885,18.95644],[76.47896,19.00068],[76.45632,19.00764],[76.44218,19.03821],[76.45181,19.05103],[76.43723,19.09565],[76.4118,19.09249],[76.3783,19.13105],[76.35523,19.1026],[76.3247,19.10704],[76.33411,19.13559],[76.36092,19.15215],[76.36352,19.23708],[76.29143,19.26228],[76.25592,19.23996],[76.22651,19.24144],[76.20927,19.27754],[76.22168,19.29377],[76.21335,19.31823],[76.23508,19.31335],[76.24191,19.33788],[76.27967,19.34416],[76.26169,19.35736],[76.28529,19.36631],[76.29091,19.43208],[76.30357,19.43195],[76.31524,19.46395],[76.34136,19.45393],[76.34495,19.46991],[76.36551,19.46837],[76.37865,19.5361],[76.44257,19.54074],[76.44856,19.58271],[76.43387,19.60158],[76.45209,19.61211],[76.45007,19.65963],[76.4879,19.67692],[76.48524,19.71987],[76.4587,19.72287],[76.46,19.74652],[76.48574,19.7432],[76.51084,19.76229],[76.48385,19.79283],[76.51172,19.80029],[76.5206,19.84833],[76.61054,19.8381],[76.64577,19.86597],[76.64695,19.86561]]]}},{"type":"Feature","properties":{"DISTRICT":"Pune","ST_NM":"Maharashtra","ST_CEN_CD":27,"DT_CEN_CD":25,"censuscode":521},"geometry":{"type":"Polygon","coordinates":[[[74.83388,18.3392],[74.84634,18.29989],[74.80409,18.30137],[74.79514,18.28427],[74.83316,18.24631],[74.95111,18.26343],[74.99318,18.24098],[75.04137,18.26313],[75.00855,18.21205],[75.02199,18.18748],[75.08201,18.21792],[75.10964,18.21434],[75.0938,18.12223],[75.15806,18.12098],[75.16317,18.10651],[75.1303,18.07539],[75.0923,18.06613],[75.02155,17.96202],[75.05073,17.94662],[75.07059,17.97577],[75.10261,17.97321],[75.12009,17.99788],[75.13503,17.96958],[75.11735,17.96847],[75.1307,17.9542],[75.11479,17.93663],[75.08454,17.93873],[75.08952,17.92313],[75.07225,17.9143],[75.05264,17.92439],[75.05447,17.90193],[75.02398,17.89209],[75.01771,17.90741],[74.94346,17.92469],[74.93909,17.93992],[74.84696,17.94776],[74.86382,17.99135],[74.83269,17.99268],[74.81586,18.01666],[74.80738,17.99657],[74.76344,18.02415],[74.71228,18.02804],[74.66517,18.06884],[74.6411,18.04453],[74.62878,18.0554],[74.58261,18.04658],[74.55136,18.06963],[74.46429,18.04728],[74.38007,18.0705],[74.35752,18.09607],[74.303,18.0686],[74.12343,18.12905],[74.08369,18.12006],[74.06147,18.13722],[74.03175,18.13169],[73.94581,18.18051],[73.90455,18.15993],[73.89747,18.18242],[73.87384,18.17293],[73.90366,18.13609],[73.89064,18.11579],[73.86219,18.11981],[73.88047,18.08457],[73.85769,18.03156],[73.84699,18.04093],[73.79167,18.02211],[73.70561,18.04815],[73.66452,18.02684],[73.61293,18.05797],[73.61991,18.07813],[73.59693,18.10641],[73.60617,18.13807],[73.60549,18.11812],[73.62418,18.12059],[73.66226,18.16559],[73.59942,18.18935],[73.58159,18.17921],[73.56132,18.21115],[73.52334,18.18572],[73.53677,18.24457],[73.50518,18.25776],[73.50934,18.28636],[73.48012,18.27133],[73.47605,18.30044],[73.42173,18.30676],[73.44437,18.36004],[73.42028,18.40445],[73.40179,18.3999],[73.41018,18.49823],[73.36436,18.46851],[73.36209,18.4836],[73.39421,18.50306],[73.34353,18.53252],[73.35739,18.55723],[73.33259,18.54804],[73.32256,18.56311],[73.33436,18.6067],[73.3889,18.65428],[73.38487,18.69285],[73.37524,18.70799],[73.3317,18.70162],[73.35271,18.72434],[73.38875,18.85204],[73.40297,18.84242],[73.4339,18.87286],[73.43061,18.91436],[73.45844,18.92949],[73.46224,18.96589],[73.47931,18.96546],[73.47859,18.97915],[73.51179,18.96768],[73.55723,19.01597],[73.53582,19.03217],[73.54232,19.05057],[73.51813,19.04905],[73.52936,19.08553],[73.51243,19.09403],[73.52738,19.12917],[73.54112,19.12285],[73.54447,19.18295],[73.60902,19.18935],[73.66252,19.2391],[73.69044,19.24428],[73.6705,19.29645],[73.70842,19.32339],[73.77484,19.33959],[73.79698,19.3307],[73.78353,19.39064],[73.8137,19.39287],[73.86271,19.3579],[73.89616,19.37427],[73.93095,19.34056],[74.00003,19.35752],[74.0283,19.31032],[74.01413,19.29558],[74.03191,19.28371],[74.03456,19.25025],[74.04741,19.25825],[74.09386,19.22622],[74.15283,19.2218],[74.15894,19.20274],[74.16862,19.21966],[74.22171,19.20151],[74.26488,19.22407],[74.31645,19.20806],[74.30431,19.18877],[74.26815,19.18453],[74.23601,19.1233],[74.21057,19.12507],[74.17513,19.03588],[74.21475,19.00692],[74.23987,18.95337],[74.29442,18.90322],[74.32158,18.84336],[74.39743,18.83041],[74.38553,18.80319],[74.39954,18.74131],[74.42493,18.74894],[74.45111,18.71945],[74.47715,18.7222],[74.47907,18.68156],[74.51156,18.66743],[74.47456,18.64121],[74.51072,18.61591],[74.55069,18.61397],[74.54376,18.58335],[74.58153,18.54784],[74.54979,18.5138],[74.55387,18.49885],[74.64357,18.4498],[74.67465,18.4613],[74.65948,18.48537],[74.70492,18.50415],[74.72694,18.47969],[74.71471,18.43026],[74.73458,18.39791],[74.77985,18.40841],[74.80849,18.38605],[74.79592,18.3511],[74.83271,18.34206],[74.83388,18.3392]]]}},{"type":"Feature","properties":{"DISTRICT":"Raigarh","ST_NM":"Maharashtra","ST_CEN_CD":27,"DT_CEN_CD":24,"censuscode":520},"geometry":{"type":"Polygon","coordinates":[[[73.52738,19.12917],[73.51243,19.09403],[73.52936,19.08553],[73.51813,19.04905],[73.54232,19.05057],[73.53582,19.03217],[73.55723,19.01597],[73.51179,18.96768],[73.47859,18.97915],[73.47931,18.96546],[73.46224,18.96589],[73.45844,18.92949],[73.43061,18.91436],[73.42763,18.86261],[73.40297,18.84242],[73.38875,18.85204],[73.35271,18.72434],[73.3317,18.70162],[73.37524,18.70799],[73.3889,18.65428],[73.33436,18.6067],[73.32256,18.56311],[73.33259,18.54804],[73.35739,18.55723],[73.34353,18.53252],[73.39421,18.50306],[73.36209,18.4836],[73.36436,18.46851],[73.41018,18.49823],[73.40179,18.3999],[73.42028,18.40445],[73.44437,18.36004],[73.42173,18.30676],[73.47605,18.30044],[73.48012,18.27133],[73.50934,18.28636],[73.50518,18.25776],[73.53677,18.24457],[73.52139,18.18741],[73.56132,18.21115],[73.57025,18.1851],[73.59423,18.17671],[73.59942,18.18935],[73.66699,18.1561],[73.6348,18.14591],[73.62418,18.12059],[73.60549,18.11812],[73.60617,18.13807],[73.59706,18.10905],[73.60234,18.08484],[73.61991,18.07813],[73.61293,18.05797],[73.65899,18.03123],[73.62601,17.98458],[73.63586,17.96831],[73.59465,17.93553],[73.57587,17.94333],[73.53616,17.8969],[73.56061,17.89143],[73.56643,17.87395],[73.55085,17.86481],[73.53477,17.88253],[73.50554,17.85078],[73.4627,17.86502],[73.44928,17.85033],[73.43566,17.90355],[73.39854,17.8821],[73.37388,17.88794],[73.37743,17.91728],[73.3441,17.97189],[73.36015,18.01011],[73.29058,18.03388],[73.28822,18.07012],[73.22376,18.05426],[73.20489,18.06854],[73.17763,18.06042],[73.1156,17.97849],[73.06937,17.98683],[73.02846,17.9637],[73.00684,18.02182],[73.04659,18.04387],[73.01755,18.03018],[72.99232,18.04959],[73.00162,18.07373],[72.9708,18.1292],[72.98583,18.15776],[72.97622,18.19915],[72.95035,18.21867],[72.93212,18.2141],[72.93271,18.2807],[72.96252,18.31617],[72.9134,18.35933],[72.92615,18.38379],[72.89207,18.45927],[72.90967,18.50102],[72.90406,18.53569],[72.9333,18.53441],[72.86633,18.62263],[72.85248,18.6992],[72.86495,18.80434],[72.84002,18.84534],[72.86953,18.91084],[72.90976,18.93868],[72.91219,18.96378],[72.89682,18.97877],[73.00896,18.98673],[73.04308,19.01318],[73.04691,19.0979],[73.06405,19.11061],[73.13036,19.11012],[73.14407,19.12602],[73.17676,19.10902],[73.19801,19.12474],[73.24655,19.06386],[73.27941,19.08452],[73.31681,19.08201],[73.31094,19.10736],[73.35015,19.1287],[73.51466,19.13067],[73.52738,19.12917]]]}},{"type":"Feature","properties":{"DISTRICT":"Ratnagiri","ST_NM":"Maharashtra","ST_CEN_CD":27,"DT_CEN_CD":32,"censuscode":528},"geometry":{"type":"MultiPolygon","coordinates":[[[[73.21207,18.06001],[73.28822,18.07012],[73.29058,18.03388],[73.33456,18.01221],[73.34721,18.02458],[73.36237,18.00494],[73.3441,17.97189],[73.37743,17.91728],[73.37388,17.88794],[73.39854,17.8821],[73.43566,17.90355],[73.44928,17.85033],[73.4627,17.86502],[73.50554,17.85078],[73.53477,17.88253],[73.55085,17.86481],[73.57607,17.87664],[73.5964,17.84774],[73.58277,17.82944],[73.60251,17.79473],[73.58337,17.78732],[73.58879,17.76479],[73.56634,17.72189],[73.59384,17.69948],[73.61488,17.71261],[73.68885,17.68745],[73.68144,17.67752],[73.70322,17.65799],[73.6922,17.62723],[73.72476,17.61962],[73.71665,17.57375],[73.7468,17.55612],[73.74163,17.53148],[73.69504,17.48641],[73.70507,17.4232],[73.64439,17.39117],[73.68214,17.36339],[73.67782,17.29319],[73.71862,17.20231],[73.69389,17.17853],[73.70928,17.16729],[73.68946,17.15832],[73.69162,17.14338],[73.73945,17.1216],[73.74689,17.13128],[73.80765,17.08562],[73.80392,17.06164],[73.8346,17.05387],[73.82309,17.03793],[73.83391,16.99063],[73.78775,16.99277],[73.76585,16.9626],[73.79557,16.93018],[73.79035,16.90787],[73.73955,16.91265],[73.76927,16.8541],[73.7523,16.83437],[73.73779,16.84368],[73.71221,16.8299],[73.75288,16.81294],[73.76212,16.77011],[73.78058,16.78237],[73.79173,16.76279],[73.81912,16.765],[73.83481,16.74728],[73.84118,16.73628],[73.81331,16.70657],[73.8606,16.68059],[73.85712,16.65184],[73.77278,16.66267],[73.76565,16.60154],[73.68973,16.6239],[73.64851,16.56453],[73.62359,16.58266],[73.59609,16.54247],[73.54293,16.51522],[73.49499,16.5185],[73.46531,16.49328],[73.36554,16.5161],[73.34634,16.57231],[73.32244,16.58925],[73.32424,16.6034],[73.35601,16.59159],[73.34337,16.60981],[73.36776,16.62467],[73.37906,16.59433],[73.40313,16.58636],[73.38545,16.59874],[73.39237,16.62668],[73.37004,16.63615],[73.34396,16.61614],[73.32417,16.63574],[73.32859,16.67832],[73.34542,16.69057],[73.32253,16.6909],[73.31176,16.71625],[73.30264,16.75434],[73.31764,16.79709],[73.29349,16.83428],[73.2928,16.88316],[73.31535,16.88798],[73.28236,16.89307],[73.29468,16.97493],[73.32871,16.9503],[73.33371,16.96789],[73.27274,16.98496],[73.28209,17.01361],[73.26063,17.018],[73.25788,17.04644],[73.28046,17.0397],[73.29169,17.07053],[73.31239,17.07678],[73.29294,17.08006],[73.27139,17.1143],[73.27747,17.15534],[73.2391,17.19424],[73.24895,17.21971],[73.21973,17.27507],[73.18986,17.29943],[73.23179,17.29841],[73.24605,17.31715],[73.22374,17.32693],[73.22626,17.35613],[73.20588,17.38746],[73.18805,17.38374],[73.1686,17.40374],[73.20446,17.43942],[73.18853,17.4464],[73.1826,17.51034],[73.14129,17.55655],[73.1601,17.59083],[73.11704,17.68954],[73.13808,17.71864],[73.09329,17.83447],[73.13024,17.83134],[73.09213,17.83873],[73.0803,17.89436],[73.05597,17.89344],[73.02846,17.9637],[73.06937,17.98683],[73.1156,17.97849],[73.17381,18.05851],[73.20788,18.06623],[73.21207,18.06001]]]]}},{"type":"Feature","properties":{"DISTRICT":"Sangli","ST_NM":"Maharashtra","ST_CEN_CD":27,"DT_CEN_CD":35,"censuscode":531},"geometry":{"type":"Polygon","coordinates":[[[75.60438,17.30468],[75.6585,17.26294],[75.66075,17.2099],[75.62655,17.17169],[75.65227,17.11477],[75.67281,17.1152],[75.67722,17.09587],[75.67715,17.06457],[75.64237,17.03812],[75.67097,17.03747],[75.67337,16.96208],[75.64368,16.95284],[75.60918,16.97138],[75.60802,17.00483],[75.57419,17.0095],[75.56874,16.96536],[75.53113,16.96837],[75.49061,16.9446],[75.46592,16.98699],[75.4289,16.96511],[75.3925,16.97801],[75.34289,16.95415],[75.28581,16.95636],[75.28015,16.87591],[75.21296,16.842],[75.18019,16.84368],[75.18667,16.87512],[75.13794,16.87513],[75.13519,16.8945],[75.09459,16.91542],[75.08702,16.95016],[75.02827,16.92717],[75.02666,16.94302],[74.99996,16.94731],[74.982,16.9305],[74.93438,16.94244],[74.92298,16.92708],[74.96339,16.90687],[74.96021,16.8794],[74.90786,16.85745],[74.91979,16.77154],[74.85065,16.77234],[74.71758,16.71486],[74.64801,16.75074],[74.63184,16.78581],[74.56184,16.80483],[74.51696,16.85665],[74.49781,16.82906],[74.49596,16.85553],[74.47016,16.86716],[74.46077,16.85157],[74.4139,16.84185],[74.41549,16.87715],[74.40284,16.87988],[74.36132,16.85339],[74.2817,16.91546],[74.24399,16.88518],[74.22337,16.91063],[74.21223,16.89225],[74.17023,16.89818],[74.14806,16.88389],[74.12133,16.91142],[74.06643,16.90334],[74.02354,16.94208],[74.02268,16.98441],[73.97126,16.99308],[73.981,17.03411],[73.93357,17.07229],[73.91691,17.06799],[73.84931,17.15267],[73.78059,17.18003],[73.77698,17.15181],[73.74995,17.15216],[73.74739,17.17376],[73.69389,17.17853],[73.71862,17.20231],[73.69391,17.23759],[73.69616,17.26256],[73.71825,17.25896],[73.73761,17.27577],[73.83286,17.22676],[73.88706,17.15441],[73.98198,17.12896],[74.03186,17.09132],[74.14453,17.119],[74.18616,17.14876],[74.24802,17.13985],[74.23618,17.15704],[74.27879,17.17223],[74.28703,17.19792],[74.27181,17.21961],[74.28965,17.2415],[74.26537,17.25552],[74.257,17.29325],[74.29442,17.31548],[74.27996,17.33741],[74.288,17.35525],[74.25505,17.35837],[74.28629,17.41733],[74.49459,17.38291],[74.53467,17.41615],[74.58993,17.41435],[74.61054,17.44243],[74.63534,17.39852],[74.68991,17.38685],[74.68476,17.42065],[74.70005,17.45494],[74.6898,17.48504],[74.81022,17.45184],[74.8613,17.5064],[74.8587,17.55598],[74.91126,17.62881],[74.92758,17.61688],[74.92099,17.57603],[74.96317,17.5903],[74.96355,17.56354],[74.98882,17.54159],[74.94096,17.51262],[74.97392,17.46821],[75.03229,17.49428],[75.04094,17.47385],[75.03433,17.41982],[75.00003,17.40683],[75.00725,17.36794],[74.96887,17.34061],[74.96187,17.29338],[74.93753,17.27314],[74.90935,17.27419],[74.87861,17.21188],[74.85087,17.21089],[74.87238,17.20826],[74.87216,17.19014],[74.8975,17.19355],[74.88817,17.17957],[74.92314,17.15471],[74.92578,17.1367],[74.8968,17.11941],[74.96655,17.12622],[74.96552,17.19386],[75.01726,17.22503],[75.07955,17.22176],[75.08042,17.24771],[75.17999,17.23639],[75.20403,17.26881],[75.24797,17.25496],[75.23942,17.21615],[75.21389,17.19917],[75.2328,17.18034],[75.26933,17.18321],[75.27052,17.14854],[75.29611,17.1461],[75.30525,17.17079],[75.28453,17.19255],[75.28885,17.21519],[75.3618,17.23552],[75.36738,17.19088],[75.40607,17.18328],[75.42217,17.26484],[75.46722,17.25134],[75.46383,17.23893],[75.51523,17.23929],[75.58966,17.30146],[75.60438,17.30468]]]}},{"type":"Feature","properties":{"DISTRICT":"Satara","ST_NM":"Maharashtra","ST_CEN_CD":27,"DT_CEN_CD":31,"censuscode":527},"geometry":{"type":"Polygon","coordinates":[[[74.71001,18.02933],[74.66474,18.00061],[74.65808,17.9296],[74.6087,17.84648],[74.64234,17.82908],[74.66098,17.86123],[74.67881,17.84998],[74.70215,17.7856],[74.7478,17.79752],[74.74713,17.76305],[74.77994,17.77059],[74.84042,17.72514],[74.87486,17.72301],[74.86658,17.6956],[74.90553,17.62652],[74.88044,17.59856],[74.87918,17.56848],[74.8587,17.55598],[74.8613,17.5064],[74.81022,17.45184],[74.6898,17.48504],[74.70005,17.45494],[74.68476,17.42065],[74.68991,17.38685],[74.63534,17.39852],[74.61054,17.44243],[74.58993,17.41435],[74.53467,17.41615],[74.49459,17.38291],[74.28629,17.41733],[74.25505,17.35837],[74.28655,17.35735],[74.27996,17.33741],[74.29442,17.31548],[74.257,17.29325],[74.26537,17.25552],[74.28965,17.2415],[74.27181,17.21961],[74.28703,17.19792],[74.27879,17.17223],[74.23618,17.15704],[74.24802,17.13985],[74.18616,17.14876],[74.08323,17.0988],[74.03186,17.09132],[73.98198,17.12896],[73.88706,17.15441],[73.83286,17.22676],[73.77152,17.24786],[73.74283,17.27539],[73.71825,17.25896],[73.69248,17.26564],[73.67737,17.29519],[73.68214,17.36339],[73.64439,17.39117],[73.70507,17.4232],[73.69504,17.48641],[73.74163,17.53148],[73.7468,17.55612],[73.71665,17.57375],[73.72476,17.61962],[73.6922,17.62723],[73.70322,17.65799],[73.68144,17.67752],[73.68885,17.68745],[73.61488,17.71261],[73.59384,17.69948],[73.56634,17.72189],[73.58879,17.76479],[73.58337,17.78732],[73.60251,17.79473],[73.58277,17.82944],[73.5964,17.84774],[73.56061,17.89143],[73.53478,17.89373],[73.57587,17.94333],[73.59465,17.93553],[73.63586,17.96831],[73.62601,17.98458],[73.65023,18.02239],[73.70561,18.04815],[73.79167,18.02211],[73.84699,18.04093],[73.85769,18.03156],[73.88047,18.08457],[73.86219,18.11981],[73.89064,18.11579],[73.90366,18.13609],[73.87414,18.16944],[73.89385,18.18324],[73.90455,18.15993],[73.94581,18.18051],[74.03175,18.13169],[74.06147,18.13722],[74.08369,18.12006],[74.12343,18.12905],[74.29776,18.06948],[74.35752,18.09607],[74.38007,18.0705],[74.46429,18.04728],[74.55136,18.06963],[74.58261,18.04658],[74.62878,18.0554],[74.6411,18.04453],[74.66517,18.06884],[74.708,18.03047],[74.71001,18.02933]]]}},{"type":"Feature","properties":{"DISTRICT":"Sindhudurg","ST_NM":"Maharashtra","ST_CEN_CD":27,"DT_CEN_CD":33,"censuscode":529},"geometry":{"type":"MultiPolygon","coordinates":[[[[73.78337,16.65974],[73.85401,16.65019],[73.86389,16.61326],[73.83268,16.54646],[73.81813,16.54495],[73.84834,16.52634],[73.85361,16.48719],[73.88491,16.47477],[73.88854,16.45751],[73.83785,16.403],[73.86634,16.37371],[73.83574,16.34595],[73.84722,16.30012],[73.9047,16.32831],[73.88164,16.2794],[73.92012,16.24589],[73.89301,16.23093],[73.94418,16.24301],[73.92751,16.20007],[73.95986,16.20028],[73.94228,16.18675],[73.94681,16.17222],[73.91608,16.17239],[73.90992,16.13527],[73.84585,16.15231],[73.85496,16.1357],[73.83578,16.09389],[73.85811,16.07504],[73.84541,16.09529],[73.86035,16.10717],[73.89854,16.08903],[73.90699,16.09988],[73.9976,16.08837],[74.00188,16.03768],[74.04866,16.03415],[74.0567,16.05104],[74.08744,16.01567],[74.04599,15.95671],[74.0736,15.94817],[74.09285,15.87166],[74.03235,15.83391],[74.04258,15.7709],[74.02921,15.76433],[74.05214,15.75451],[74.0797,15.76847],[74.05674,15.77422],[74.04883,15.80669],[74.09476,15.83952],[74.11137,15.82154],[74.14448,15.83154],[74.15939,15.82136],[74.1555,15.78782],[74.17357,15.77426],[74.21054,15.78087],[74.19748,15.75553],[74.16056,15.75137],[74.12335,15.72005],[74.12636,15.68055],[74.08912,15.673],[74.11548,15.6474],[74.03162,15.62302],[74.0202,15.60679],[73.96796,15.6311],[73.96326,15.68937],[73.93716,15.74361],[73.87393,15.75142],[73.8649,15.79738],[73.82426,15.73984],[73.78423,15.72575],[73.74909,15.73483],[73.72776,15.71934],[73.67573,15.72797],[73.65896,15.74898],[73.68894,15.75458],[73.66645,15.76472],[73.63317,15.85113],[73.61771,15.85338],[73.59154,15.90848],[73.50762,15.94335],[73.50923,15.96223],[73.48759,15.97495],[73.4865,16.03758],[73.4586,16.05705],[73.47412,16.09599],[73.47242,16.15859],[73.46146,16.11032],[73.3863,16.33549],[73.39055,16.35613],[73.42051,16.36476],[73.3816,16.35757],[73.37189,16.37145],[73.37447,16.38517],[73.46953,16.41507],[73.36976,16.3938],[73.31416,16.53269],[73.34112,16.56059],[73.36554,16.5161],[73.47541,16.49571],[73.49499,16.5185],[73.54293,16.51522],[73.59609,16.54247],[73.62359,16.58266],[73.64851,16.56453],[73.68973,16.6239],[73.76565,16.60154],[73.76817,16.65976],[73.78058,16.66165],[73.78337,16.65974]]]]}},{"type":"Feature","properties":{"DISTRICT":"Solapur","ST_NM":"Maharashtra","ST_CEN_CD":27,"DT_CEN_CD":30,"censuscode":526},"geometry":{"type":"Polygon","coordinates":[[[75.3144,18.51854],[75.29956,18.4983],[75.30379,18.43441],[75.2853,18.40798],[75.33414,18.39051],[75.40637,18.32673],[75.39696,18.26516],[75.43221,18.26162],[75.43025,18.17787],[75.46535,18.16125],[75.49109,18.17402],[75.49108,18.15638],[75.50815,18.1595],[75.53338,18.13441],[75.55087,18.14491],[75.55458,18.20111],[75.57484,18.24009],[75.63288,18.24786],[75.61895,18.27432],[75.65173,18.33049],[75.68972,18.32424],[75.72018,18.3377],[75.72801,18.38617],[75.70872,18.39603],[75.7285,18.43404],[75.76377,18.44],[75.79881,18.3841],[75.88709,18.36358],[75.94807,18.23846],[75.9391,18.21208],[75.96041,18.15893],[75.94234,18.12335],[75.96168,18.08971],[75.99289,18.09369],[75.99189,18.06171],[76.01623,18.03954],[75.97582,17.97061],[75.91835,17.97412],[75.89998,18.00662],[75.85211,18.00643],[75.83818,17.93894],[75.85806,17.86387],[75.9195,17.83231],[75.93972,17.85171],[75.96839,17.81876],[75.97803,17.84231],[76.01847,17.82905],[76.00625,17.75013],[76.09642,17.77866],[76.10004,17.76127],[76.12237,17.76905],[76.1455,17.75429],[76.14824,17.73281],[76.17627,17.73108],[76.14501,17.70867],[76.18987,17.68238],[76.29919,17.72905],[76.31925,17.69707],[76.3793,17.68559],[76.38131,17.6596],[76.42964,17.64604],[76.41659,17.60586],[76.33233,17.59647],[76.34073,17.54425],[76.36691,17.52389],[76.34422,17.49608],[76.37588,17.49527],[76.33151,17.47057],[76.33439,17.43407],[76.37402,17.43625],[76.36284,17.37696],[76.40903,17.37121],[76.41164,17.34964],[76.38263,17.31377],[76.3531,17.31254],[76.3444,17.35183],[76.31371,17.34515],[76.31792,17.33134],[76.27648,17.33239],[76.27075,17.35835],[76.25051,17.35971],[76.24484,17.37646],[76.1726,17.35049],[76.17605,17.29903],[76.16406,17.30214],[76.16341,17.34267],[76.12131,17.36805],[76.07872,17.33177],[76.05443,17.35596],[75.93065,17.32572],[75.89304,17.35518],[75.88657,17.41881],[75.86123,17.38735],[75.85522,17.40914],[75.82384,17.42429],[75.81417,17.37533],[75.80141,17.37158],[75.73586,17.42329],[75.68986,17.41397],[75.67616,17.45929],[75.63406,17.47879],[75.60854,17.42086],[75.61423,17.3932],[75.57684,17.38426],[75.58315,17.35115],[75.61153,17.3437],[75.60438,17.30468],[75.55693,17.28478],[75.51523,17.23929],[75.46383,17.23893],[75.46722,17.25134],[75.42217,17.26484],[75.40607,17.18328],[75.36738,17.19088],[75.3618,17.23552],[75.33391,17.23249],[75.331,17.2187],[75.28885,17.21519],[75.28453,17.19255],[75.30525,17.17079],[75.29611,17.1461],[75.27052,17.14854],[75.26933,17.18321],[75.2328,17.18034],[75.21389,17.19917],[75.23942,17.21615],[75.24797,17.25496],[75.20403,17.26881],[75.17999,17.23639],[75.08835,17.24898],[75.07955,17.22176],[75.01726,17.22503],[74.96352,17.19072],[74.96655,17.12622],[74.89506,17.12129],[74.92578,17.1367],[74.92314,17.15471],[74.88817,17.17957],[74.8975,17.19355],[74.87216,17.19014],[74.87238,17.20826],[74.85087,17.21089],[74.87861,17.21188],[74.90935,17.27419],[74.93753,17.27314],[74.96187,17.29338],[74.96887,17.34061],[75.00725,17.36794],[75.00003,17.40683],[75.03433,17.41982],[75.03979,17.48239],[75.02763,17.49373],[74.98053,17.46441],[74.94187,17.51045],[74.98882,17.54159],[74.96355,17.56354],[74.96317,17.5903],[74.92099,17.57603],[74.92758,17.61688],[74.91008,17.61962],[74.86658,17.6956],[74.87328,17.72593],[74.84042,17.72514],[74.77994,17.77059],[74.74713,17.76305],[74.7478,17.79752],[74.70215,17.7856],[74.67881,17.84998],[74.66098,17.86123],[74.64234,17.82908],[74.6087,17.84648],[74.65808,17.9296],[74.66474,18.00061],[74.71001,18.02933],[74.76344,18.02415],[74.80738,17.99657],[74.81586,18.01666],[74.83269,17.99268],[74.86456,17.98998],[74.84696,17.94776],[74.93909,17.93992],[74.94346,17.92469],[75.01771,17.90741],[75.02398,17.89209],[75.05447,17.90193],[75.05264,17.92439],[75.07225,17.9143],[75.08952,17.92313],[75.08454,17.93873],[75.11479,17.93663],[75.1307,17.9542],[75.11735,17.96847],[75.13503,17.96958],[75.12009,17.99788],[75.10261,17.97321],[75.07059,17.97577],[75.05073,17.94662],[75.02155,17.96202],[75.0923,18.06613],[75.1303,18.07539],[75.16317,18.10651],[75.15806,18.12098],[75.0938,18.12223],[75.10964,18.21434],[75.08201,18.21792],[75.02199,18.18748],[75.00855,18.21205],[75.04472,18.26212],[74.99318,18.24098],[74.95111,18.26343],[74.84202,18.24326],[74.79657,18.27928],[74.79777,18.2972],[74.84235,18.29573],[74.83388,18.3392],[74.86169,18.33374],[74.87117,18.35288],[74.90737,18.3562],[74.91583,18.37712],[75.00415,18.40291],[75.01623,18.43664],[75.07863,18.42055],[75.1349,18.52624],[75.19736,18.5285],[75.21537,18.55443],[75.26131,18.50884],[75.30851,18.5186],[75.3144,18.51854]]]}},{"type":"Feature","properties":{"DISTRICT":"Thane","ST_NM":"Maharashtra","ST_CEN_CD":27,"DT_CEN_CD":21,"censuscode":517},"geometry":{"type":"MultiPolygon","coordinates":[[[[72.87769,20.2264],[72.95974,20.21279],[72.97602,20.17176],[72.96245,20.13128],[72.97852,20.11368],[73.00689,20.13538],[72.99956,20.11083],[73.04229,20.06807],[73.05021,20.09943],[73.12942,20.08454],[73.17592,20.05312],[73.22583,20.14112],[73.27196,20.10495],[73.26316,20.07385],[73.27858,20.0466],[73.31119,20.05732],[73.36338,20.03512],[73.37311,20.01472],[73.3774,20.02546],[73.40589,20.01691],[73.42612,19.98458],[73.4525,19.98199],[73.45487,19.95911],[73.4237,19.91566],[73.43528,19.87293],[73.41676,19.85975],[73.42094,19.83675],[73.44279,19.82545],[73.4467,19.77314],[73.50094,19.75871],[73.50709,19.7298],[73.49129,19.71456],[73.52025,19.7018],[73.5637,19.64234],[73.56598,19.61653],[73.58646,19.60864],[73.57759,19.60142],[73.62021,19.58703],[73.63717,19.53074],[73.65649,19.53478],[73.70925,19.49631],[73.67579,19.46259],[73.69091,19.43928],[73.72903,19.43026],[73.72992,19.41448],[73.78165,19.38597],[73.79803,19.33615],[73.71605,19.32653],[73.67391,19.30264],[73.69044,19.24428],[73.66252,19.2391],[73.60902,19.18935],[73.54447,19.18295],[73.53961,19.12182],[73.47261,19.1349],[73.35015,19.1287],[73.31094,19.10736],[73.31681,19.08201],[73.27941,19.08452],[73.24655,19.06386],[73.19801,19.12474],[73.17676,19.10902],[73.14407,19.12602],[73.13036,19.11012],[73.06405,19.11061],[73.04691,19.0979],[73.04308,19.01318],[73.00896,18.98673],[72.95859,18.98734],[72.97918,19.04104],[72.96776,19.09355],[72.98335,19.15131],[72.97114,19.17674],[72.93734,19.18971],[72.90761,19.24676],[72.85648,19.26922],[72.82479,19.24468],[72.78152,19.26325],[72.80008,19.33032],[72.75525,19.37844],[72.74865,19.48593],[72.70959,19.55308],[72.72119,19.61653],[72.69488,19.65686],[72.71394,19.69341],[72.69551,19.71693],[72.67607,19.71405],[72.66982,19.75935],[72.68572,19.79271],[72.72275,19.81907],[72.68245,19.80466],[72.66507,19.82169],[72.65501,19.81213],[72.6444,19.86905],[72.65586,19.8605],[72.67277,19.87333],[72.65045,19.94241],[72.70797,19.96836],[72.73479,19.90966],[72.75149,19.90937],[72.75373,19.88243],[72.77258,19.89726],[72.76928,19.94648],[72.75326,19.95399],[72.76882,19.95892],[72.76192,19.9786],[72.71954,19.979],[72.72495,20.03632],[72.71178,20.03669],[72.70423,20.08104],[72.72928,20.13681],[72.79033,20.12574],[72.79056,20.1492],[72.82399,20.14532],[72.82422,20.18833],[72.87326,20.22716],[72.87769,20.2264]]]]}},{"type":"Feature","properties":{"DISTRICT":"Wardha","ST_NM":"Maharashtra","ST_CEN_CD":27,"DT_CEN_CD":8,"censuscode":504},"geometry":{"type":"Polygon","coordinates":[[[78.25127,21.3286],[78.31128,21.29395],[78.3075,21.27379],[78.32623,21.27118],[78.33296,21.25057],[78.47817,21.21954],[78.55495,21.11786],[78.59647,21.10857],[78.60692,21.06922],[78.73094,21.00461],[78.73509,20.94699],[78.77847,20.8912],[78.80971,20.87612],[78.84247,20.89061],[78.86471,20.87132],[78.87504,20.82672],[78.88845,20.84178],[78.91592,20.83512],[78.9155,20.80641],[78.94674,20.79393],[78.94516,20.76698],[79.10411,20.71217],[79.10692,20.68568],[79.14288,20.67585],[79.19257,20.59611],[79.22472,20.58207],[79.21438,20.54642],[79.17174,20.51237],[79.15659,20.4767],[79.13934,20.47752],[79.12103,20.45006],[79.02396,20.47848],[79.00186,20.44765],[78.98972,20.46283],[78.96855,20.45855],[78.95082,20.42844],[78.89922,20.43719],[78.87148,20.42169],[78.84635,20.43345],[78.85571,20.40897],[78.81939,20.39284],[78.83003,20.3189],[78.80182,20.2978],[78.74054,20.29264],[78.70818,20.30938],[78.7113,20.34917],[78.6924,20.35681],[78.64777,20.43191],[78.61123,20.44223],[78.6039,20.4285],[78.57091,20.43239],[78.50923,20.51958],[78.48098,20.52837],[78.41258,20.51145],[78.27988,20.56238],[78.24992,20.64308],[78.30822,20.72325],[78.29554,20.80244],[78.31786,20.82309],[78.29387,20.82765],[78.25568,20.88644],[78.21599,20.90827],[78.1844,20.90464],[78.16955,20.941],[78.14612,20.95222],[78.13757,21.00409],[78.15394,21.0749],[78.13221,21.11298],[78.14531,21.13719],[78.09456,21.1769],[78.09876,21.19922],[78.05549,21.24916],[78.0612,21.27422],[78.0817,21.27779],[78.06801,21.29882],[78.07512,21.35329],[78.23169,21.32695],[78.25127,21.3286]]]}},{"type":"Feature","properties":{"DISTRICT":"Washim","ST_NM":"Maharashtra","ST_CEN_CD":27,"DT_CEN_CD":6,"censuscode":502},"geometry":{"type":"Polygon","coordinates":[[[77.65307,20.56418],[77.64488,20.5292],[77.67041,20.53718],[77.69108,20.52333],[77.65402,20.4947],[77.64757,20.44897],[77.61669,20.46079],[77.60135,20.44485],[77.5678,20.33769],[77.61165,20.26392],[77.66858,20.24757],[77.64664,20.19005],[77.65372,20.17358],[77.68137,20.16885],[77.68424,20.14443],[77.62593,20.04127],[77.5809,20.02974],[77.5261,20.09396],[77.45585,20.07033],[77.36946,20.10101],[77.35518,20.06818],[77.37377,20.04618],[77.34096,20.00625],[77.3401,19.96905],[77.3076,19.96247],[77.26908,19.89714],[77.23757,19.89584],[77.24876,19.90572],[77.23932,19.93806],[77.21049,19.94295],[77.218,19.97782],[77.20396,19.99134],[77.10202,19.93269],[77.06108,19.99605],[76.99321,20.01777],[76.98913,19.9961],[76.90086,19.96256],[76.89615,19.94598],[76.83713,19.96076],[76.82345,19.92667],[76.77333,19.93269],[76.76725,19.9037],[76.74644,19.90662],[76.73938,19.87196],[76.69139,19.87236],[76.67861,19.84613],[76.64695,19.86561],[76.65658,19.89706],[76.61176,19.89044],[76.60674,19.92098],[76.63345,19.9265],[76.63453,19.95303],[76.66034,19.97197],[76.6455,19.98175],[76.66258,20.04794],[76.62488,20.04971],[76.63039,20.08229],[76.64771,20.0684],[76.67091,20.12635],[76.75866,20.13076],[76.75022,20.20895],[76.78684,20.20301],[76.8115,20.21959],[76.82697,20.24588],[76.82172,20.2804],[76.83989,20.30137],[76.88303,20.28223],[76.90871,20.31403],[76.89224,20.31801],[76.90039,20.34052],[76.93461,20.37038],[76.97963,20.37194],[76.99392,20.40847],[77.01763,20.41271],[77.02469,20.45029],[77.07826,20.43746],[77.14101,20.38257],[77.15222,20.4009],[77.19267,20.407],[77.18672,20.44873],[77.29553,20.41975],[77.30121,20.44744],[77.34868,20.46494],[77.32906,20.49862],[77.37135,20.4979],[77.36741,20.47971],[77.38101,20.48308],[77.39794,20.52586],[77.33621,20.52662],[77.34048,20.57664],[77.36245,20.56755],[77.36559,20.58131],[77.40393,20.57876],[77.41771,20.60843],[77.46682,20.6101],[77.43398,20.66133],[77.4567,20.6539],[77.4713,20.68809],[77.50439,20.66445],[77.51284,20.68308],[77.54358,20.67549],[77.50803,20.71005],[77.51873,20.72853],[77.56581,20.72102],[77.59789,20.75852],[77.63648,20.75513],[77.61417,20.71901],[77.63353,20.7115],[77.63701,20.65743],[77.65293,20.66262],[77.63076,20.56679],[77.64594,20.56539],[77.65307,20.56418]]]}},{"type":"Feature","properties":{"DISTRICT":"Yavatmal","ST_NM":"Maharashtra","ST_CEN_CD":27,"DT_CEN_CD":14,"censuscode":510},"geometry":{"type":"Polygon","coordinates":[[[78.27953,20.69639],[78.24992,20.64308],[78.27988,20.56238],[78.41258,20.51145],[78.48098,20.52837],[78.50923,20.51958],[78.57091,20.43239],[78.6039,20.4285],[78.61123,20.44223],[78.64777,20.43191],[78.6924,20.35681],[78.7113,20.34917],[78.70818,20.30938],[78.73823,20.29291],[78.80182,20.2978],[78.82014,20.2469],[78.9213,20.25235],[78.96271,20.20263],[78.95512,20.1683],[78.98142,20.14865],[78.97052,20.12318],[79.01668,20.11277],[79.10861,20.00799],[79.11521,19.98844],[79.09372,19.97713],[79.11045,19.96463],[79.0936,19.94564],[79.09489,19.91466],[79.14946,19.88685],[79.06563,19.81475],[79.02046,19.79909],[78.95862,19.80321],[78.94044,19.77828],[78.9489,19.74861],[78.9029,19.73708],[78.87505,19.76765],[78.81296,19.75905],[78.79019,19.77976],[78.74833,19.78062],[78.72168,19.76776],[78.70109,19.79061],[78.6087,19.81827],[78.53119,19.82235],[78.49881,19.79385],[78.48104,19.81701],[78.40238,19.83694],[78.38885,19.8797],[78.32985,19.89088],[78.33298,19.91646],[78.28695,19.91069],[78.28078,19.88519],[78.25472,19.87299],[78.24233,19.8875],[78.25965,19.9117],[78.2528,19.92935],[78.20053,19.90265],[78.14947,19.91595],[78.10303,19.89668],[78.07839,19.9006],[78.05327,19.93072],[77.9539,19.91123],[77.87621,19.84955],[77.84907,19.80077],[77.86552,19.77142],[77.86053,19.74366],[77.89595,19.72558],[77.93356,19.73932],[77.98539,19.69941],[77.98846,19.68079],[78.0471,19.69889],[78.08986,19.64521],[78.13105,19.66712],[78.17899,19.65504],[78.1957,19.61827],[78.18903,19.56736],[78.11991,19.55362],[78.13626,19.53118],[78.12107,19.50136],[78.06786,19.467],[78.02589,19.4974],[78.01317,19.46544],[77.99144,19.4552],[77.97574,19.50609],[77.93815,19.50039],[77.9076,19.53324],[77.88546,19.50033],[77.86158,19.51957],[77.84287,19.50983],[77.84696,19.48674],[77.82753,19.4754],[77.84754,19.45581],[77.83469,19.43932],[77.80486,19.4643],[77.75618,19.43228],[77.69891,19.43865],[77.71398,19.47648],[77.74029,19.48309],[77.74966,19.52179],[77.63414,19.55571],[77.64932,19.55555],[77.64477,19.60779],[77.62946,19.60801],[77.60746,19.64694],[77.44605,19.68766],[77.44073,19.72206],[77.41333,19.74354],[77.38547,19.72631],[77.38711,19.76601],[77.40993,19.77253],[77.38353,19.78812],[77.39524,19.81112],[77.34683,19.8252],[77.36648,19.85153],[77.34791,19.87342],[77.29859,19.87953],[77.31777,19.90616],[77.28908,19.90072],[77.28738,19.93547],[77.3076,19.96247],[77.3401,19.96905],[77.34096,20.00625],[77.37377,20.04618],[77.35518,20.06818],[77.36946,20.10101],[77.45585,20.07033],[77.5261,20.09396],[77.5809,20.02974],[77.62593,20.04127],[77.67174,20.10427],[77.68137,20.16885],[77.65372,20.17358],[77.64664,20.19005],[77.66858,20.24757],[77.61165,20.26392],[77.56764,20.33333],[77.60135,20.44485],[77.61669,20.46079],[77.64757,20.44897],[77.65402,20.4947],[77.69108,20.52333],[77.67041,20.53718],[77.64488,20.5292],[77.66683,20.58043],[77.77161,20.53994],[77.81151,20.58719],[77.8468,20.57039],[77.84668,20.58765],[77.89309,20.62346],[77.91908,20.60452],[77.91237,20.56542],[77.92433,20.55855],[78.02665,20.63283],[78.03866,20.66645],[78.08902,20.67207],[78.10032,20.66598],[78.0933,20.64096],[78.1119,20.64017],[78.13224,20.66433],[78.15902,20.65913],[78.21338,20.68935],[78.25402,20.68392],[78.27489,20.69675],[78.27953,20.69639]]]}}]}
