{"type":"FeatureCollection","properties":{"source":"DataMeet Community Maps Project - Districts/Census_2011","state":"Manipur","stateSlug":"manipur"},"features":[{"type":"Feature","properties":{"DISTRICT":"Bishnupur","ST_NM":"Manipur","ST_CEN_CD":14,"DT_CEN_CD":4,"censuscode":275},"geometry":{"type":"Polygon","coordinates":[[[93.87595,24.55206],[93.88395,24.48808],[93.84068,24.42288],[93.85172,24.35003],[93.86314,24.35123],[93.85446,24.31135],[93.88034,24.28558],[93.8516,24.30886],[93.83891,24.35762],[93.80182,24.36158],[93.8091,24.38916],[93.75207,24.40453],[93.73489,24.39205],[93.73642,24.41843],[93.71359,24.4223],[93.70796,24.44369],[93.73248,24.49889],[93.72452,24.5915],[93.75206,24.68192],[93.76927,24.69193],[93.77376,24.73717],[93.89255,24.70986],[93.87658,24.67956],[93.80057,24.66851],[93.81757,24.63568],[93.81169,24.60927],[93.8533,24.62294],[93.88892,24.58544],[93.86884,24.56324],[93.87595,24.55206]]]}},{"type":"Feature","properties":{"DISTRICT":"Chandel","ST_NM":"Manipur","ST_CEN_CD":14,"DT_CEN_CD":9,"censuscode":280},"geometry":{"type":"Polygon","coordinates":[[[94.20346,24.6261],[94.28551,24.60104],[94.33725,24.56325],[94.33645,24.54864],[94.37398,24.54971],[94.36415,24.52058],[94.40654,24.48313],[94.40903,24.46314],[94.39666,24.40664],[94.36429,24.39814],[94.38084,24.37294],[94.34921,24.33561],[94.32384,24.33262],[94.32543,24.28608],[94.29256,24.23357],[94.28111,24.17361],[94.2601,24.16153],[94.257,24.08333],[94.24449,24.05635],[94.23037,24.06073],[94.2426,24.03803],[94.19175,23.95893],[94.19321,23.93163],[94.16803,23.92907],[94.15867,23.84676],[94.11988,23.83682],[94.09341,23.88775],[94.05397,23.89189],[94.01514,23.92836],[93.9669,23.92848],[93.95133,23.94478],[93.90463,23.95183],[93.80577,23.92808],[93.76005,23.99922],[93.73815,24.00291],[93.77611,24.09123],[93.77553,24.12885],[93.85242,24.21199],[93.8652,24.20441],[93.87957,24.21947],[93.86111,24.2321],[93.88034,24.28558],[93.88542,24.23589],[93.93997,24.28969],[93.9131,24.34971],[93.92901,24.38601],[93.96776,24.40904],[93.97123,24.48449],[94.00331,24.45995],[94.00524,24.44087],[94.03839,24.45478],[94.05095,24.46974],[94.04085,24.53778],[94.05883,24.53016],[94.05796,24.51231],[94.08935,24.51753],[94.07413,24.56306],[94.09754,24.55339],[94.12027,24.60223],[94.15147,24.60317],[94.15027,24.61813],[94.17717,24.63516],[94.20346,24.6261]]]}},{"type":"Feature","properties":{"DISTRICT":"Churachandpur","ST_NM":"Manipur","ST_CEN_CD":14,"DT_CEN_CD":3,"censuscode":274},"geometry":{"type":"Polygon","coordinates":[[[93.72452,24.5915],[93.73248,24.49889],[93.70796,24.44369],[93.71359,24.4223],[93.73501,24.42095],[93.73489,24.39205],[93.75207,24.40453],[93.8091,24.38916],[93.80182,24.36158],[93.83891,24.35762],[93.8516,24.30886],[93.88034,24.28558],[93.86111,24.2321],[93.87957,24.21947],[93.8652,24.20441],[93.85242,24.21199],[93.80081,24.14439],[93.78085,24.13817],[93.74224,23.99637],[93.61867,24.00969],[93.60146,23.96507],[93.56159,23.98517],[93.55298,23.96082],[93.51317,23.94288],[93.46704,23.96976],[93.42305,24.06763],[93.34987,24.10851],[93.35226,24.09377],[93.33245,24.08627],[93.33578,24.04953],[93.28665,24.04779],[93.25375,24.02011],[93.2651,24.05655],[93.24656,24.08167],[93.22525,24.08291],[93.21528,24.04646],[93.16844,24.05145],[93.16849,24.0678],[93.14087,24.08335],[93.0996,24.04173],[93.10105,24.07066],[93.07826,24.09967],[93.05248,24.08745],[92.97377,24.11394],[93.00435,24.15746],[93.00198,24.19438],[93.02554,24.22943],[93.0057,24.25081],[93.00724,24.27732],[93.04241,24.34016],[93.02064,24.34364],[93.02345,24.38727],[92.99965,24.40013],[93.03827,24.4079],[93.04768,24.47224],[93.03496,24.49374],[93.07192,24.5578],[93.06038,24.57158],[93.10619,24.58021],[93.19096,24.55043],[93.17383,24.51522],[93.19384,24.52027],[93.22245,24.49391],[93.2353,24.51025],[93.26675,24.50902],[93.26104,24.52284],[93.28821,24.56559],[93.39548,24.57439],[93.44835,24.53792],[93.47128,24.56932],[93.49269,24.55044],[93.51274,24.56425],[93.53704,24.55668],[93.54281,24.57804],[93.57145,24.59056],[93.5957,24.56539],[93.62585,24.60304],[93.65013,24.59042],[93.66162,24.60674],[93.70028,24.61162],[93.72168,24.59905],[93.72452,24.5915]]]}},{"type":"Feature","properties":{"DISTRICT":"Imphal East","ST_NM":"Manipur","ST_CEN_CD":14,"DT_CEN_CD":7,"censuscode":278},"geometry":{"type":"Polygon","coordinates":[[[94.08715,24.69258],[94.01986,24.6667],[94.00002,24.72741],[93.97366,24.72313],[93.9682,24.7046],[93.9441,24.7177],[93.9068,24.69982],[93.90519,24.67446],[93.93518,24.66171],[93.93506,24.64525],[93.89189,24.614],[93.91332,24.60636],[93.91176,24.56931],[93.89598,24.55446],[93.86884,24.56324],[93.89034,24.58051],[93.8533,24.62294],[93.82027,24.60672],[93.806,24.61558],[93.81757,24.63568],[93.80057,24.66851],[93.87658,24.67956],[93.89255,24.70986],[93.77376,24.73717],[93.7938,24.76563],[93.78814,24.81854],[93.81108,24.83613],[93.80816,24.86383],[93.84793,24.95085],[93.86601,24.95599],[93.90095,25.03094],[93.96466,25.07202],[93.98641,25.06978],[93.9846,25.05503],[93.91498,25.00026],[93.90661,24.97498],[93.91992,24.96969],[93.88963,24.94077],[93.90741,24.92676],[93.93662,24.96519],[93.91384,24.90018],[93.95399,24.90123],[93.96297,24.91603],[93.94845,24.91629],[93.96445,24.92905],[93.95457,24.93795],[93.98732,24.92201],[93.95617,24.96061],[93.99406,24.94278],[94.01537,24.95062],[94.02258,24.99706],[93.99995,24.99998],[94.02043,25.0063],[94.01582,25.03201],[94.0337,25.04976],[94.03241,25.01994],[94.04877,25.01206],[94.03191,25.00328],[94.05024,24.99631],[94.03404,24.96621],[94.0483,24.97287],[94.04695,24.95726],[94.06467,24.95097],[94.05343,24.94216],[94.06838,24.94039],[94.06505,24.88241],[94.09506,24.88934],[94.13232,24.93849],[94.14498,24.91818],[94.09603,24.84965],[94.06491,24.73821],[94.06273,24.69178],[94.0781,24.70692],[94.08573,24.69508],[94.08715,24.69258]]]}},{"type":"Feature","properties":{"DISTRICT":"Imphal West","ST_NM":"Manipur","ST_CEN_CD":14,"DT_CEN_CD":6,"censuscode":277},"geometry":{"type":"Polygon","coordinates":[[[93.19096,24.55043],[93.12916,24.56163],[93.07469,24.59295],[93.10403,24.672],[93.07524,24.70712],[93.08814,24.70588],[93.10662,24.73857],[93.11066,24.80893],[93.1221,24.81648],[93.15233,24.78637],[93.17811,24.79267],[93.19814,24.81154],[93.1966,24.853],[93.21367,24.85841],[93.24521,24.8509],[93.22373,24.79431],[93.19939,24.7767],[93.17932,24.78296],[93.14501,24.71126],[93.21805,24.69752],[93.20661,24.66735],[93.22092,24.67113],[93.21953,24.59948],[93.19524,24.55547],[93.19096,24.55043]]]}},{"type":"Feature","properties":{"DISTRICT":"Senapati","ST_NM":"Manipur","ST_CEN_CD":14,"DT_CEN_CD":1,"censuscode":272},"geometry":{"type":"Polygon","coordinates":[[[94.49227,25.60838],[94.38596,25.42106],[94.38056,25.35721],[94.3263,25.2783],[94.22201,25.18199],[94.18273,25.16663],[94.12501,25.09082],[94.12078,25.06908],[94.14964,25.03492],[94.14892,25.00042],[94.17619,24.94071],[94.13756,24.80419],[94.16288,24.79716],[94.184,24.76561],[94.17668,24.73459],[94.20346,24.6261],[94.17717,24.63516],[94.15122,24.61798],[94.11899,24.63141],[94.10139,24.66885],[94.13178,24.68871],[94.11761,24.69613],[94.13536,24.70664],[94.12939,24.72306],[94.11184,24.69997],[94.08715,24.69258],[94.0781,24.70692],[94.06273,24.69178],[94.09603,24.84965],[94.14498,24.91818],[94.13232,24.93849],[94.09506,24.88934],[94.06505,24.88241],[94.06838,24.94039],[94.05343,24.94216],[94.06467,24.95097],[94.04695,24.95726],[94.0483,24.97287],[94.03404,24.96621],[94.05024,24.99631],[94.03191,25.00328],[94.04877,25.01206],[94.03241,25.01994],[94.0337,25.04976],[94.01582,25.03201],[94.02043,25.0063],[93.99995,24.99998],[94.02258,24.99706],[94.01537,24.95062],[93.99406,24.94278],[93.95617,24.96061],[93.98533,24.93355],[93.98173,24.9166],[93.95457,24.93795],[93.96445,24.92905],[93.94845,24.91629],[93.96297,24.91603],[93.95399,24.90123],[93.91384,24.90018],[93.93662,24.96519],[93.90741,24.92676],[93.88963,24.94077],[93.91992,24.96969],[93.90661,24.97498],[93.91498,25.00026],[93.9846,25.05503],[93.97545,25.07496],[93.92176,25.05532],[93.86601,24.95599],[93.84793,24.95085],[93.80816,24.86383],[93.81108,24.83613],[93.78814,24.81854],[93.7938,24.76563],[93.72452,24.5915],[93.70028,24.61162],[93.66509,24.79276],[93.72369,24.82534],[93.7365,24.85418],[93.70567,24.91082],[93.79428,24.96232],[93.79561,25.01214],[93.81968,25.01678],[93.77755,25.14988],[93.83045,25.22087],[93.9585,25.28958],[93.92096,25.32828],[93.88964,25.33402],[93.92308,25.38604],[93.91669,25.40409],[93.88924,25.42274],[93.83328,25.42687],[93.82235,25.46053],[93.80842,25.46108],[93.80707,25.49106],[93.76531,25.4955],[93.77019,25.53589],[93.89141,25.5638],[93.96458,25.55179],[94.00974,25.56643],[94.01409,25.59126],[94.08517,25.55468],[94.09129,25.52764],[94.13785,25.51851],[94.15926,25.55003],[94.19396,25.54712],[94.18979,25.52547],[94.21385,25.49485],[94.28568,25.50616],[94.30786,25.48819],[94.4191,25.53682],[94.42889,25.5869],[94.48995,25.61272],[94.49227,25.60838]]]}},{"type":"Feature","properties":{"DISTRICT":"Tamenglong","ST_NM":"Manipur","ST_CEN_CD":14,"DT_CEN_CD":2,"censuscode":273},"geometry":{"type":"Polygon","coordinates":[[[93.70028,24.61162],[93.66162,24.60674],[93.65013,24.59042],[93.62585,24.60304],[93.5957,24.56539],[93.57145,24.59056],[93.53275,24.55543],[93.51274,24.56425],[93.49269,24.55044],[93.47128,24.56932],[93.44835,24.53792],[93.39548,24.57439],[93.28821,24.56559],[93.26104,24.52284],[93.26675,24.50902],[93.2353,24.51025],[93.22245,24.49391],[93.17239,24.52779],[93.19666,24.57055],[93.21097,24.5668],[93.20237,24.58816],[93.21668,24.58691],[93.22092,24.67113],[93.20661,24.66735],[93.21805,24.69752],[93.14501,24.71126],[93.17932,24.78296],[93.19939,24.7767],[93.22373,24.79431],[93.24234,24.84084],[93.24378,24.85341],[93.21367,24.85841],[93.25268,24.91523],[93.24077,24.93778],[93.26182,24.94777],[93.251,24.97785],[93.2628,25.00066],[93.24645,25.00007],[93.24836,25.01524],[93.2677,25.04609],[93.30409,25.04433],[93.33529,25.09214],[93.35266,25.17808],[93.4032,25.25929],[93.47363,25.30537],[93.47631,25.27511],[93.51031,25.27162],[93.50464,25.24013],[93.55415,25.24644],[93.60733,25.19783],[93.69219,25.35727],[93.71744,25.35722],[93.74608,25.4013],[93.82235,25.46053],[93.83328,25.42687],[93.88924,25.42274],[93.91669,25.40409],[93.92308,25.38604],[93.88964,25.33402],[93.92096,25.32828],[93.9585,25.28958],[93.83045,25.22087],[93.77755,25.14988],[93.82101,25.02342],[93.79561,25.01214],[93.79428,24.96232],[93.70567,24.91082],[93.7365,24.85418],[93.72369,24.82534],[93.66509,24.79276],[93.69976,24.62027],[93.70028,24.61162]]]}},{"type":"Feature","properties":{"DISTRICT":"Thoubal","ST_NM":"Manipur","ST_CEN_CD":14,"DT_CEN_CD":5,"censuscode":276},"geometry":{"type":"Polygon","coordinates":[[[94.15027,24.61813],[94.15147,24.60317],[94.12027,24.60223],[94.09754,24.55339],[94.07413,24.56306],[94.08935,24.51753],[94.05796,24.51231],[94.05883,24.53016],[94.04085,24.53778],[94.05095,24.46974],[94.03839,24.45478],[94.00524,24.44087],[94.00331,24.45995],[93.97123,24.48449],[93.96776,24.40904],[93.92901,24.38601],[93.9131,24.34971],[93.93997,24.28969],[93.88542,24.23589],[93.88602,24.28302],[93.85446,24.31135],[93.86314,24.35123],[93.85172,24.35003],[93.84071,24.4279],[93.88395,24.48808],[93.87595,24.55206],[93.91176,24.56931],[93.91191,24.61013],[93.89189,24.614],[93.93506,24.64525],[93.93518,24.66171],[93.90519,24.67446],[93.9068,24.69982],[93.9441,24.7177],[93.9682,24.7046],[93.97366,24.72313],[94.00002,24.72741],[94.02332,24.66662],[94.11184,24.69997],[94.12939,24.72306],[94.13536,24.70664],[94.11761,24.69613],[94.13178,24.68871],[94.10139,24.66885],[94.13293,24.62092],[94.15027,24.61813]]]}},{"type":"Feature","properties":{"DISTRICT":"Ukhrul","ST_NM":"Manipur","ST_CEN_CD":14,"DT_CEN_CD":8,"censuscode":279},"geometry":{"type":"Polygon","coordinates":[[[94.68085,25.45317],[94.67462,25.41402],[94.64281,25.3951],[94.6002,25.29222],[94.58357,25.20924],[94.60701,25.18446],[94.74357,25.12959],[94.74,25.01817],[94.7009,24.97127],[94.71678,24.93538],[94.63554,24.83544],[94.62247,24.7889],[94.63091,24.758],[94.60842,24.71519],[94.58857,24.70405],[94.57928,24.72449],[94.57416,24.70522],[94.54863,24.70977],[94.52904,24.62563],[94.46306,24.56896],[94.42711,24.4868],[94.39624,24.48415],[94.36415,24.52058],[94.37398,24.54971],[94.33645,24.54864],[94.33725,24.56325],[94.28551,24.60104],[94.20346,24.6261],[94.17668,24.73459],[94.184,24.76561],[94.16288,24.79716],[94.13756,24.80419],[94.17619,24.94071],[94.14892,25.00042],[94.14964,25.03492],[94.12078,25.06908],[94.12501,25.09082],[94.18273,25.16663],[94.22201,25.18199],[94.3263,25.2783],[94.38056,25.35721],[94.38596,25.42106],[94.42211,25.46636],[94.47019,25.58248],[94.57187,25.69158],[94.59444,25.68515],[94.57487,25.63858],[94.59394,25.63768],[94.55444,25.57968],[94.55604,25.50657],[94.66818,25.44883],[94.68085,25.45317]]]}}]}
