{"type":"FeatureCollection","properties":{"source":"DataMeet Community Maps Project - Districts/Census_2011","state":"Meghalaya","stateSlug":"meghalaya"},"features":[{"type":"Feature","properties":{"DISTRICT":"East Garo Hills","ST_NM":"Meghalaya","ST_CEN_CD":17,"DT_CEN_CD":2,"censuscode":294},"geometry":{"type":"Polygon","coordinates":[[[91.03234,25.88749],[91.00383,25.82172],[90.94366,25.76335],[90.9854,25.74399],[90.91112,25.6404],[90.85207,25.59027],[90.7926,25.57193],[90.7819,25.58516],[90.7694,25.55387],[90.68197,25.48115],[90.64249,25.41494],[90.52174,25.43289],[90.47888,25.45342],[90.32286,25.46537],[90.40594,25.55127],[90.44455,25.69569],[90.39465,25.79852],[90.34185,25.80443],[90.34533,25.82785],[90.38687,25.84056],[90.38536,25.86741],[90.42565,25.95272],[90.22835,25.92531],[90.1849,25.90092],[90.11508,25.95406],[90.15753,25.96464],[90.18659,25.94438],[90.21251,25.96149],[90.3283,25.97425],[90.36897,26.01015],[90.40043,26.01396],[90.43249,25.98885],[90.48115,26.01504],[90.53819,25.95778],[90.51622,25.89602],[90.58613,25.95952],[90.63261,25.93714],[90.61116,25.9193],[90.61777,25.89923],[90.6896,25.95047],[90.75094,25.95695],[90.74579,25.91257],[90.7624,25.92127],[90.78147,25.9079],[90.81332,25.95175],[90.84013,25.93778],[90.88633,25.9513],[90.92239,25.91283],[90.91918,25.94268],[90.94605,25.94707],[90.97063,25.88667],[91.0314,25.88801],[91.03234,25.88749]]]}},{"type":"Feature","properties":{"DISTRICT":"East Khasi Hills","ST_NM":"Meghalaya","ST_CEN_CD":17,"DT_CEN_CD":6,"censuscode":298},"geometry":{"type":"Polygon","coordinates":[[[92.01985,25.18684],[91.98624,25.17097],[91.95014,25.1827],[91.74968,25.17109],[91.747,25.14804],[91.70784,25.15617],[91.64504,25.12375],[91.60397,25.14636],[91.60589,25.1731],[91.47392,25.13555],[91.46632,25.15065],[91.38273,25.17625],[91.35673,25.22859],[91.40557,25.2631],[91.54661,25.27893],[91.55271,25.32969],[91.52732,25.34839],[91.55889,25.42837],[91.54466,25.51064],[91.65675,25.55141],[91.66157,25.52749],[91.69204,25.52545],[91.73617,25.57467],[91.78395,25.58913],[91.81149,25.64286],[92.13612,25.64066],[92.09921,25.49229],[92.11307,25.47],[92.09948,25.45033],[92.12299,25.32861],[92.11175,25.30331],[92.05089,25.31932],[91.98885,25.27477],[91.98794,25.24506],[92.02416,25.20135],[92.01918,25.18712],[92.01985,25.18684]]]}},{"type":"Feature","properties":{"DISTRICT":"Jaintia Hills","ST_NM":"Meghalaya","ST_CEN_CD":17,"DT_CEN_CD":7,"censuscode":299},"geometry":{"type":"Polygon","coordinates":[[[92.66161,25.57945],[92.6385,25.52617],[92.57647,25.48815],[92.56824,25.46519],[92.59898,25.46932],[92.60985,25.4142],[92.65499,25.43293],[92.66077,25.40793],[92.67445,25.4147],[92.71868,25.37246],[92.73759,25.37869],[92.76103,25.33267],[92.7848,25.3299],[92.7926,25.28251],[92.76501,25.24672],[92.79872,25.21076],[92.66729,25.17458],[92.62201,25.11528],[92.52519,25.13777],[92.5434,25.09731],[92.48484,25.10587],[92.46373,25.03496],[92.42534,25.02952],[92.3479,25.04994],[92.33649,25.08189],[92.30035,25.07148],[92.23243,25.09655],[92.21233,25.1111],[92.22777,25.11793],[92.1907,25.13541],[92.19285,25.12169],[92.17896,25.12272],[92.0845,25.18328],[92.01918,25.18712],[92.02416,25.20135],[91.98794,25.24506],[91.98885,25.27477],[92.05089,25.31932],[92.11175,25.30331],[92.12299,25.32861],[92.09948,25.45033],[92.11307,25.47],[92.09921,25.49229],[92.10968,25.56113],[92.14227,25.62542],[92.13612,25.64066],[92.15858,25.64714],[92.15545,25.66933],[92.17252,25.66518],[92.23056,25.71445],[92.33498,25.72333],[92.38654,25.7516],[92.43451,25.72942],[92.43561,25.68549],[92.46669,25.68038],[92.50282,25.62078],[92.55868,25.60975],[92.57345,25.55815],[92.59441,25.55163],[92.64926,25.58998],[92.66139,25.58267],[92.66161,25.57945]]]}},{"type":"Feature","properties":{"DISTRICT":"Ri Bhoi","ST_NM":"Meghalaya","ST_CEN_CD":17,"DT_CEN_CD":5,"censuscode":297},"geometry":{"type":"Polygon","coordinates":[[[92.18042,26.07789],[92.18252,26.06688],[92.24318,26.06084],[92.30353,26.07472],[92.15825,25.94317],[92.16558,25.91015],[92.22729,25.90533],[92.18169,25.86849],[92.15486,25.8111],[92.16719,25.73277],[92.15122,25.71285],[92.16705,25.67673],[92.14417,25.63916],[91.81149,25.64286],[91.83104,25.68819],[91.81126,25.73281],[91.7713,25.74282],[91.7908,25.79026],[91.75259,25.8267],[91.71032,25.81941],[91.70091,25.80421],[91.58992,25.81145],[91.46145,25.78799],[91.3745,25.80205],[91.34482,25.82418],[91.34709,25.83863],[91.42152,25.85385],[91.44699,25.84013],[91.52795,25.87192],[91.53231,25.88871],[91.51034,25.86649],[91.47735,25.87031],[91.53393,25.92275],[91.53851,25.93303],[91.50426,25.91981],[91.52115,25.95719],[91.5539,25.97391],[91.57854,26.03211],[91.59972,26.01603],[91.63479,26.02135],[91.62731,25.98483],[91.6405,25.96378],[91.61368,25.93888],[91.67174,25.90428],[91.72261,25.95292],[91.73382,26.05806],[91.7929,26.08582],[91.82186,26.11752],[91.87825,26.09644],[91.87256,26.0509],[91.88559,26.02869],[91.91928,26.02012],[91.92437,25.99817],[91.99331,26.03961],[92.05503,26.03134],[92.13521,26.04431],[92.1712,26.07598],[92.18042,26.07789]]]}},{"type":"Feature","properties":{"DISTRICT":"South Garo Hills","ST_NM":"Meghalaya","ST_CEN_CD":17,"DT_CEN_CD":3,"censuscode":295},"geometry":{"type":"Polygon","coordinates":[[[90.97256,25.17201],[90.85773,25.15908],[90.78302,25.1832],[90.73497,25.15412],[90.67781,25.16696],[90.65801,25.19258],[90.6392,25.17263],[90.51326,25.1679],[90.44744,25.14324],[90.33458,25.19116],[90.25766,25.19566],[90.23077,25.21777],[90.26428,25.32069],[90.31148,25.3648],[90.30645,25.41795],[90.32286,25.46537],[90.47888,25.45342],[90.52174,25.43289],[90.64743,25.41558],[90.68197,25.48115],[90.7694,25.55387],[90.7954,25.49023],[90.7749,25.47167],[90.78807,25.46789],[90.78003,25.45272],[90.76032,25.45094],[90.76563,25.39747],[90.75219,25.38019],[90.84008,25.35746],[90.84269,25.31211],[90.86006,25.29296],[90.90345,25.29622],[90.95481,25.25572],[90.95269,25.2142],[90.97437,25.19103],[90.97256,25.17201]]]}},{"type":"Feature","properties":{"DISTRICT":"West Garo Hills","ST_NM":"Meghalaya","ST_CEN_CD":17,"DT_CEN_CD":1,"censuscode":293},"geometry":{"type":"Polygon","coordinates":[[[90.32286,25.46537],[90.30645,25.41795],[90.31148,25.3648],[90.26428,25.32069],[90.25042,25.25298],[90.23209,25.23466],[90.23647,25.20324],[90.11522,25.22368],[89.97506,25.30049],[89.91092,25.30729],[89.87743,25.28671],[89.83769,25.29549],[89.81855,25.3881],[89.85609,25.47662],[89.87939,25.49151],[89.87066,25.53979],[89.89031,25.55805],[89.97031,25.57184],[89.98305,25.59086],[90.00599,25.58431],[90.0223,25.6085],[89.95092,25.65894],[89.89956,25.74422],[89.93761,25.74464],[89.95936,25.77453],[89.94876,25.82453],[90.01247,25.84686],[90.02605,25.86554],[90.00894,25.8787],[90.04626,25.89075],[90.11508,25.95406],[90.1849,25.90092],[90.22835,25.92531],[90.42565,25.95272],[90.38536,25.86741],[90.38687,25.84056],[90.34533,25.82785],[90.34185,25.80443],[90.39465,25.79852],[90.44455,25.69569],[90.40594,25.55127],[90.32556,25.47344],[90.32286,25.46537]]]}},{"type":"Feature","properties":{"DISTRICT":"West Khasi Hills","ST_NM":"Meghalaya","ST_CEN_CD":17,"DT_CEN_CD":4,"censuscode":296},"geometry":{"type":"Polygon","coordinates":[[[91.81149,25.64286],[91.78395,25.58913],[91.73617,25.57467],[91.69204,25.52545],[91.66157,25.52749],[91.65675,25.55141],[91.54466,25.51064],[91.55889,25.42837],[91.52732,25.34839],[91.55271,25.32969],[91.55083,25.28639],[91.49881,25.28281],[91.48181,25.26287],[91.40557,25.2631],[91.38838,25.23901],[91.3573,25.2336],[91.38608,25.16717],[91.29845,25.18475],[91.26763,25.2062],[91.13769,25.19238],[91.08447,25.20135],[90.97256,25.17201],[90.97147,25.20066],[90.95269,25.2142],[90.95481,25.25572],[90.90345,25.29622],[90.86006,25.29296],[90.84269,25.31211],[90.84008,25.35746],[90.75219,25.38019],[90.76563,25.39747],[90.76032,25.45094],[90.78003,25.45272],[90.78807,25.46789],[90.7749,25.47167],[90.79477,25.48575],[90.7674,25.55045],[90.7819,25.58516],[90.7926,25.57193],[90.80458,25.58594],[90.81534,25.57667],[90.88269,25.61051],[90.9854,25.74399],[90.94644,25.75252],[90.94687,25.76989],[91.05214,25.84825],[91.08155,25.85204],[91.0529,25.82834],[91.06623,25.8198],[91.15579,25.84943],[91.18191,25.84209],[91.19936,25.85833],[91.18274,25.77566],[91.19472,25.72891],[91.22657,25.72273],[91.2783,25.7462],[91.33629,25.83805],[91.36246,25.80608],[91.46145,25.78799],[91.58992,25.81145],[91.70091,25.80421],[91.71032,25.81941],[91.75259,25.8267],[91.7908,25.79026],[91.7713,25.74282],[91.81126,25.73281],[91.83104,25.68819],[91.81429,25.65275],[91.81149,25.64286]]]}}]}
