{"type":"FeatureCollection","properties":{"source":"DataMeet Community Maps Project - Districts/Census_2011","state":"Mizoram","stateSlug":"mizoram"},"features":[{"type":"Feature","properties":{"DISTRICT":"Aizawl","ST_NM":"Mizoram","ST_CEN_CD":15,"DT_CEN_CD":3,"censuscode":283},"geometry":{"type":"Polygon","coordinates":[[[92.98749,24.40453],[93.02345,24.38727],[93.02064,24.34364],[93.04241,24.34016],[93.00724,24.27732],[93.02121,24.20687],[93.00198,24.19438],[93.00435,24.15746],[92.97377,24.11394],[93.05248,24.08745],[93.07826,24.09967],[93.10105,24.07066],[93.0996,24.04173],[93.14657,24.08464],[93.16844,24.05145],[93.20723,24.04755],[93.17147,23.93997],[93.18904,23.90722],[93.16145,23.88268],[93.16513,23.83996],[93.14979,23.81046],[93.04438,23.76562],[93.05685,23.55561],[93.04485,23.47568],[93.05954,23.41644],[93.03623,23.41776],[92.94759,23.51411],[92.88092,23.51868],[92.85234,23.48028],[92.81197,23.36798],[92.85359,23.32261],[92.81257,23.27286],[92.79124,23.27577],[92.78118,23.29952],[92.73615,23.31363],[92.70204,23.29693],[92.65935,23.42176],[92.66103,23.49724],[92.63506,23.53361],[92.65676,23.55423],[92.65179,23.58987],[92.67185,23.60004],[92.67527,23.62311],[92.65236,23.6303],[92.63705,23.65839],[92.66763,23.70733],[92.64386,23.72816],[92.62962,23.76239],[92.64244,23.7853],[92.62521,23.79647],[92.66128,23.83205],[92.64127,23.89203],[92.663,23.90833],[92.62299,23.93517],[92.64352,23.96452],[92.65894,23.95682],[92.689,23.98248],[92.73976,23.97894],[92.78494,24.01789],[92.8409,24.0139],[92.90258,24.22151],[92.89317,24.24196],[92.8634,24.24121],[92.87643,24.27644],[92.86284,24.32411],[92.89361,24.3554],[92.88714,24.38035],[92.91081,24.40994],[92.93494,24.39253],[92.9846,24.40445],[92.98749,24.40453]]]}},{"type":"Feature","properties":{"DISTRICT":"Champhai","ST_NM":"Mizoram","ST_CEN_CD":15,"DT_CEN_CD":4,"censuscode":284},"geometry":{"type":"Polygon","coordinates":[[[93.33578,24.04953],[93.33275,23.98309],[93.36928,23.93659],[93.39694,23.92627],[93.40333,23.75755],[93.41494,23.70808],[93.44263,23.67832],[93.4262,23.64948],[93.42558,23.5342],[93.40544,23.50448],[93.39497,23.42935],[93.41196,23.38401],[93.39647,23.36031],[93.36356,23.3506],[93.39232,23.22036],[93.37154,23.14646],[93.3912,23.13472],[93.36258,23.11288],[93.32713,23.02792],[93.28574,23.00105],[93.24537,23.00608],[93.19661,23.05527],[93.16541,23.17916],[93.05064,23.21319],[93.01278,23.26205],[93.04651,23.31485],[93.0446,23.41069],[93.05954,23.41644],[93.04485,23.47568],[93.05685,23.55561],[93.04438,23.76562],[93.14979,23.81046],[93.16513,23.83996],[93.16145,23.88268],[93.18904,23.90722],[93.17147,23.93997],[93.22525,24.08291],[93.26222,24.06911],[93.25375,24.02011],[93.31097,24.05032],[93.33578,24.04953]]]}},{"type":"Feature","properties":{"DISTRICT":"Kolasib","ST_NM":"Mizoram","ST_CEN_CD":15,"DT_CEN_CD":2,"censuscode":282},"geometry":{"type":"Polygon","coordinates":[[[92.78077,24.47568],[92.80021,24.4163],[92.83071,24.39769],[92.82832,24.37497],[92.86222,24.39662],[92.89717,24.38899],[92.89361,24.3554],[92.85754,24.30785],[92.87583,24.28598],[92.8634,24.24121],[92.90168,24.2311],[92.89438,24.17132],[92.85652,24.09387],[92.8409,24.0139],[92.78494,24.01789],[92.73976,23.97894],[92.689,23.98248],[92.68394,23.96675],[92.6275,23.95371],[92.62304,24.00781],[92.63832,24.03269],[92.62239,24.03145],[92.58355,24.07424],[92.56782,24.03827],[92.55398,24.06055],[92.53929,24.0331],[92.54527,24.14087],[92.53099,24.18124],[92.55019,24.24364],[92.61107,24.25097],[92.62382,24.33026],[92.64854,24.3263],[92.69016,24.35226],[92.76475,24.51816],[92.77866,24.48379],[92.78077,24.47568]]]}},{"type":"Feature","properties":{"DISTRICT":"Lawangtlai","ST_NM":"Mizoram","ST_CEN_CD":15,"DT_CEN_CD":7,"censuscode":287},"geometry":{"type":"Polygon","coordinates":[[[92.93465,22.55458],[92.94292,22.43857],[92.96274,22.37751],[92.93213,22.39474],[92.86564,22.32374],[92.82462,22.32517],[92.84022,22.28734],[92.85453,22.06365],[92.70577,22.15184],[92.69131,22.07567],[92.68163,22.10378],[92.6821,22.0164],[92.61013,21.97898],[92.60109,22.06202],[92.56499,22.12824],[92.58428,22.14405],[92.60853,22.12654],[92.61442,22.1691],[92.59968,22.18084],[92.57983,22.27869],[92.51091,22.74754],[92.54004,22.7593],[92.57024,22.73072],[92.58803,22.74691],[92.64737,22.61686],[92.69721,22.61656],[92.69841,22.58987],[92.75549,22.54153],[92.76476,22.49793],[92.78186,22.49819],[92.80806,22.62719],[92.84498,22.62062],[92.89966,22.58237],[92.91305,22.54481],[92.92878,22.54999],[92.93465,22.55458]]]}},{"type":"Feature","properties":{"DISTRICT":"Lunglei","ST_NM":"Mizoram","ST_CEN_CD":15,"DT_CEN_CD":6,"censuscode":286},"geometry":{"type":"Polygon","coordinates":[[[92.67269,23.3827],[92.69064,23.35483],[92.68662,23.28031],[92.70333,23.1978],[92.72229,23.19194],[92.72505,23.24073],[92.81663,23.22552],[92.83545,23.24553],[92.86058,23.21514],[92.86816,23.17283],[92.93835,23.18664],[92.96008,23.15748],[92.96044,23.11616],[93.0397,23.08093],[93.0418,23.04947],[93.12798,23.00328],[93.16602,22.91589],[93.13293,22.90406],[93.11384,22.81321],[93.09697,22.80738],[93.10169,22.78408],[93.07864,22.80634],[93.03151,22.79578],[93.00593,22.75353],[92.99094,22.7537],[92.92578,22.78954],[92.91985,22.72818],[92.95514,22.62741],[92.94503,22.56387],[92.91305,22.54481],[92.89966,22.58237],[92.84498,22.62062],[92.80806,22.62719],[92.77921,22.49764],[92.76281,22.50078],[92.75549,22.54153],[92.69841,22.58987],[92.69721,22.61656],[92.64737,22.61686],[92.58803,22.74691],[92.57024,22.73072],[92.54004,22.7593],[92.51758,22.75563],[92.51047,22.73509],[92.48054,22.75068],[92.44864,22.89266],[92.37543,22.93373],[92.39672,23.05502],[92.36663,23.10519],[92.35741,23.23417],[92.40588,23.23824],[92.39457,23.26555],[92.42616,23.26359],[92.45378,23.28635],[92.47511,23.32151],[92.46679,23.38863],[92.55804,23.36932],[92.58868,23.38401],[92.59206,23.40453],[92.66564,23.38115],[92.67269,23.3827]]]}},{"type":"Feature","properties":{"DISTRICT":"Mamit","ST_NM":"Mizoram","ST_CEN_CD":15,"DT_CEN_CD":1,"censuscode":281},"geometry":{"type":"Polygon","coordinates":[[[92.42224,24.24613],[92.41863,24.19234],[92.43704,24.14932],[92.46551,24.13267],[92.48542,24.16007],[92.53604,24.17592],[92.53929,24.0331],[92.55398,24.06055],[92.56782,24.03827],[92.58355,24.07424],[92.62239,24.03145],[92.63832,24.03269],[92.62023,23.95734],[92.62299,23.93517],[92.663,23.90833],[92.64127,23.89203],[92.66241,23.83712],[92.62521,23.79647],[92.64244,23.7853],[92.62962,23.76239],[92.64386,23.72816],[92.66763,23.70733],[92.63714,23.64744],[92.67527,23.62311],[92.67185,23.60004],[92.65179,23.58987],[92.65676,23.55423],[92.63506,23.53361],[92.66103,23.49724],[92.67269,23.3827],[92.59206,23.40453],[92.58868,23.38401],[92.55804,23.36932],[92.46679,23.38863],[92.47511,23.32151],[92.45378,23.28635],[92.41346,23.26161],[92.39457,23.26555],[92.39184,23.30724],[92.3731,23.32852],[92.38536,23.36008],[92.35986,23.38631],[92.36115,23.41395],[92.34798,23.4347],[92.33253,23.42951],[92.31002,23.59044],[92.295,23.59663],[92.30227,23.62375],[92.27987,23.63778],[92.29479,23.69365],[92.26848,23.72439],[92.25891,23.81338],[92.28628,23.81511],[92.27427,23.84741],[92.29149,23.86976],[92.3197,23.86409],[92.33066,23.91003],[92.31103,23.95882],[92.32865,23.98785],[92.31377,24.03293],[92.33656,24.14494],[92.29647,24.24992],[92.42208,24.25108],[92.42224,24.24613]]]}},{"type":"Feature","properties":{"DISTRICT":"Saiha","ST_NM":"Mizoram","ST_CEN_CD":15,"DT_CEN_CD":8,"censuscode":288},"geometry":{"type":"Polygon","coordinates":[[[93.10169,22.78408],[93.11031,22.74121],[93.09307,22.70809],[93.14308,22.58308],[93.10916,22.52887],[93.1311,22.51696],[93.13947,22.46028],[93.17276,22.44826],[93.18812,22.42417],[93.20576,22.25802],[93.14369,22.23825],[93.16702,22.19716],[93.15162,22.17534],[93.07887,22.20572],[93.04402,22.19505],[93.04425,22.13613],[93.06286,22.09949],[93.01333,22.10303],[92.99731,22.04803],[93.00655,21.9816],[92.98969,21.97856],[92.95318,22.0277],[92.93204,22.01788],[92.90828,21.94419],[92.89172,22.00991],[92.8483,22.0808],[92.84022,22.28734],[92.82462,22.32517],[92.86564,22.32374],[92.92286,22.38861],[92.93951,22.39202],[92.95689,22.3723],[92.96678,22.3928],[92.9482,22.41368],[92.93644,22.482],[92.93465,22.55458],[92.95514,22.62741],[92.91985,22.72818],[92.92578,22.78954],[93.00593,22.75353],[93.03151,22.79578],[93.07864,22.80634],[93.09034,22.79113],[93.10169,22.78408]]]}},{"type":"Feature","properties":{"DISTRICT":"Serchhip","ST_NM":"Mizoram","ST_CEN_CD":15,"DT_CEN_CD":5,"censuscode":285},"geometry":{"type":"Polygon","coordinates":[[[93.0446,23.41069],[93.04651,23.31485],[93.01278,23.26205],[93.05064,23.21319],[93.16541,23.17916],[93.19568,23.06487],[93.1656,23.04573],[93.13967,23.05738],[93.12798,23.00328],[93.0418,23.04947],[93.0397,23.08093],[92.96044,23.11616],[92.96008,23.15748],[92.93835,23.18664],[92.86816,23.17283],[92.83873,23.24451],[92.81663,23.22552],[92.72505,23.24073],[92.72229,23.19194],[92.70333,23.1978],[92.69471,23.22205],[92.68417,23.32632],[92.70204,23.29693],[92.73615,23.31363],[92.81257,23.27286],[92.85359,23.32261],[92.81197,23.36798],[92.85234,23.48028],[92.88092,23.51868],[92.94759,23.51411],[93.03623,23.41776],[93.0446,23.41069]]]}}]}
