{"type":"FeatureCollection","properties":{"source":"DataMeet Community Maps Project - Districts/Census_2011","state":"Nagaland","stateSlug":"nagaland"},"features":[{"type":"Feature","properties":{"DISTRICT":"Dimapur","ST_NM":"Nagaland","ST_CEN_CD":13,"DT_CEN_CD":5,"censuscode":265},"geometry":{"type":"Polygon","coordinates":[[[93.96808,25.90627],[93.999,25.88174],[93.97403,25.85038],[93.99211,25.79258],[93.97415,25.73582],[93.94166,25.72901],[93.91607,25.69593],[93.93448,25.64562],[93.83892,25.69576],[93.76542,25.68417],[93.73794,25.69634],[93.73642,25.66419],[93.69906,25.6843],[93.62407,25.66305],[93.5869,25.66675],[93.54389,25.69928],[93.54678,25.73064],[93.57333,25.75693],[93.60562,25.76354],[93.64109,25.81396],[93.70553,25.84456],[93.68784,25.90545],[93.75199,25.93228],[93.77316,25.9619],[93.79836,25.90549],[93.77977,25.8421],[93.79567,25.81009],[93.84225,25.85829],[93.88257,25.8415],[93.91577,25.88321],[93.95969,25.90073],[93.96808,25.90627]]]}},{"type":"Feature","properties":{"DISTRICT":"Kiphire","ST_NM":"Nagaland","ST_CEN_CD":13,"DT_CEN_CD":9,"censuscode":269},"geometry":{"type":"Polygon","coordinates":[[[94.88039,26.01262],[94.8943,25.99899],[94.84513,25.92551],[94.92859,25.94312],[94.94261,25.90511],[94.98175,25.87302],[95.02079,25.88058],[95.01402,25.86503],[95.05027,25.798],[95.05095,25.75545],[94.94128,25.66826],[94.91802,25.60412],[94.88732,25.58614],[94.85483,25.61057],[94.86124,25.71657],[94.83371,25.75243],[94.75473,25.77982],[94.72598,25.74745],[94.72486,25.72095],[94.6988,25.78851],[94.61263,25.81756],[94.60427,25.86468],[94.5758,25.89214],[94.67152,26.01719],[94.75758,26.0212],[94.78854,26.00532],[94.84723,26.03544],[94.87953,26.01232],[94.88039,26.01262]]]}},{"type":"Feature","properties":{"DISTRICT":"Kohima","ST_NM":"Nagaland","ST_CEN_CD":13,"DT_CEN_CD":10,"censuscode":270},"geometry":{"type":"Polygon","coordinates":[[[94.35924,26.00955],[94.36353,25.98698],[94.33744,25.94914],[94.35393,25.92379],[94.21835,25.68232],[94.19481,25.54772],[94.15926,25.55003],[94.13785,25.51851],[94.10523,25.52379],[94.08517,25.55468],[94.01409,25.59126],[94.00677,25.56498],[93.94311,25.5586],[93.94265,25.58846],[93.91659,25.60124],[93.93866,25.63316],[93.91529,25.69334],[93.98767,25.76113],[93.97403,25.85038],[93.999,25.88174],[93.97048,25.89802],[93.97184,25.913],[94.04677,25.9398],[94.10706,25.98534],[94.16892,25.97372],[94.2192,26.02442],[94.24265,26.00369],[94.31695,26.01789],[94.33616,25.99721],[94.35483,26.00691],[94.35924,26.00955]]]}},{"type":"Feature","properties":{"DISTRICT":"Longleng","ST_NM":"Nagaland","ST_CEN_CD":13,"DT_CEN_CD":8,"censuscode":268},"geometry":{"type":"Polygon","coordinates":[[[94.90402,26.43888],[94.91693,26.37173],[94.86123,26.37514],[94.76427,26.45519],[94.7095,26.44394],[94.69374,26.47572],[94.69143,26.52383],[94.73706,26.5952],[94.71171,26.63642],[94.6704,26.64803],[94.75253,26.70158],[94.74664,26.73],[94.76004,26.72826],[94.73808,26.76363],[94.79114,26.79616],[94.81436,26.79124],[94.81844,26.77936],[94.79826,26.76741],[94.83607,26.71739],[94.80799,26.6917],[94.78517,26.69825],[94.7831,26.65592],[94.79534,26.6298],[94.89464,26.60297],[94.88419,26.57518],[94.90305,26.43951],[94.90402,26.43888]]]}},{"type":"Feature","properties":{"DISTRICT":"Mokokchung","ST_NM":"Nagaland","ST_CEN_CD":13,"DT_CEN_CD":2,"censuscode":262},"geometry":{"type":"Polygon","coordinates":[[[94.7095,26.44394],[94.70606,26.41242],[94.66225,26.37612],[94.65289,26.34094],[94.56767,26.28356],[94.56539,26.25578],[94.58805,26.23568],[94.57629,26.20969],[94.50141,26.21456],[94.51457,26.23459],[94.48827,26.28993],[94.44335,26.20425],[94.41049,26.21164],[94.37021,26.1923],[94.38775,26.2263],[94.33804,26.24186],[94.35992,26.2683],[94.3668,26.33748],[94.35028,26.3327],[94.35941,26.3577],[94.33058,26.40111],[94.30593,26.37981],[94.29273,26.41837],[94.35144,26.50387],[94.39978,26.52751],[94.41523,26.57849],[94.40831,26.6096],[94.46292,26.63064],[94.465,26.66273],[94.49872,26.66886],[94.52321,26.69951],[94.56156,26.7032],[94.57509,26.68604],[94.60508,26.7122],[94.60038,26.73276],[94.62311,26.71449],[94.6589,26.71968],[94.73808,26.76363],[94.76004,26.72826],[94.74664,26.73],[94.75253,26.70158],[94.6704,26.64803],[94.71171,26.63642],[94.73706,26.5952],[94.69143,26.52383],[94.70772,26.4483],[94.7095,26.44394]]]}},{"type":"Feature","properties":{"DISTRICT":"Mon","ST_NM":"Nagaland","ST_CEN_CD":13,"DT_CEN_CD":1,"censuscode":261},"geometry":{"type":"Polygon","coordinates":[[[95.2373,26.67984],[95.15437,26.61313],[95.15408,26.57439],[95.11437,26.54163],[95.12031,26.52339],[95.07552,26.47128],[94.98798,26.48149],[94.91156,26.43401],[94.89385,26.47891],[94.8903,26.61076],[94.79534,26.6298],[94.7831,26.65592],[94.78517,26.69825],[94.80799,26.6917],[94.83607,26.71739],[94.79826,26.76741],[94.81844,26.77936],[94.81436,26.79124],[94.79114,26.79616],[94.8867,26.92716],[94.92864,26.94675],[94.98602,26.91272],[95.02168,26.9198],[95.11037,26.96118],[95.19587,27.03716],[95.19545,26.98411],[95.21525,26.96442],[95.23389,26.88473],[95.18455,26.85877],[95.20859,26.84459],[95.19902,26.83381],[95.21503,26.79216],[95.24476,26.78102],[95.21593,26.72899],[95.23565,26.68178],[95.2373,26.67984]]]}},{"type":"Feature","properties":{"DISTRICT":"Peren","ST_NM":"Nagaland","ST_CEN_CD":13,"DT_CEN_CD":11,"censuscode":271},"geometry":{"type":"Polygon","coordinates":[[[93.93507,25.64648],[93.93861,25.63032],[93.91594,25.60722],[93.94265,25.58846],[93.94311,25.5586],[93.83601,25.55855],[93.81923,25.5399],[93.77019,25.53589],[93.76531,25.4955],[93.80351,25.49455],[93.80842,25.46108],[93.71744,25.35722],[93.69219,25.35727],[93.60733,25.19783],[93.55415,25.24644],[93.50464,25.24013],[93.51031,25.27162],[93.47631,25.27511],[93.45156,25.34035],[93.47792,25.37599],[93.46165,25.43088],[93.39581,25.46043],[93.35237,25.53398],[93.33183,25.54328],[93.40689,25.59283],[93.4276,25.6278],[93.49996,25.65274],[93.53803,25.69936],[93.5869,25.66675],[93.62407,25.66305],[93.69906,25.6843],[93.73642,25.66419],[93.73794,25.69634],[93.76542,25.68417],[93.83892,25.69576],[93.93448,25.64562],[93.93507,25.64648]]]}},{"type":"Feature","properties":{"DISTRICT":"Phek","ST_NM":"Nagaland","ST_CEN_CD":13,"DT_CEN_CD":6,"censuscode":266},"geometry":{"type":"Polygon","coordinates":[[[94.71548,25.75764],[94.72486,25.72095],[94.74329,25.77026],[94.78847,25.77642],[94.83371,25.75243],[94.86124,25.71657],[94.85483,25.61057],[94.9033,25.56008],[94.85137,25.5564],[94.8108,25.48851],[94.77107,25.47452],[94.75503,25.4853],[94.66439,25.44888],[94.55604,25.50657],[94.55444,25.57968],[94.59394,25.63768],[94.57487,25.63858],[94.59444,25.68515],[94.57187,25.69158],[94.5042,25.61101],[94.47291,25.61574],[94.42889,25.5869],[94.4191,25.53682],[94.31241,25.48884],[94.28568,25.50616],[94.22196,25.49136],[94.18979,25.52547],[94.21835,25.68232],[94.29669,25.80921],[94.34385,25.92039],[94.37052,25.92259],[94.4422,25.88784],[94.46867,25.83062],[94.54635,25.80902],[94.54233,25.78004],[94.66306,25.77525],[94.71217,25.75706],[94.71548,25.75764]]]}},{"type":"Feature","properties":{"DISTRICT":"Tuensang","ST_NM":"Nagaland","ST_CEN_CD":13,"DT_CEN_CD":7,"censuscode":267},"geometry":{"type":"Polygon","coordinates":[[[95.07552,26.47128],[95.06586,26.44399],[95.08645,26.44556],[95.10805,26.41722],[95.1041,26.3947],[95.13501,26.38119],[95.12028,26.23189],[95.14152,26.20735],[95.117,26.16205],[95.11942,26.10277],[95.18443,26.07317],[95.10513,25.96103],[95.03538,25.9281],[95.02079,25.88058],[94.98175,25.87302],[94.94261,25.90511],[94.92859,25.94312],[94.84513,25.92551],[94.8943,25.99899],[94.85128,26.03467],[94.78854,26.00532],[94.75758,26.0212],[94.67152,26.01719],[94.70544,26.05185],[94.68869,26.11753],[94.70447,26.17205],[94.6747,26.20752],[94.6425,26.21797],[94.62253,26.19879],[94.59698,26.20499],[94.56514,26.27906],[94.65289,26.34094],[94.71742,26.44912],[94.76427,26.45519],[94.8468,26.38045],[94.90539,26.37093],[94.92169,26.38526],[94.89899,26.42212],[94.90402,26.43888],[94.93582,26.43978],[94.98798,26.48149],[95.06788,26.47183],[95.07552,26.47128]]]}},{"type":"Feature","properties":{"DISTRICT":"Wokha","ST_NM":"Nagaland","ST_CEN_CD":13,"DT_CEN_CD":4,"censuscode":264},"geometry":{"type":"Polygon","coordinates":[[[94.3168,26.4582],[94.29273,26.41837],[94.30464,26.38152],[94.33058,26.40111],[94.35941,26.3577],[94.35028,26.3327],[94.36788,26.33324],[94.35554,26.31492],[94.35992,26.2683],[94.33804,26.24186],[94.38903,26.2204],[94.37386,26.1952],[94.33764,26.17898],[94.38974,26.11464],[94.39082,26.08121],[94.35924,26.00955],[94.33966,25.99653],[94.31695,26.01789],[94.24265,26.00369],[94.2192,26.02442],[94.16892,25.97372],[94.10706,25.98534],[94.04677,25.9398],[93.98253,25.92172],[93.95489,26.0029],[93.99117,26.06818],[94.005,26.16888],[94.03593,26.19876],[94.0494,26.2458],[94.07071,26.25559],[94.10835,26.32194],[94.17578,26.33965],[94.16478,26.35559],[94.18699,26.45604],[94.28278,26.55899],[94.29428,26.47608],[94.31378,26.46028],[94.3168,26.4582]]]}},{"type":"Feature","properties":{"DISTRICT":"Zunheboto","ST_NM":"Nagaland","ST_CEN_CD":13,"DT_CEN_CD":3,"censuscode":263},"geometry":{"type":"Polygon","coordinates":[[[94.58728,26.21852],[94.60933,26.19766],[94.6425,26.21797],[94.6747,26.20752],[94.70447,26.17205],[94.68869,26.11753],[94.70544,26.05185],[94.5758,25.89214],[94.60427,25.86468],[94.61263,25.81756],[94.6831,25.80044],[94.71548,25.75764],[94.66306,25.77525],[94.54233,25.78004],[94.54635,25.80902],[94.46867,25.83062],[94.4422,25.88784],[94.35478,25.92254],[94.33744,25.94914],[94.36353,25.98698],[94.36198,26.02681],[94.39084,26.08409],[94.38659,26.12238],[94.33764,26.17898],[94.41049,26.21164],[94.44335,26.20425],[94.48827,26.28993],[94.51457,26.23459],[94.50141,26.21456],[94.5351,26.21711],[94.5504,26.20245],[94.57986,26.21364],[94.58728,26.21852]]]}}]}
