{"type":"FeatureCollection","properties":{"source":"DataMeet Community Maps Project - Districts/Census_2011","state":"Odisha","stateSlug":"odisha"},"features":[{"type":"Feature","properties":{"DISTRICT":"Anugul","ST_NM":"Odisha","ST_CEN_CD":21,"DT_CEN_CD":15,"censuscode":384},"geometry":{"type":"Polygon","coordinates":[[[85.39504,21.18471],[85.38134,21.16899],[85.34111,21.17918],[85.32101,21.16028],[85.2914,21.18066],[85.27395,21.17391],[85.23346,21.07119],[85.18654,21.08037],[85.16916,21.05749],[85.26396,20.98],[85.24493,20.95995],[85.24265,20.90719],[85.26815,20.89065],[85.24956,20.88384],[85.25705,20.79632],[85.20181,20.78794],[85.21623,20.74915],[85.19708,20.67756],[85.16829,20.65896],[85.17558,20.70049],[85.14071,20.7293],[85.1151,20.68177],[85.13702,20.63942],[85.12963,20.61525],[85.09325,20.61084],[85.06721,20.57704],[85.02715,20.58739],[84.99241,20.58258],[84.98644,20.56707],[84.89813,20.58028],[84.85163,20.52822],[84.77838,20.60196],[84.6377,20.62482],[84.57176,20.68726],[84.45725,20.7434],[84.37214,20.76284],[84.35732,20.78153],[84.35731,20.83566],[84.26758,20.88932],[84.2829,20.92713],[84.40742,20.97897],[84.43596,21.01421],[84.41068,21.03072],[84.4422,21.03455],[84.48516,21.08251],[84.53531,21.08859],[84.58932,21.06386],[84.65186,21.08437],[84.6833,21.06416],[84.67082,21.09544],[84.68562,21.14899],[84.72561,21.14927],[84.74536,21.17086],[84.80055,21.13353],[84.81918,21.1452],[84.79978,21.16684],[84.82349,21.17256],[84.92271,21.14208],[84.9344,21.18075],[84.9631,21.14865],[84.96866,21.19134],[84.94363,21.19725],[84.90185,21.2592],[84.96342,21.29861],[85.03746,21.29432],[85.01155,21.32554],[84.99599,21.41057],[85.00724,21.44294],[85.02431,21.45686],[85.06026,21.44243],[85.07751,21.45723],[85.15746,21.46038],[85.20639,21.52042],[85.21572,21.554],[85.2012,21.57899],[85.15053,21.59402],[85.17082,21.62232],[85.19151,21.624],[85.18373,21.6543],[85.21127,21.67481],[85.25123,21.67596],[85.28796,21.587],[85.31307,21.56658],[85.3019,21.53925],[85.32443,21.53148],[85.33217,21.4928],[85.30881,21.44912],[85.25935,21.45107],[85.34381,21.35882],[85.3268,21.31946],[85.31593,21.32887],[85.27479,21.30158],[85.27411,21.27508],[85.36907,21.24073],[85.395,21.18475],[85.39504,21.18471]]]}},{"type":"Feature","properties":{"DISTRICT":"Balangir","ST_NM":"Odisha","ST_CEN_CD":21,"DT_CEN_CD":24,"censuscode":393},"geometry":{"type":"Polygon","coordinates":[[[83.45929,21.05495],[83.45072,21.01914],[83.47094,20.9976],[83.57529,20.97509],[83.64114,20.98234],[83.61129,20.93337],[83.62086,20.90369],[83.57385,20.85283],[83.6256,20.82674],[83.62414,20.81601],[83.5973,20.82236],[83.59754,20.80266],[83.63623,20.79685],[83.6377,20.77179],[83.65603,20.773],[83.65339,20.7519],[83.67777,20.7422],[83.59586,20.60361],[83.60637,20.52991],[83.583,20.52368],[83.57228,20.48448],[83.66631,20.42288],[83.65537,20.36768],[83.63012,20.36856],[83.62517,20.35067],[83.5772,20.36508],[83.55687,20.40017],[83.50832,20.41543],[83.49198,20.4061],[83.48778,20.45402],[83.42355,20.40334],[83.36039,20.31502],[83.30036,20.30349],[83.23912,20.25667],[83.22643,20.20496],[83.1837,20.17278],[83.14558,20.17023],[83.1283,20.19393],[83.09101,20.19865],[83.01345,20.17044],[82.9324,20.17927],[82.90922,20.14784],[82.81782,20.16932],[82.8182,20.18839],[82.84296,20.1918],[82.85703,20.21404],[82.86242,20.27031],[82.81439,20.29512],[82.82324,20.32176],[82.85074,20.29321],[82.85501,20.33706],[82.81746,20.35858],[82.81469,20.32814],[82.79235,20.32604],[82.81735,20.38311],[82.77132,20.35475],[82.71965,20.35747],[82.73224,20.38425],[82.68673,20.45005],[82.71344,20.56696],[82.74322,20.62299],[82.72409,20.67173],[82.69632,20.68071],[82.70293,20.72569],[82.73756,20.72543],[82.74875,20.77302],[82.77593,20.80735],[82.89111,20.91021],[82.92955,20.88781],[82.96888,20.89661],[82.99345,20.84915],[83.09085,20.86119],[83.10477,20.87602],[83.13253,20.86356],[83.1943,20.89849],[83.21949,20.93503],[83.25418,20.91931],[83.28291,20.84409],[83.33305,20.88421],[83.35079,20.87643],[83.4132,20.89601],[83.41641,20.90973],[83.38336,20.9433],[83.38627,20.99319],[83.36455,21.00553],[83.33008,20.9849],[83.29698,21.01541],[83.32482,21.0554],[83.35865,21.06959],[83.39814,21.06756],[83.42779,21.03165],[83.45249,21.05013],[83.45929,21.05495]]]}},{"type":"Feature","properties":{"DISTRICT":"Baleshwar","ST_NM":"Odisha","ST_CEN_CD":21,"DT_CEN_CD":8,"censuscode":377},"geometry":{"type":"MultiPolygon","coordinates":[[[[87.19296,21.96155],[87.23939,21.95893],[87.2569,21.92241],[87.23934,21.90024],[87.27603,21.80819],[87.35648,21.79056],[87.37448,21.76494],[87.38767,21.77571],[87.44796,21.76576],[87.44721,21.73396],[87.46943,21.73128],[87.47508,21.71213],[87.4629,21.65],[87.48631,21.63096],[87.4902,21.60265],[87.43763,21.58064],[87.41008,21.54487],[87.38448,21.57289],[87.33848,21.57633],[87.37356,21.56246],[87.39656,21.53217],[87.22306,21.53524],[87.15024,21.50788],[87.08836,21.45894],[87.07016,21.46206],[87.05265,21.42871],[86.95148,21.35775],[86.86121,21.20886],[86.83408,21.20733],[86.80961,21.23],[86.77295,21.22411],[86.76034,21.19851],[86.77612,21.17109],[86.70954,21.18283],[86.67215,21.16386],[86.65611,21.10866],[86.66835,21.09642],[86.64641,21.08174],[86.64921,21.06338],[86.63162,21.06858],[86.62863,21.09321],[86.59246,21.09803],[86.55858,21.15699],[86.54008,21.1601],[86.51155,21.1372],[86.43558,21.15982],[86.444,21.17742],[86.43232,21.18354],[86.44948,21.20104],[86.43815,21.2206],[86.41737,21.20923],[86.37462,21.23132],[86.36179,21.30019],[86.48973,21.3803],[86.53489,21.42774],[86.58538,21.5208],[86.63747,21.52904],[86.65261,21.57877],[86.7545,21.60529],[86.84939,21.60489],[86.86763,21.59216],[86.88891,21.61084],[86.87867,21.63503],[86.91255,21.57931],[86.92493,21.59194],[86.95903,21.57236],[86.96058,21.59537],[86.96441,21.58154],[87.0076,21.5983],[86.9884,21.62562],[87.00613,21.6253],[87.01245,21.64781],[86.99378,21.64864],[86.98963,21.6669],[87.01552,21.67406],[87.03141,21.66026],[87.05429,21.68322],[87.02736,21.74067],[87.04826,21.73916],[87.04877,21.71056],[87.07214,21.70631],[87.09425,21.72647],[87.08773,21.73743],[87.12278,21.75475],[87.10597,21.78307],[87.146,21.76338],[87.17445,21.81029],[87.18438,21.78995],[87.17855,21.81213],[87.10561,21.85648],[87.09322,21.8997],[87.10934,21.92241],[87.16103,21.93349],[87.16516,21.96697],[87.17958,21.97073],[87.19296,21.96155]]],[[[86.88968,20.78672],[86.95498,20.7772],[86.88091,20.78504],[86.88968,20.78672]]],[[[86.99538,20.84756],[86.98891,20.86234],[86.99756,20.85265],[86.99538,20.84756]]]]}},{"type":"Feature","properties":{"DISTRICT":"Bargarh","ST_NM":"Odisha","ST_CEN_CD":21,"DT_CEN_CD":1,"censuscode":370},"geometry":{"type":"Polygon","coordinates":[[[83.79986,21.56619],[83.81527,21.53969],[83.84679,21.52729],[83.88679,21.4388],[83.84957,21.4102],[83.88093,21.39007],[83.87162,21.31059],[83.91421,21.23952],[83.89586,21.17814],[83.84482,21.09736],[83.79968,21.11599],[83.78541,21.15208],[83.77005,21.15497],[83.71813,21.12106],[83.61377,21.129],[83.5521,21.07699],[83.49771,21.06178],[83.49901,21.04165],[83.46599,21.06002],[83.42779,21.03165],[83.39814,21.06756],[83.35865,21.06959],[83.32482,21.0554],[83.29698,21.01541],[83.33008,20.9849],[83.36455,21.00553],[83.38627,20.99319],[83.38336,20.9433],[83.41641,20.90973],[83.4132,20.89601],[83.35079,20.87643],[83.33305,20.88421],[83.28291,20.84409],[83.25418,20.91931],[83.21949,20.93503],[83.1943,20.89849],[83.13253,20.86356],[83.10477,20.87602],[83.09085,20.86119],[82.99345,20.84915],[82.96888,20.89661],[82.92955,20.88781],[82.89111,20.91021],[82.77593,20.80735],[82.74875,20.77302],[82.73756,20.72543],[82.69085,20.72934],[82.69377,21.02171],[82.6392,21.09006],[82.6551,21.12801],[82.64328,21.15244],[82.75962,21.16284],[82.79618,21.14244],[82.8198,21.16172],[82.88655,21.15234],[82.96337,21.17877],[82.97244,21.15908],[83.00027,21.15763],[83.04788,21.1224],[83.12712,21.10464],[83.19735,21.13912],[83.22559,21.26351],[83.24967,21.27982],[83.27492,21.27201],[83.28178,21.28906],[83.26133,21.31571],[83.27724,21.37828],[83.38201,21.34336],[83.40984,21.35185],[83.40095,21.40275],[83.35748,21.44718],[83.34181,21.49865],[83.3741,21.55604],[83.37536,21.60002],[83.44839,21.6522],[83.44849,21.62107],[83.47012,21.60854],[83.52715,21.67266],[83.55989,21.74306],[83.69493,21.7016],[83.72721,21.63074],[83.79323,21.57394],[83.79986,21.56619]]]}},{"type":"Feature","properties":{"DISTRICT":"Bauda","ST_NM":"Odisha","ST_CEN_CD":21,"DT_CEN_CD":22,"censuscode":391},"geometry":{"type":"Polygon","coordinates":[[[84.26758,20.88932],[84.35731,20.83566],[84.35732,20.78153],[84.37214,20.76284],[84.45725,20.7434],[84.57176,20.68726],[84.6377,20.62482],[84.76393,20.60888],[84.7963,20.5603],[84.77094,20.53137],[84.74465,20.54049],[84.72064,20.52574],[84.6848,20.46295],[84.69238,20.44222],[84.67516,20.42995],[84.54697,20.422],[84.48744,20.38668],[84.4629,20.3968],[84.46548,20.44171],[84.4292,20.48345],[84.43531,20.50857],[84.39319,20.53134],[84.36076,20.67381],[84.31909,20.69443],[84.27835,20.67444],[84.28271,20.64275],[84.2215,20.58717],[84.17838,20.60457],[84.14568,20.58395],[84.0745,20.59815],[84.00699,20.56961],[83.94319,20.58253],[83.91713,20.61633],[83.91479,20.58024],[83.85838,20.57223],[83.79632,20.50969],[83.82968,20.45126],[83.81188,20.44978],[83.80971,20.43218],[83.78768,20.44313],[83.77889,20.41199],[83.72225,20.43466],[83.69548,20.4161],[83.66599,20.42301],[83.57228,20.48448],[83.583,20.52368],[83.64793,20.53743],[83.73149,20.60622],[83.71869,20.64019],[83.75943,20.71553],[83.76336,20.775],[83.7812,20.79887],[83.84516,20.82375],[83.89867,20.81607],[83.94055,20.84099],[84.05499,20.82829],[84.20625,20.89804],[84.25632,20.89489],[84.26758,20.88932]]]}},{"type":"Feature","properties":{"DISTRICT":"Bhadrak","ST_NM":"Odisha","ST_CEN_CD":21,"DT_CEN_CD":9,"censuscode":378},"geometry":{"type":"Polygon","coordinates":[[[86.86121,21.20886],[86.84318,21.15694],[86.85424,21.09583],[86.97918,20.86004],[86.97051,20.79089],[86.89215,20.79249],[86.87996,20.80817],[86.81764,20.75214],[86.79588,20.75241],[86.79803,20.73853],[86.76537,20.73575],[86.76064,20.77042],[86.71361,20.76264],[86.71086,20.77681],[86.66094,20.79858],[86.61681,20.7976],[86.62503,20.8099],[86.59692,20.85712],[86.51746,20.87127],[86.45778,20.84514],[86.39364,20.86521],[86.35512,20.8531],[86.28242,20.90643],[86.29002,21.01846],[86.30689,21.01692],[86.32656,21.05948],[86.30708,21.08755],[86.31075,21.11132],[86.27448,21.14678],[86.29308,21.17567],[86.34038,21.1796],[86.35443,21.2359],[86.41737,21.20923],[86.43815,21.2206],[86.44948,21.20104],[86.43232,21.18354],[86.444,21.17742],[86.43558,21.15982],[86.51155,21.1372],[86.54008,21.1601],[86.55858,21.15699],[86.59246,21.09803],[86.62863,21.09321],[86.64271,21.0609],[86.66835,21.09642],[86.65728,21.12796],[86.67656,21.16763],[86.70954,21.18283],[86.77612,21.17109],[86.76034,21.19851],[86.77295,21.22411],[86.80961,21.23],[86.83408,21.20733],[86.86118,21.20886],[86.86121,21.20886]]]}},{"type":"Feature","properties":{"DISTRICT":"Cuttack","ST_NM":"Odisha","ST_CEN_CD":21,"DT_CEN_CD":12,"censuscode":381},"geometry":{"type":"MultiPolygon","coordinates":[[[[85.96567,20.67292],[86.04873,20.58977],[86.17614,20.64477],[86.18159,20.65891],[86.19643,20.64586],[86.16981,20.63702],[86.18934,20.62379],[86.21031,20.63314],[86.21437,20.61759],[86.28387,20.58394],[86.25308,20.53838],[86.27788,20.51727],[86.26839,20.45093],[86.28109,20.39729],[86.25504,20.36654],[86.20208,20.36323],[86.17552,20.37767],[86.13718,20.35698],[86.02775,20.40129],[86.01512,20.38118],[86.0359,20.34004],[86.03286,20.29681],[86.06955,20.27158],[86.07939,20.2456],[86.15152,20.22203],[86.14684,20.14604],[86.16718,20.11189],[86.15748,20.09398],[86.1895,20.05345],[86.1708,20.04106],[86.12223,20.04217],[86.12842,20.06017],[86.08205,20.06869],[86.08522,20.10436],[86.03633,20.14332],[86.05487,20.16512],[86.04295,20.18009],[86.02784,20.1708],[86.00782,20.22411],[85.9341,20.27262],[85.91443,20.31707],[85.93177,20.31157],[85.92897,20.32838],[85.90049,20.36753],[85.8704,20.33575],[85.89223,20.31245],[85.88462,20.28704],[85.80246,20.3208],[85.83087,20.40385],[85.80752,20.43364],[85.78739,20.4328],[85.77365,20.40315],[85.71584,20.39932],[85.67898,20.32428],[85.64401,20.32294],[85.62675,20.29202],[85.55313,20.31313],[85.52303,20.29335],[85.46152,20.29452],[85.45469,20.26655],[85.42195,20.27224],[85.40832,20.25611],[85.38292,20.28561],[85.33708,20.27215],[85.37136,20.36629],[85.27821,20.35775],[85.16049,20.37822],[84.9456,20.49227],[84.88491,20.49912],[84.85163,20.52822],[84.89813,20.58028],[84.98644,20.56707],[84.99241,20.58258],[85.02715,20.58739],[85.06721,20.57704],[85.09325,20.61084],[85.12959,20.61527],[85.20946,20.57502],[85.21312,20.54781],[85.2525,20.51816],[85.40301,20.48607],[85.40685,20.51003],[85.45824,20.48518],[85.51185,20.53545],[85.58966,20.51215],[85.59989,20.53613],[85.65895,20.5499],[85.7108,20.60496],[85.70899,20.62675],[85.72977,20.64524],[85.75764,20.63492],[85.76724,20.66027],[85.79215,20.67255],[85.88436,20.65794],[85.92205,20.6995],[85.96265,20.67985],[85.96567,20.67292]]],[[[86.38937,19.96351],[86.38435,19.97865],[86.42634,20.01042],[86.3903,19.9655],[86.38937,19.96351]]],[[[86.43225,20.02324],[86.43342,20.03839],[86.43271,20.02349],[86.43225,20.02324]]]]}},{"type":"Feature","properties":{"DISTRICT":"Debagarh","ST_NM":"Odisha","ST_CEN_CD":21,"DT_CEN_CD":4,"censuscode":373},"geometry":{"type":"Polygon","coordinates":[[[84.67989,21.7345],[84.69795,21.70666],[84.72064,21.71493],[84.74913,21.68143],[84.75929,21.62466],[84.79339,21.63184],[84.79323,21.66838],[84.86591,21.65235],[85.0004,21.68199],[85.02773,21.67153],[85.05199,21.58888],[85.08815,21.60339],[85.18669,21.58872],[85.21551,21.55574],[85.20639,21.52042],[85.15746,21.46038],[85.07751,21.45723],[85.06026,21.44243],[85.02431,21.45686],[85.00421,21.43965],[84.99599,21.41057],[85.01322,21.31766],[85.03746,21.29432],[84.96342,21.29861],[84.90185,21.2592],[84.94363,21.19725],[84.96866,21.19134],[84.9631,21.14865],[84.95018,21.1757],[84.93043,21.18101],[84.93654,21.15695],[84.92271,21.14208],[84.82349,21.17256],[84.79978,21.16684],[84.81918,21.1452],[84.79547,21.13556],[84.7642,21.15012],[84.72224,21.2058],[84.74419,21.23199],[84.76129,21.22436],[84.77241,21.25218],[84.7173,21.31496],[84.6726,21.31526],[84.63249,21.27553],[84.57104,21.25108],[84.57021,21.32071],[84.54918,21.37189],[84.49133,21.36764],[84.49139,21.47334],[84.47952,21.48014],[84.50219,21.49576],[84.4852,21.51109],[84.51165,21.55929],[84.54478,21.56962],[84.53997,21.5786],[84.575,21.57239],[84.5276,21.62262],[84.49148,21.6377],[84.50162,21.67202],[84.51344,21.68345],[84.54478,21.67672],[84.57042,21.69859],[84.62774,21.69472],[84.63898,21.73692],[84.67732,21.73408],[84.67989,21.7345]],[[84.882,21.17433],[84.87719,21.18339],[84.87952,21.17315],[84.882,21.17433]]]}},{"type":"Feature","properties":{"DISTRICT":"Dhenkanal","ST_NM":"Odisha","ST_CEN_CD":21,"DT_CEN_CD":14,"censuscode":383},"geometry":{"type":"MultiPolygon","coordinates":[[[[85.68745,21.18527],[85.71051,21.18148],[85.72857,21.1433],[85.7007,21.13904],[85.68508,21.11782],[85.70607,21.07397],[85.73059,21.06304],[85.72448,20.98322],[85.77963,20.98161],[85.82794,20.92611],[85.92013,20.92732],[85.90152,20.84661],[86.03386,20.80881],[86.02605,20.72612],[85.98565,20.7352],[85.9087,20.71233],[85.9103,20.68287],[85.88436,20.65794],[85.79215,20.67255],[85.76724,20.66027],[85.75764,20.63492],[85.72977,20.64524],[85.65895,20.5499],[85.59989,20.53613],[85.58966,20.51215],[85.51185,20.53545],[85.45824,20.48518],[85.40685,20.51003],[85.40301,20.48607],[85.24702,20.52055],[85.20203,20.56381],[85.20946,20.57502],[85.12963,20.61525],[85.13702,20.63942],[85.1151,20.68177],[85.1538,20.73133],[85.17558,20.70049],[85.16829,20.65896],[85.19708,20.67756],[85.21623,20.74915],[85.19928,20.78333],[85.25705,20.79632],[85.24956,20.88384],[85.26815,20.89065],[85.24265,20.90719],[85.24493,20.95995],[85.26396,20.98],[85.22993,21.01672],[85.17335,21.04419],[85.18007,21.07562],[85.23346,21.07119],[85.24438,21.12403],[85.26898,21.16985],[85.2914,21.18066],[85.32101,21.16028],[85.34111,21.17918],[85.38134,21.16899],[85.39504,21.18471],[85.49785,21.11334],[85.54872,21.16633],[85.61113,21.13711],[85.68447,21.18534],[85.68745,21.18527]]]]}},{"type":"Feature","properties":{"DISTRICT":"Gajapati","ST_NM":"Odisha","ST_CEN_CD":21,"DT_CEN_CD":20,"censuscode":389},"geometry":{"type":"Polygon","coordinates":[[[84.24107,19.57525],[84.25685,19.49694],[84.30496,19.49547],[84.32475,19.55592],[84.37223,19.54598],[84.37483,19.48332],[84.40729,19.44486],[84.38261,19.3809],[84.44078,19.36254],[84.41619,19.33332],[84.42839,19.29822],[84.41088,19.22515],[84.39826,19.20026],[84.36084,19.18557],[84.3908,19.14068],[84.37764,19.14033],[84.38252,19.08866],[84.35089,19.02226],[84.38248,18.99001],[84.4018,19.00496],[84.44203,18.98575],[84.42294,18.94703],[84.43673,18.92273],[84.4052,18.8952],[84.37271,18.90529],[84.39502,18.88676],[84.35885,18.89225],[84.37898,18.87632],[84.36983,18.86019],[84.34344,18.87578],[84.35154,18.82113],[84.31633,18.78766],[84.2914,18.8],[84.25971,18.78167],[84.22423,18.7964],[84.0894,18.75373],[84.03469,18.81112],[83.94746,18.80544],[83.90967,18.82569],[83.89458,18.81418],[83.84479,18.87331],[83.84539,18.91711],[83.82461,18.91789],[83.80168,19.02769],[83.81806,19.02912],[83.86291,18.9793],[83.89791,18.98352],[83.91344,19.01738],[83.95868,18.98603],[83.98791,19.02038],[83.96528,19.04444],[83.97157,19.06548],[84.03044,19.05765],[84.01354,19.09343],[84.01494,19.12768],[84.03055,19.13644],[83.98459,19.16141],[83.99833,19.18797],[83.98298,19.2089],[84.01101,19.25143],[84.03002,19.34535],[84.01732,19.37408],[83.94704,19.39754],[83.94418,19.41979],[83.97865,19.48549],[83.96081,19.49986],[83.9772,19.53027],[83.944,19.5499],[83.92722,19.63029],[84.01124,19.61758],[84.02886,19.63242],[84.06118,19.63015],[84.09064,19.61657],[84.09274,19.62894],[84.12763,19.6329],[84.15781,19.58142],[84.20504,19.59051],[84.23883,19.57176],[84.24107,19.57525]]]}},{"type":"Feature","properties":{"DISTRICT":"Ganjam","ST_NM":"Odisha","ST_CEN_CD":21,"DT_CEN_CD":19,"censuscode":388},"geometry":{"type":"Polygon","coordinates":[[[84.94043,19.89703],[84.93627,19.87246],[84.9724,19.85281],[84.98433,19.82427],[85.00968,19.80261],[85.0773,19.79146],[85.18436,19.67715],[85.17732,19.55762],[85.1371,19.52088],[85.17797,19.46377],[85.09967,19.4034],[85.09007,19.37748],[84.89002,19.24364],[84.80875,19.15328],[84.76858,19.08002],[84.70464,19.11767],[84.71229,19.15779],[84.6721,19.16547],[84.66828,19.13066],[84.599,19.13259],[84.62697,19.08538],[84.66129,19.0899],[84.67171,19.07522],[84.66165,19.06126],[84.61988,19.06374],[84.59488,19.02196],[84.57332,19.07389],[84.49666,19.02983],[84.47894,18.99017],[84.42244,19.02269],[84.42949,18.98384],[84.4018,19.00496],[84.38248,18.99001],[84.35089,19.02226],[84.38252,19.08866],[84.37764,19.14033],[84.3908,19.14068],[84.36084,19.18557],[84.39826,19.20026],[84.41088,19.22515],[84.42839,19.29822],[84.41619,19.33332],[84.44078,19.36254],[84.38261,19.3809],[84.40729,19.44486],[84.37483,19.48332],[84.37223,19.54598],[84.32475,19.55592],[84.30496,19.49547],[84.25328,19.50054],[84.25137,19.57164],[84.22722,19.62575],[84.24705,19.64188],[84.24087,19.66047],[84.18974,19.70291],[84.20342,19.7304],[84.15844,19.7229],[84.13285,19.77985],[84.17437,19.79226],[84.17411,19.81963],[84.20211,19.83467],[84.18526,19.8597],[84.27812,19.87821],[84.30789,19.90559],[84.34445,19.86087],[84.44584,19.83039],[84.46282,19.85896],[84.46558,19.95242],[84.39318,19.95509],[84.35945,19.9877],[84.33653,19.97742],[84.32457,19.98781],[84.35623,20.03637],[84.41552,20.05378],[84.40103,20.07666],[84.44076,20.15057],[84.43556,20.2024],[84.45368,20.19898],[84.4533,20.1697],[84.48613,20.14282],[84.51791,20.15503],[84.56443,20.14078],[84.55905,20.1611],[84.58716,20.17389],[84.58474,20.1909],[84.60051,20.17763],[84.6338,20.19376],[84.67363,20.27345],[84.69674,20.28144],[84.74392,20.24503],[84.83486,20.21692],[84.82217,20.12279],[84.79929,20.09447],[84.8569,20.03027],[84.86305,20.00033],[84.90215,19.993],[84.92411,19.94134],[84.9068,19.91116],[84.94043,19.89707],[84.94043,19.89703]]]}},{"type":"Feature","properties":{"DISTRICT":"Jagatsinghapur","ST_NM":"Odisha","ST_CEN_CD":21,"DT_CEN_CD":11,"censuscode":380},"geometry":{"type":"Polygon","coordinates":[[[86.25504,20.36654],[86.32256,20.35597],[86.34442,20.37022],[86.35338,20.35355],[86.39851,20.36847],[86.45713,20.33345],[86.52934,20.34348],[86.55157,20.32722],[86.61252,20.34396],[86.65947,20.33441],[86.69904,20.30043],[86.77784,20.34381],[86.78567,20.32878],[86.54267,20.18367],[86.47982,20.09167],[86.42901,20.05281],[86.40365,20.00197],[86.38343,20.00203],[86.37855,19.9823],[86.35665,19.97419],[86.317,20.02818],[86.27345,20.04423],[86.27889,20.05712],[86.24814,20.03871],[86.20983,20.03969],[86.17086,20.07364],[86.14684,20.14604],[86.15152,20.22203],[86.07939,20.2456],[86.06955,20.27158],[86.03286,20.29681],[86.0359,20.34004],[86.01512,20.38118],[86.02775,20.40129],[86.13718,20.35698],[86.17552,20.37767],[86.24811,20.36444],[86.25504,20.36654]]]}},{"type":"Feature","properties":{"DISTRICT":"Jajapur","ST_NM":"Odisha","ST_CEN_CD":21,"DT_CEN_CD":13,"censuscode":382},"geometry":{"type":"Polygon","coordinates":[[[86.29002,21.01846],[86.28242,20.90643],[86.33521,20.87913],[86.32972,20.86549],[86.35512,20.8531],[86.40176,20.86386],[86.45262,20.84474],[86.49842,20.86846],[86.57024,20.86579],[86.59692,20.85712],[86.62572,20.79053],[86.60977,20.7731],[86.56688,20.77508],[86.54459,20.75395],[86.54293,20.73414],[86.56277,20.73953],[86.54728,20.69546],[86.47078,20.68774],[86.45544,20.67625],[86.45672,20.65032],[86.3754,20.59461],[86.33371,20.6101],[86.3264,20.63122],[86.3231,20.58652],[86.27388,20.58353],[86.21031,20.63314],[86.18934,20.62379],[86.16981,20.63702],[86.19643,20.64586],[86.18159,20.65891],[86.17614,20.64477],[86.04873,20.58977],[85.98162,20.66446],[85.90716,20.70737],[85.98565,20.7352],[86.02605,20.72612],[86.03386,20.80881],[85.90152,20.84661],[85.92013,20.92732],[85.82794,20.92611],[85.77963,20.98161],[85.72448,20.98322],[85.73059,21.06304],[85.70607,21.07397],[85.68508,21.11782],[85.7007,21.13904],[85.75801,21.14888],[85.77583,21.10382],[85.88768,21.08609],[85.91888,21.09405],[85.93501,21.13608],[86.02385,21.13725],[86.03883,21.15652],[86.08718,21.16795],[86.0287,21.07302],[86.04833,21.02399],[86.08967,21.01816],[86.09585,21.0507],[86.13495,21.07409],[86.28093,21.02351],[86.29002,21.01846]]]}},{"type":"Feature","properties":{"DISTRICT":"Jharsuguda","ST_NM":"Odisha","ST_CEN_CD":21,"DT_CEN_CD":2,"censuscode":371},"geometry":{"type":"Polygon","coordinates":[[[83.79986,21.56619],[83.72721,21.63074],[83.69493,21.7016],[83.65643,21.72003],[83.55989,21.74306],[83.50981,21.65612],[83.49021,21.64259],[83.44792,21.65809],[83.42828,21.68939],[83.46349,21.69718],[83.48517,21.73082],[83.47432,21.78547],[83.49807,21.81724],[83.54369,21.79671],[83.53838,21.83461],[83.59289,21.82558],[83.62962,21.84831],[83.64319,21.81663],[83.72189,21.78639],[83.78255,21.85629],[83.80064,21.86888],[83.81438,21.85522],[83.81656,21.88315],[83.82993,21.87802],[83.86502,21.91063],[83.85438,21.92266],[83.88069,21.92393],[83.89676,21.94627],[83.96126,21.94132],[83.981,21.90628],[84.02926,21.9528],[84.0787,21.93716],[84.08945,21.96704],[84.07289,21.98965],[84.11011,21.99328],[84.12131,22.01106],[84.2332,21.97494],[84.29954,22.03367],[84.38922,22.02409],[84.39329,21.99229],[84.28652,21.762],[84.19016,21.75421],[84.11524,21.78896],[84.0387,21.75908],[84.01498,21.78614],[83.99086,21.75179],[83.96989,21.76569],[83.9442,21.7276],[83.9732,21.7087],[83.97367,21.57748],[83.89422,21.57367],[83.82345,21.59417],[83.8002,21.5664],[83.79986,21.56619]]]}},{"type":"Feature","properties":{"DISTRICT":"Kalahandi","ST_NM":"Odisha","ST_CEN_CD":21,"DT_CEN_CD":26,"censuscode":395},"geometry":{"type":"Polygon","coordinates":[[[83.65261,20.38939],[83.70572,20.37031],[83.72046,20.23894],[83.74139,20.22438],[83.73231,20.21307],[83.78622,20.21256],[83.79078,20.18073],[83.73414,20.1493],[83.711,20.10243],[83.67815,20.11259],[83.63566,20.08989],[83.58413,20.11467],[83.56804,20.05671],[83.50629,19.99676],[83.49617,19.95958],[83.45229,19.97252],[83.44294,19.93319],[83.40861,19.92335],[83.43909,19.80658],[83.45937,19.79675],[83.4558,19.74],[83.43091,19.69811],[83.38625,19.66703],[83.37337,19.59818],[83.26756,19.60091],[83.24814,19.50822],[83.22854,19.50328],[83.20531,19.46349],[83.21818,19.43542],[83.18808,19.46385],[83.183,19.42421],[83.15518,19.45706],[83.14744,19.49994],[83.10951,19.50904],[83.10502,19.54253],[83.08914,19.54],[83.07047,19.56224],[83.03899,19.55255],[83.02699,19.51237],[82.99377,19.49005],[82.99177,19.44731],[82.96052,19.43707],[82.93941,19.44974],[82.92457,19.4352],[82.953,19.39057],[82.95752,19.32493],[82.90492,19.28513],[82.8862,19.18991],[82.85038,19.20597],[82.83903,19.23493],[82.81025,19.23031],[82.84929,19.32337],[82.78119,19.34381],[82.75729,19.32799],[82.74303,19.34915],[82.72754,19.34625],[82.70945,19.4186],[82.69361,19.41698],[82.63406,19.48235],[82.64278,19.51058],[82.60834,19.52025],[82.61699,19.53838],[82.56908,19.54296],[82.55921,19.57931],[82.5312,19.58422],[82.54992,19.60978],[82.52809,19.62998],[82.55745,19.64416],[82.57841,19.67999],[82.56407,19.72649],[82.6032,19.74641],[82.59271,19.77649],[82.63062,19.79476],[82.65337,19.83078],[82.70607,19.83232],[82.71863,19.854],[82.72511,19.87621],[82.70802,19.91192],[82.71851,19.98844],[82.70482,19.99784],[82.73866,20.02429],[82.73923,20.05214],[82.79037,20.10157],[82.81529,20.10175],[82.82503,20.1655],[82.90922,20.14784],[82.9324,20.17927],[83.01345,20.17044],[83.09101,20.19865],[83.1283,20.19393],[83.14558,20.17023],[83.1837,20.17278],[83.22643,20.20496],[83.23912,20.25667],[83.30036,20.30349],[83.36039,20.31502],[83.42355,20.40334],[83.48778,20.45402],[83.49198,20.4061],[83.50832,20.41543],[83.55687,20.40017],[83.5772,20.36508],[83.62517,20.35067],[83.63012,20.36856],[83.65537,20.36768],[83.65012,20.38825],[83.65261,20.38939]]]}},{"type":"Feature","properties":{"DISTRICT":"Kandhamal","ST_NM":"Odisha","ST_CEN_CD":21,"DT_CEN_CD":21,"censuscode":390},"geometry":{"type":"Polygon","coordinates":[[[84.51286,20.39809],[84.5198,20.37247],[84.48754,20.34233],[84.51301,20.34007],[84.51647,20.3208],[84.54402,20.32678],[84.54747,20.24447],[84.58716,20.17389],[84.55905,20.1611],[84.56443,20.14078],[84.51791,20.15503],[84.48613,20.14282],[84.43755,20.20589],[84.44076,20.15057],[84.40103,20.07666],[84.41552,20.05378],[84.35623,20.03637],[84.32457,19.98781],[84.33653,19.97742],[84.35945,19.9877],[84.39318,19.95509],[84.46558,19.95242],[84.45102,19.83507],[84.38317,19.84165],[84.32131,19.87679],[84.30789,19.90559],[84.27812,19.87821],[84.18526,19.8597],[84.20211,19.83467],[84.17411,19.81963],[84.17437,19.79226],[84.13285,19.77985],[84.15844,19.7229],[84.20342,19.7304],[84.18974,19.70291],[84.24087,19.66047],[84.24705,19.64188],[84.22722,19.62575],[84.23883,19.57176],[84.20504,19.59051],[84.15781,19.58142],[84.12763,19.6329],[84.09274,19.62894],[84.09064,19.61657],[84.02886,19.63242],[84.01124,19.61758],[83.97615,19.62055],[83.9432,19.63505],[83.93272,19.67681],[83.874,19.67408],[83.84354,19.70959],[83.81404,19.71696],[83.7691,19.71294],[83.74053,19.6545],[83.69469,19.68825],[83.65522,19.65929],[83.64106,19.66648],[83.64487,19.70362],[83.61001,19.75482],[83.61954,19.81501],[83.52904,19.85765],[83.56256,19.92865],[83.49617,19.95958],[83.50629,19.99676],[83.56804,20.05671],[83.58413,20.11467],[83.63566,20.08989],[83.67815,20.11259],[83.711,20.10243],[83.73414,20.1493],[83.79078,20.18073],[83.78622,20.21256],[83.73231,20.21307],[83.74139,20.22438],[83.72046,20.23894],[83.70572,20.37031],[83.65261,20.38939],[83.66599,20.42301],[83.69548,20.4161],[83.72225,20.43466],[83.77889,20.41199],[83.78768,20.44313],[83.81287,20.43329],[83.81188,20.44978],[83.82968,20.45126],[83.79632,20.50969],[83.85838,20.57223],[83.91479,20.58024],[83.91713,20.61633],[83.94319,20.58253],[84.00699,20.56961],[84.0745,20.59815],[84.14568,20.58395],[84.17838,20.60457],[84.2215,20.58717],[84.28271,20.64275],[84.27835,20.67444],[84.31909,20.69443],[84.36076,20.67381],[84.39319,20.53134],[84.43531,20.50857],[84.4292,20.48345],[84.46548,20.44171],[84.4629,20.3968],[84.48744,20.38668],[84.50906,20.39871],[84.51286,20.39809]]]}},{"type":"Feature","properties":{"DISTRICT":"Kendrapara","ST_NM":"Odisha","ST_CEN_CD":21,"DT_CEN_CD":10,"censuscode":379},"geometry":{"type":"MultiPolygon","coordinates":[[[[86.66533,20.79397],[86.71086,20.77681],[86.71361,20.76264],[86.76064,20.77042],[86.76272,20.73749],[86.81319,20.72966],[86.8572,20.77266],[86.90473,20.76181],[86.98706,20.77188],[87.00658,20.71308],[86.90321,20.70962],[86.96894,20.70597],[86.96582,20.68845],[87.05614,20.71074],[86.82275,20.55639],[86.76968,20.5053],[86.75454,20.5171],[86.7515,20.47355],[86.72565,20.47944],[86.73858,20.46029],[86.73319,20.41053],[86.71205,20.39538],[86.72711,20.37733],[86.73866,20.39626],[86.7462,20.37797],[86.77652,20.3894],[86.78156,20.34708],[86.72428,20.30564],[86.69904,20.30043],[86.65947,20.33441],[86.61252,20.34396],[86.55157,20.32722],[86.52934,20.34348],[86.45713,20.33345],[86.39851,20.36847],[86.35338,20.35355],[86.34442,20.37022],[86.32256,20.35597],[86.25504,20.36654],[86.28109,20.39729],[86.26839,20.45093],[86.27788,20.51727],[86.25308,20.53838],[86.27332,20.55925],[86.26019,20.56284],[86.28387,20.58394],[86.3231,20.58652],[86.3264,20.63122],[86.33371,20.6101],[86.38517,20.59861],[86.40626,20.62625],[86.45672,20.65032],[86.45544,20.67625],[86.47078,20.68774],[86.54728,20.69546],[86.56277,20.73953],[86.54293,20.73414],[86.54459,20.75395],[86.56688,20.77508],[86.60977,20.7731],[86.62548,20.79672],[86.66094,20.79858],[86.66533,20.79397]]],[[[86.7951,20.39626],[86.80016,20.49109],[86.81194,20.45391],[86.79676,20.39867],[86.7951,20.39626]]],[[[86.80741,20.36946],[86.80814,20.39796],[86.80865,20.37032],[86.80741,20.36946]]],[[[87.076,20.77486],[87.07629,20.79429],[87.07674,20.77549],[87.076,20.77486]]],[[[87.07583,20.74702],[87.07533,20.73052],[87.07451,20.74686],[87.07583,20.74702]]],[[[86.79068,20.35865],[86.79611,20.37359],[86.79592,20.3631],[86.79068,20.35865]]]]}},{"type":"Feature","properties":{"DISTRICT":"Kendujhar","ST_NM":"Odisha","ST_CEN_CD":21,"DT_CEN_CD":6,"censuscode":375},"geometry":{"type":"Polygon","coordinates":[[[85.67791,22.05538],[85.66399,22.03252],[85.67182,22.01307],[85.70384,22.00726],[85.70546,21.98565],[85.73975,21.99316],[85.79474,21.95401],[85.81106,21.81199],[85.88318,21.79401],[85.90643,21.76736],[85.9719,21.73956],[86.01817,21.74485],[86.02828,21.69198],[86.05138,21.71405],[86.06106,21.68821],[86.0822,21.68951],[86.0806,21.62888],[86.01022,21.53223],[86.12147,21.4772],[86.16184,21.42459],[86.09418,21.31139],[86.12071,21.2719],[86.13861,21.26589],[86.15999,21.29221],[86.19038,21.27324],[86.21055,21.28284],[86.27005,21.37913],[86.35859,21.31965],[86.37533,21.24918],[86.35321,21.23461],[86.35069,21.19181],[86.31451,21.1706],[86.29308,21.17567],[86.27448,21.14678],[86.31075,21.11132],[86.30708,21.08755],[86.32527,21.06616],[86.30689,21.01692],[86.13495,21.07409],[86.09585,21.0507],[86.08967,21.01816],[86.04833,21.02399],[86.0287,21.07302],[86.08718,21.16795],[86.03883,21.15652],[86.02385,21.13725],[85.93501,21.13608],[85.91888,21.09405],[85.88768,21.08609],[85.77583,21.10382],[85.76389,21.14612],[85.73677,21.13861],[85.71051,21.18148],[85.68745,21.18527],[85.61113,21.13711],[85.54872,21.16633],[85.49785,21.11334],[85.39504,21.18471],[85.36907,21.24073],[85.27411,21.27508],[85.27479,21.30158],[85.31593,21.32887],[85.3268,21.31946],[85.34381,21.35882],[85.25935,21.45107],[85.30881,21.44912],[85.33341,21.47955],[85.32916,21.50996],[85.32443,21.53148],[85.30446,21.53173],[85.31384,21.56468],[85.28796,21.587],[85.25123,21.67596],[85.21127,21.67481],[85.19751,21.65997],[85.18699,21.70807],[85.21555,21.74108],[85.20465,21.76803],[85.23093,21.82213],[85.24408,21.80359],[85.28567,21.83593],[85.31746,21.81872],[85.34374,21.82731],[85.37725,21.90969],[85.36902,21.94],[85.27967,21.95703],[85.23359,22.00069],[85.30633,22.11067],[85.32924,22.12858],[85.36758,22.12507],[85.36941,22.15814],[85.41647,22.15967],[85.5456,22.09037],[85.59712,22.07827],[85.65061,22.09412],[85.67832,22.06361],[85.67791,22.05538]]]}},{"type":"Feature","properties":{"DISTRICT":"Khordha","ST_NM":"Odisha","ST_CEN_CD":21,"DT_CEN_CD":17,"censuscode":386},"geometry":{"type":"Polygon","coordinates":[[[86.08268,20.10635],[86.02089,20.10158],[86.00781,20.11619],[85.92735,20.11398],[85.9047,20.12804],[85.88559,20.11002],[85.87551,20.12229],[85.90222,20.14469],[85.8894,20.17639],[85.85381,20.19353],[85.84548,20.17472],[85.84055,20.1957],[85.82722,20.15841],[85.79678,20.15085],[85.76561,20.1666],[85.7227,20.12961],[85.69423,20.15177],[85.6779,20.12295],[85.69249,20.09507],[85.68028,20.07153],[85.65354,20.06555],[85.65242,20.09632],[85.63348,20.09998],[85.64639,20.08284],[85.62054,20.05871],[85.63126,20.02454],[85.61789,19.99129],[85.61766,20.01806],[85.59479,19.99492],[85.57293,20.02379],[85.56535,19.94948],[85.53168,19.97731],[85.50254,19.94546],[85.5198,19.94188],[85.51038,19.92577],[85.52881,19.94109],[85.5669,19.91677],[85.56479,19.85458],[85.55253,19.85899],[85.56129,19.8732],[85.53135,19.88747],[85.40683,19.88569],[85.38488,19.84547],[85.34423,19.8279],[85.32809,19.80089],[85.25502,19.78354],[85.24189,19.74124],[85.21973,19.74561],[85.19543,19.71768],[85.20607,19.6843],[85.18447,19.67549],[85.0773,19.79146],[85.00968,19.80261],[84.9724,19.85281],[84.93627,19.87246],[84.94043,19.89703],[85.02892,19.90326],[85.09851,19.93051],[85.12798,19.93326],[85.16732,19.9045],[85.24544,19.90545],[85.33191,19.92564],[85.36366,19.95816],[85.42153,19.92691],[85.45727,19.97307],[85.44092,19.99427],[85.41691,19.99496],[85.43515,20.02704],[85.41513,20.0206],[85.38098,20.0715],[85.41452,20.12751],[85.38469,20.15582],[85.3563,20.14516],[85.37038,20.17777],[85.3518,20.18828],[85.24102,20.11448],[85.20587,20.15453],[85.20152,20.19019],[85.21627,20.2135],[85.32417,20.23085],[85.34312,20.25106],[85.32743,20.25373],[85.33508,20.28034],[85.38292,20.28561],[85.40832,20.25611],[85.42195,20.27224],[85.45469,20.26655],[85.46152,20.29452],[85.52303,20.29335],[85.55313,20.31313],[85.62675,20.29202],[85.64401,20.32294],[85.67898,20.32428],[85.71584,20.39932],[85.78736,20.40951],[85.78739,20.4328],[85.80752,20.43364],[85.83087,20.40385],[85.80246,20.3208],[85.88462,20.28704],[85.89223,20.31245],[85.8704,20.33575],[85.90049,20.36753],[85.92897,20.32838],[85.93177,20.31157],[85.91443,20.31707],[85.9341,20.27262],[86.00782,20.22411],[86.02784,20.1708],[86.04295,20.18009],[86.05487,20.16512],[86.03984,20.13517],[86.07816,20.11201],[86.08268,20.10635]]]}},{"type":"Feature","properties":{"DISTRICT":"Koraput","ST_NM":"Odisha","ST_CEN_CD":21,"DT_CEN_CD":29,"censuscode":398},"geometry":{"type":"Polygon","coordinates":[[[82.22658,19.21901],[82.24198,19.22659],[82.29456,19.19144],[82.32259,19.19724],[82.32779,19.21819],[82.37385,19.19845],[82.39695,19.2091],[82.43618,19.17081],[82.57363,19.21147],[82.63745,19.14836],[82.63933,19.17532],[82.67957,19.19591],[82.72387,19.17343],[82.72369,19.15975],[82.74176,19.15987],[82.75645,19.18329],[82.80175,19.14947],[82.81824,19.17038],[82.82984,19.14793],[82.82869,19.18019],[82.86351,19.2061],[82.90468,19.1587],[82.9505,19.15476],[82.97953,19.17365],[82.98404,19.13315],[83.03087,19.0805],[83.02307,19.06422],[83.06375,19.04419],[83.10433,19.11185],[83.13086,19.09366],[83.13757,19.13669],[83.16102,19.12324],[83.18404,19.14442],[83.169,19.12132],[83.18125,19.11224],[83.20058,19.13267],[83.18968,19.14595],[83.20465,19.14949],[83.20217,19.16699],[83.2599,19.16417],[83.2441,19.12649],[83.20767,19.13032],[83.17718,19.09158],[83.19494,19.07485],[83.19023,19.01489],[83.20402,18.97787],[83.24154,18.97264],[83.23881,19.0233],[83.26697,19.04968],[83.281,19.12201],[83.31944,19.11335],[83.34107,19.10138],[83.34658,19.0513],[83.36432,19.04621],[83.33905,18.99788],[83.31218,18.99478],[83.34031,18.95127],[83.32778,18.93375],[83.34693,18.92417],[83.35286,18.96419],[83.36892,18.96132],[83.38809,18.93129],[83.35688,18.94179],[83.35804,18.92391],[83.39176,18.90775],[83.38176,18.89398],[83.4186,18.86495],[83.4042,18.83891],[83.38073,18.82941],[83.36679,18.84017],[83.33096,18.80647],[83.28745,18.79777],[83.27407,18.76522],[83.22738,18.77396],[83.21307,18.72409],[83.19202,18.73367],[83.17185,18.72185],[83.17319,18.70092],[83.15494,18.70089],[83.14704,18.66905],[83.09214,18.664],[83.08387,18.61178],[83.05776,18.62215],[83.04921,18.60502],[83.06207,18.59479],[83.03499,18.57629],[83.04062,18.55627],[83.09664,18.54123],[83.02362,18.45299],[83.04551,18.44345],[83.04566,18.42759],[83.06803,18.43728],[83.06444,18.38601],[83.04521,18.37858],[83.02542,18.3932],[82.98471,18.36362],[82.91104,18.36452],[82.89318,18.38717],[82.89287,18.42123],[82.85317,18.4182],[82.80742,18.44772],[82.78448,18.42802],[82.80157,18.40338],[82.77538,18.33958],[82.66719,18.29506],[82.65369,18.24898],[82.63528,18.23728],[82.58912,18.2785],[82.5993,18.30031],[82.58479,18.31512],[82.61049,18.32558],[82.60484,18.34914],[82.61961,18.35473],[82.60733,18.37983],[82.54061,18.40154],[82.56205,18.44567],[82.53844,18.4423],[82.5244,18.46382],[82.53138,18.51178],[82.4897,18.52284],[82.48984,18.5462],[82.43736,18.49279],[82.40694,18.51755],[82.41038,18.55392],[82.44068,18.56452],[82.44728,18.59937],[82.41035,18.59502],[82.36552,18.62328],[82.31498,18.5782],[82.26501,18.58787],[82.2329,18.62479],[82.22526,18.66886],[82.192,18.63072],[82.17606,18.63307],[82.16123,18.66889],[82.14837,18.65944],[82.13544,18.67587],[82.14745,18.69194],[82.12728,18.70738],[82.13022,18.72275],[82.09292,18.73929],[82.0928,18.76519],[82.13717,18.7645],[82.16923,18.79777],[82.16624,18.87612],[82.18077,18.90193],[82.24758,18.91715],[82.23303,19.02105],[82.20205,19.06657],[82.22005,19.09685],[82.20647,19.10045],[82.20766,19.12371],[82.18415,19.13126],[82.17774,19.11907],[82.1677,19.13265],[82.1827,19.15138],[82.17205,19.16076],[82.18669,19.165],[82.16902,19.21445],[82.21667,19.23955],[82.22634,19.22186],[82.22658,19.21901]]]}},{"type":"Feature","properties":{"DISTRICT":"Malkangiri","ST_NM":"Odisha","ST_CEN_CD":21,"DT_CEN_CD":30,"censuscode":399},"geometry":{"type":"Polygon","coordinates":[[[82.43736,18.49279],[82.3696,18.41774],[82.39276,18.37706],[82.3428,18.32511],[82.35713,18.31418],[82.39273,18.32674],[82.40138,18.31451],[82.38028,18.28222],[82.34528,18.27432],[82.32973,18.23061],[82.34125,18.22397],[82.31453,18.20385],[82.31874,18.18284],[82.37363,18.14805],[82.36605,18.13351],[82.34185,18.15072],[82.34487,18.05579],[82.32583,18.05703],[82.32175,18.04329],[82.30642,18.0704],[82.27547,18.05671],[82.26965,17.99096],[82.18597,18.01896],[82.16887,18.05191],[82.14091,18.0439],[82.13561,18.05924],[82.08072,18.07378],[82.06824,18.05328],[82.03316,18.06597],[81.96031,18.00022],[81.80959,17.9441],[81.71175,17.86917],[81.69685,17.89277],[81.67162,17.88487],[81.61973,17.82335],[81.57732,17.83579],[81.48974,17.81068],[81.46799,17.83247],[81.39351,17.81429],[81.4023,17.89269],[81.44575,17.88358],[81.4537,17.93372],[81.48576,17.97751],[81.48229,18.0359],[81.51702,18.09972],[81.53095,18.16447],[81.51309,18.19094],[81.53624,18.2661],[81.60166,18.3083],[81.66694,18.3182],[81.66636,18.34633],[81.7532,18.3525],[81.77034,18.41835],[81.85253,18.48856],[81.86615,18.52003],[81.90502,18.53539],[81.91678,18.57118],[81.95171,18.56243],[81.96271,18.59367],[81.89653,18.6278],[81.8935,18.65707],[81.95559,18.63569],[81.96529,18.69018],[82.04185,18.7256],[82.08671,18.71896],[82.09292,18.73929],[82.13022,18.72275],[82.12728,18.70738],[82.14745,18.69194],[82.13544,18.67587],[82.14837,18.65944],[82.16123,18.66889],[82.17606,18.63307],[82.192,18.63072],[82.22526,18.66886],[82.2329,18.62479],[82.26501,18.58787],[82.31498,18.5782],[82.36552,18.62328],[82.41035,18.59502],[82.44728,18.59937],[82.44423,18.56905],[82.41692,18.56436],[82.40471,18.52749],[82.43094,18.49394],[82.43736,18.49279]]]}},{"type":"Feature","properties":{"DISTRICT":"Mayurbhanj","ST_NM":"Odisha","ST_CEN_CD":21,"DT_CEN_CD":7,"censuscode":376},"geometry":{"type":"Polygon","coordinates":[[[86.06759,22.55179],[86.11303,22.48832],[86.28535,22.44907],[86.35819,22.34915],[86.43873,22.30536],[86.44377,22.32717],[86.50529,22.34474],[86.53767,22.30205],[86.58371,22.3017],[86.59617,22.27875],[86.65074,22.26533],[86.65631,22.2372],[86.72606,22.22088],[86.72053,22.14765],[86.79534,22.15811],[86.8021,22.13034],[86.83697,22.09937],[86.9719,22.08206],[87.02948,22.03709],[87.03906,21.99365],[87.01033,21.94519],[87.00961,21.90015],[87.03497,21.86998],[87.12051,21.85264],[87.17855,21.81213],[87.18438,21.78995],[87.17445,21.81029],[87.146,21.76338],[87.10597,21.78307],[87.12278,21.75475],[87.08773,21.73743],[87.09425,21.72647],[87.07214,21.70631],[87.04877,21.71056],[87.04826,21.73916],[87.02736,21.74067],[87.05429,21.68322],[87.03141,21.66026],[87.01552,21.67406],[86.98963,21.6669],[86.99378,21.64864],[87.01245,21.64781],[87.00613,21.6253],[86.9884,21.62562],[87.0076,21.5983],[86.96441,21.58154],[86.96058,21.59537],[86.95903,21.57236],[86.92493,21.59194],[86.91255,21.57931],[86.87867,21.63503],[86.88891,21.61084],[86.86763,21.59216],[86.81284,21.60659],[86.7545,21.60529],[86.70635,21.58437],[86.68811,21.59389],[86.65261,21.57877],[86.63747,21.52904],[86.58538,21.5208],[86.52983,21.42165],[86.42788,21.3317],[86.36179,21.30019],[86.35859,21.31965],[86.27005,21.37913],[86.21055,21.28284],[86.19038,21.27324],[86.15999,21.29221],[86.13861,21.26589],[86.12071,21.2719],[86.09418,21.31139],[86.16184,21.42459],[86.12147,21.4772],[86.01022,21.53223],[86.0806,21.62888],[86.0822,21.68951],[86.06106,21.68821],[86.05138,21.71405],[86.02828,21.69198],[86.01817,21.74485],[85.9719,21.73956],[85.90643,21.76736],[85.88318,21.79401],[85.81106,21.81199],[85.79474,21.95401],[85.73975,21.99316],[85.70546,21.98565],[85.70384,22.00726],[85.67182,22.01307],[85.66399,22.03252],[85.67791,22.05538],[85.72828,22.06206],[85.80794,22.11471],[85.83659,22.08092],[85.7938,22.08111],[85.76664,21.99378],[85.82418,21.97413],[85.89692,21.98266],[85.9112,21.9708],[85.91801,22.00891],[85.94833,22.02322],[86.00618,22.11294],[86.00035,22.13572],[86.03242,22.18909],[85.97554,22.24714],[86.01423,22.29635],[86.049,22.30986],[86.01415,22.31361],[86.02616,22.33303],[85.99864,22.34176],[86.02725,22.3853],[86.0145,22.42779],[85.95932,22.45936],[85.96395,22.47954],[85.98651,22.51306],[86.02782,22.52388],[86.02413,22.54692],[86.04426,22.56685],[86.06757,22.55181],[86.06759,22.55179]]]}},{"type":"Feature","properties":{"DISTRICT":"Nabarangapur","ST_NM":"Odisha","ST_CEN_CD":21,"DT_CEN_CD":28,"censuscode":397},"geometry":{"type":"Polygon","coordinates":[[[82.01752,20.04905],[82.03197,20.0144],[82.06546,20.05419],[82.12367,20.01486],[82.17341,20.00269],[82.18606,19.98267],[82.23822,20.0027],[82.2693,19.97625],[82.30585,19.88836],[82.3471,19.83502],[82.39644,19.88678],[82.44711,19.90795],[82.605,19.86576],[82.5789,19.82772],[82.6032,19.74641],[82.56407,19.72649],[82.57841,19.67999],[82.55745,19.64416],[82.52809,19.62998],[82.54992,19.60978],[82.53198,19.58156],[82.55921,19.57931],[82.56908,19.54296],[82.61699,19.53838],[82.60834,19.52025],[82.64278,19.51058],[82.63406,19.48235],[82.69361,19.41698],[82.70945,19.4186],[82.72754,19.34625],[82.74303,19.34915],[82.75729,19.32799],[82.78119,19.34381],[82.84929,19.32337],[82.82708,19.25656],[82.80555,19.23683],[82.83903,19.23493],[82.85619,19.20561],[82.82869,19.18019],[82.82984,19.14793],[82.81824,19.17038],[82.80175,19.14947],[82.75645,19.18329],[82.74176,19.15987],[82.72369,19.15975],[82.72387,19.17343],[82.67957,19.19591],[82.63933,19.17532],[82.64017,19.14895],[82.6255,19.15022],[82.61628,19.18262],[82.57363,19.21147],[82.43618,19.17081],[82.39695,19.2091],[82.37385,19.19845],[82.32779,19.21819],[82.32259,19.19724],[82.29456,19.19144],[82.24198,19.22659],[82.22658,19.21901],[82.21976,19.23886],[82.17991,19.21484],[82.16165,19.22177],[82.15959,19.27136],[82.19101,19.32554],[82.15017,19.3539],[82.14897,19.37148],[82.17418,19.37165],[82.19085,19.42326],[82.17501,19.43546],[82.12709,19.42946],[82.10465,19.46654],[82.09981,19.5152],[82.03014,19.50709],[82.05387,19.54387],[82.04522,19.70885],[82.06748,19.78791],[81.98779,19.80047],[81.96798,19.8593],[81.86599,19.90391],[81.84485,19.95432],[81.87408,20.04017],[81.89699,20.04741],[81.94449,20.10523],[82.01751,20.04907],[82.01752,20.04905]]]}},{"type":"Feature","properties":{"DISTRICT":"Nayagarh","ST_NM":"Odisha","ST_CEN_CD":21,"DT_CEN_CD":16,"censuscode":385},"geometry":{"type":"Polygon","coordinates":[[[84.85163,20.52822],[84.88491,20.49912],[84.9456,20.49227],[85.16049,20.37822],[85.27821,20.35775],[85.37136,20.36629],[85.35616,20.30181],[85.33042,20.2747],[85.34063,20.24507],[85.32417,20.23085],[85.25635,20.22635],[85.24451,20.208],[85.22688,20.22307],[85.20152,20.19019],[85.20587,20.15453],[85.24102,20.11448],[85.33335,20.18011],[85.36884,20.18067],[85.3563,20.14516],[85.38469,20.15582],[85.41452,20.12751],[85.38098,20.0715],[85.41513,20.0206],[85.43515,20.02704],[85.41691,19.99496],[85.44092,19.99427],[85.45727,19.97307],[85.43647,19.94017],[85.40384,19.92958],[85.36366,19.95816],[85.33191,19.92564],[85.24544,19.90545],[85.16732,19.9045],[85.12798,19.93326],[85.01021,19.89966],[84.91163,19.90526],[84.92411,19.94134],[84.90215,19.993],[84.86305,20.00033],[84.8569,20.03027],[84.79929,20.09447],[84.82217,20.12279],[84.82892,20.22251],[84.74392,20.24503],[84.69674,20.28144],[84.67363,20.27345],[84.64087,20.19951],[84.59011,20.18331],[84.54747,20.24447],[84.54402,20.32678],[84.51647,20.3208],[84.51301,20.34007],[84.48754,20.34233],[84.5198,20.37247],[84.51859,20.4064],[84.62216,20.43434],[84.67516,20.42995],[84.69238,20.44222],[84.6848,20.46295],[84.71644,20.52102],[84.74465,20.54049],[84.7771,20.53585],[84.79435,20.58117],[84.84655,20.5337],[84.85163,20.52822]]]}},{"type":"Feature","properties":{"DISTRICT":"Nuapada","ST_NM":"Odisha","ST_CEN_CD":21,"DT_CEN_CD":25,"censuscode":394},"geometry":{"type":"Polygon","coordinates":[[[82.70293,20.72569],[82.69632,20.68071],[82.72409,20.67173],[82.74322,20.62299],[82.71344,20.56696],[82.68673,20.45005],[82.73224,20.38425],[82.71965,20.35747],[82.77132,20.35475],[82.81735,20.38311],[82.79235,20.32604],[82.81469,20.32814],[82.81746,20.35858],[82.8531,20.34049],[82.85074,20.29321],[82.82324,20.32176],[82.81439,20.29512],[82.8564,20.282],[82.86276,20.23504],[82.84897,20.19631],[82.81422,20.18057],[82.82503,20.1655],[82.81529,20.10175],[82.79037,20.10157],[82.73923,20.05214],[82.73866,20.02429],[82.70482,19.99784],[82.63933,20.00515],[82.60596,19.9907],[82.39842,20.06428],[82.38647,20.14914],[82.42113,20.20672],[82.4126,20.26785],[82.43674,20.28727],[82.40128,20.3397],[82.43664,20.42981],[82.41753,20.47725],[82.39556,20.45648],[82.38795,20.51371],[82.33146,20.55759],[82.37566,20.6277],[82.34253,20.76188],[82.354,20.887],[82.36643,20.86974],[82.4088,20.86569],[82.42293,20.8298],[82.46644,20.82722],[82.48931,20.85866],[82.49304,20.90678],[82.5531,20.93822],[82.61181,21.00908],[82.62967,21.03975],[82.61674,21.0743],[82.6392,21.09006],[82.69377,21.02171],[82.69085,20.72934],[82.70293,20.72569]]]}},{"type":"Feature","properties":{"DISTRICT":"Puri","ST_NM":"Odisha","ST_CEN_CD":21,"DT_CEN_CD":18,"censuscode":387},"geometry":{"type":"Polygon","coordinates":[[[86.08268,20.10635],[86.08205,20.06869],[86.11759,20.06687],[86.12889,20.04022],[86.20007,20.05351],[86.20983,20.03969],[86.24814,20.03871],[86.27889,20.05712],[86.27345,20.04423],[86.317,20.02818],[86.37766,19.95524],[86.24585,19.90834],[86.22812,19.93284],[86.23247,19.89826],[86.21158,19.88796],[85.90873,19.81987],[85.69637,19.75134],[85.35092,19.58386],[85.17797,19.46377],[85.15928,19.48285],[85.1371,19.52088],[85.17732,19.55762],[85.18445,19.67549],[85.20607,19.6843],[85.19543,19.71768],[85.21973,19.74561],[85.24189,19.74124],[85.25502,19.78354],[85.32809,19.80089],[85.34423,19.8279],[85.38164,19.84219],[85.40683,19.88569],[85.53135,19.88747],[85.56129,19.8732],[85.55253,19.85899],[85.56479,19.85458],[85.5669,19.91677],[85.52881,19.94109],[85.51038,19.92577],[85.5198,19.94188],[85.50254,19.94546],[85.53168,19.97731],[85.56535,19.94948],[85.57293,20.02379],[85.59479,19.99492],[85.61766,20.01806],[85.61789,19.99129],[85.63126,20.02454],[85.62054,20.05871],[85.64639,20.08284],[85.63348,20.09998],[85.65242,20.09632],[85.65354,20.06555],[85.68028,20.07153],[85.68944,20.14901],[85.7227,20.12961],[85.76561,20.1666],[85.79678,20.15085],[85.82722,20.15841],[85.84055,20.1957],[85.84548,20.17472],[85.85381,20.19353],[85.8894,20.17639],[85.90222,20.14469],[85.87551,20.12229],[85.88559,20.11002],[85.9047,20.12804],[85.92735,20.11398],[86.00781,20.11619],[86.02089,20.10158],[86.08266,20.10634],[86.08268,20.10635]]]}},{"type":"Feature","properties":{"DISTRICT":"Rayagada","ST_NM":"Odisha","ST_CEN_CD":21,"DT_CEN_CD":27,"censuscode":396},"geometry":{"type":"Polygon","coordinates":[[[83.49617,19.95958],[83.56256,19.92865],[83.52904,19.85765],[83.61954,19.81501],[83.61001,19.75482],[83.64487,19.70362],[83.63751,19.67236],[83.64928,19.65792],[83.69469,19.68825],[83.74053,19.6545],[83.7691,19.71294],[83.80877,19.71681],[83.84354,19.70959],[83.874,19.67408],[83.93272,19.67681],[83.93443,19.57143],[83.9772,19.53027],[83.96081,19.49986],[83.97865,19.48549],[83.94418,19.41979],[83.94704,19.39754],[84.01732,19.37408],[84.03002,19.34535],[84.01101,19.25143],[83.98298,19.2089],[83.99833,19.18797],[83.98459,19.16141],[84.03227,19.13095],[84.01494,19.12768],[84.01354,19.09343],[84.03016,19.05389],[83.97157,19.06548],[83.96528,19.04444],[83.98791,19.02038],[83.95868,18.98603],[83.91344,19.01738],[83.89791,18.98352],[83.86291,18.9793],[83.81424,19.03132],[83.7833,19.0172],[83.74725,18.98671],[83.78484,18.9275],[83.77899,18.90976],[83.74986,18.93152],[83.73398,18.98382],[83.71342,18.99346],[83.73091,19.02008],[83.70472,19.02462],[83.63093,19.16142],[83.60199,19.12816],[83.61212,19.09609],[83.59214,19.08763],[83.5865,19.05775],[83.56538,19.05931],[83.55416,19.08171],[83.56003,19.05513],[83.53915,19.01342],[83.50317,19.01904],[83.50132,19.03472],[83.52143,19.03271],[83.51314,19.07262],[83.50139,19.06095],[83.481,19.08555],[83.46716,19.07746],[83.48574,19.02909],[83.48237,19.00826],[83.4563,19.00755],[83.47005,18.9716],[83.45903,18.9525],[83.41659,18.98781],[83.41665,19.00407],[83.37531,19.00147],[83.34844,19.01682],[83.36432,19.04621],[83.34454,19.05465],[83.34107,19.10138],[83.28531,19.12439],[83.26697,19.04968],[83.23881,19.0233],[83.24154,18.97264],[83.20402,18.97787],[83.19023,19.01489],[83.19494,19.07485],[83.17718,19.09158],[83.20767,19.13032],[83.2441,19.12649],[83.2599,19.16417],[83.20217,19.16699],[83.20465,19.14949],[83.18968,19.14595],[83.20058,19.13267],[83.18125,19.11224],[83.169,19.12132],[83.18404,19.14442],[83.16102,19.12324],[83.13757,19.13669],[83.13086,19.09366],[83.10433,19.11185],[83.06375,19.04419],[83.02307,19.06422],[83.03087,19.0805],[82.98404,19.13315],[82.97953,19.17365],[82.9505,19.15476],[82.90468,19.1587],[82.87884,19.184],[82.90227,19.22936],[82.89077,19.2543],[82.90492,19.28513],[82.95752,19.32493],[82.953,19.39057],[82.92457,19.4352],[82.93941,19.44974],[82.96052,19.43707],[82.99177,19.44731],[82.99377,19.49005],[83.02699,19.51237],[83.03899,19.55255],[83.07047,19.56224],[83.08914,19.54],[83.10502,19.54253],[83.10951,19.50904],[83.14744,19.49994],[83.15518,19.45706],[83.183,19.42421],[83.18808,19.46385],[83.21818,19.43542],[83.20531,19.46349],[83.22854,19.50328],[83.24814,19.50822],[83.26756,19.60091],[83.37337,19.59818],[83.38625,19.66703],[83.43091,19.69811],[83.4558,19.74],[83.45937,19.79675],[83.44092,19.80219],[83.40732,19.92041],[83.44294,19.93319],[83.45229,19.97252],[83.49371,19.95941],[83.49617,19.95958]]]}},{"type":"Feature","properties":{"DISTRICT":"Sambalpur","ST_NM":"Odisha","ST_CEN_CD":21,"DT_CEN_CD":3,"censuscode":372},"geometry":{"type":"Polygon","coordinates":[[[84.67989,21.7345],[84.63898,21.73692],[84.62774,21.69472],[84.57875,21.69999],[84.54478,21.67672],[84.50551,21.67936],[84.49148,21.6377],[84.5276,21.62262],[84.575,21.57239],[84.53997,21.5786],[84.54478,21.56962],[84.51165,21.55929],[84.48413,21.50578],[84.50219,21.49576],[84.47952,21.48014],[84.49139,21.47334],[84.49133,21.36764],[84.54918,21.37189],[84.57021,21.32071],[84.57104,21.25108],[84.69194,21.32027],[84.76636,21.27226],[84.76129,21.22436],[84.74419,21.23199],[84.72461,21.21733],[84.74481,21.17056],[84.72561,21.14927],[84.68562,21.14899],[84.67082,21.09544],[84.6833,21.06416],[84.65186,21.08437],[84.58932,21.06386],[84.53531,21.08859],[84.48516,21.08251],[84.4422,21.03455],[84.41068,21.03072],[84.43596,21.01421],[84.37259,20.95485],[84.24173,20.92614],[84.19467,20.97662],[84.16097,20.97566],[84.14799,21.03558],[84.02021,21.05522],[83.99095,21.07923],[83.98604,21.13474],[83.89586,21.17814],[83.91342,21.24599],[83.87162,21.31059],[83.88093,21.39007],[83.84957,21.4102],[83.88679,21.4388],[83.84679,21.52729],[83.81527,21.53969],[83.79986,21.56619],[83.82345,21.59417],[83.89422,21.57367],[83.97367,21.57748],[83.9732,21.7087],[83.9442,21.7276],[83.96989,21.76569],[83.99086,21.75179],[84.01498,21.78614],[84.0387,21.75908],[84.11524,21.78896],[84.19016,21.75421],[84.29099,21.76611],[84.39329,21.99229],[84.38922,22.02409],[84.35762,22.03652],[84.29954,22.03367],[84.26963,22.01407],[84.27811,22.12108],[84.32598,22.12442],[84.47814,22.18857],[84.49693,22.09841],[84.53,22.0446],[84.5036,21.97028],[84.5081,21.96025],[84.52902,21.97359],[84.53025,21.92762],[84.49588,21.90754],[84.5314,21.88207],[84.52867,21.81322],[84.56894,21.78715],[84.55907,21.76704],[84.65476,21.76664],[84.67771,21.75383],[84.67846,21.73623],[84.67989,21.7345]]]}},{"type":"Feature","properties":{"DISTRICT":"Subarnapur","ST_NM":"Odisha","ST_CEN_CD":21,"DT_CEN_CD":23,"censuscode":392},"geometry":{"type":"Polygon","coordinates":[[[83.89586,21.17814],[83.98604,21.13474],[83.99095,21.07923],[84.02021,21.05522],[84.14799,21.03558],[84.16097,20.97566],[84.19467,20.97662],[84.24173,20.92614],[84.2829,20.92713],[84.26758,20.88932],[84.21787,20.9017],[84.05499,20.82829],[83.94055,20.84099],[83.89867,20.81607],[83.84516,20.82375],[83.7812,20.79887],[83.76336,20.775],[83.75943,20.71553],[83.71869,20.64019],[83.73149,20.60622],[83.68907,20.56062],[83.60637,20.52991],[83.59586,20.60361],[83.67777,20.7422],[83.65339,20.7519],[83.65603,20.773],[83.6377,20.77179],[83.63623,20.79685],[83.59754,20.80266],[83.5973,20.82236],[83.62414,20.81601],[83.6256,20.82674],[83.57385,20.85283],[83.62086,20.90369],[83.61129,20.93337],[83.64114,20.98234],[83.57529,20.97509],[83.47094,20.9976],[83.45072,21.01914],[83.45929,21.05495],[83.49901,21.04165],[83.49771,21.06178],[83.5521,21.07699],[83.61377,21.129],[83.71813,21.12106],[83.77005,21.15497],[83.78541,21.15208],[83.79968,21.11599],[83.84482,21.09736],[83.89553,21.17818],[83.89586,21.17814]]]}},{"type":"Feature","properties":{"DISTRICT":"Sundargarh","ST_NM":"Odisha","ST_CEN_CD":21,"DT_CEN_CD":5,"censuscode":374},"geometry":{"type":"Polygon","coordinates":[[[84.00952,22.52286],[84.14188,22.47313],[84.14284,22.42294],[84.15943,22.40324],[84.20103,22.3742],[84.25345,22.37613],[84.29609,22.33984],[84.43289,22.35142],[84.45465,22.38166],[84.48438,22.38627],[84.48346,22.40854],[84.53339,22.4226],[84.63879,22.43128],[84.66829,22.41661],[84.7505,22.41749],[84.75933,22.44471],[84.8144,22.44959],[84.83914,22.42917],[84.8831,22.44603],[84.88681,22.42042],[84.90034,22.42085],[84.9538,22.4539],[84.9611,22.44175],[85.06894,22.48127],[85.08008,22.46956],[85.0635,22.44762],[85.08951,22.38148],[85.08049,22.35166],[85.09938,22.34419],[85.09438,22.31723],[85.12043,22.31737],[85.12085,22.29367],[85.07693,22.27535],[85.07589,22.23392],[85.03183,22.15735],[85.03017,22.11541],[84.98626,22.08812],[85.00877,22.0834],[85.05031,22.11414],[85.10182,22.10294],[85.12524,22.07004],[85.16189,22.07404],[85.17353,22.05231],[85.17071,22.06882],[85.18308,22.07032],[85.21705,22.04684],[85.22119,22.01442],[85.2749,21.95967],[85.37219,21.93733],[85.36026,21.85194],[85.31746,21.81872],[85.28567,21.83593],[85.24408,21.80359],[85.23093,21.82213],[85.20465,21.76803],[85.21555,21.74108],[85.18699,21.70807],[85.18398,21.64674],[85.19728,21.64016],[85.15053,21.59402],[85.08815,21.60339],[85.05199,21.58888],[85.02773,21.67153],[85.0004,21.68199],[84.86591,21.65235],[84.79323,21.66838],[84.79339,21.63184],[84.75929,21.62466],[84.74913,21.68143],[84.72064,21.71493],[84.69795,21.70666],[84.67171,21.75923],[84.55907,21.76704],[84.56894,21.78715],[84.52867,21.81322],[84.5314,21.88207],[84.49588,21.90754],[84.53025,21.92762],[84.52902,21.97359],[84.5081,21.96025],[84.5036,21.97028],[84.53,22.0446],[84.49693,22.09841],[84.47814,22.18857],[84.32598,22.12442],[84.27811,22.12108],[84.26928,22.00743],[84.2332,21.97494],[84.12131,22.01106],[84.11011,21.99328],[84.07289,21.98965],[84.08945,21.96704],[84.0787,21.93716],[84.02926,21.9528],[83.981,21.90628],[83.96126,21.94132],[83.89676,21.94627],[83.88069,21.92393],[83.85438,21.92266],[83.86502,21.91063],[83.82993,21.87802],[83.81656,21.88315],[83.81438,21.85522],[83.80064,21.86888],[83.78255,21.85629],[83.72189,21.78639],[83.64319,21.81663],[83.62962,21.84831],[83.58481,21.82933],[83.59304,21.85036],[83.57864,21.87456],[83.60759,21.91347],[83.56049,21.93474],[83.5423,21.96599],[83.55569,22.00913],[83.5396,22.03642],[83.55014,22.06173],[83.60744,22.06789],[83.56632,22.10614],[83.65286,22.22675],[83.70011,22.24768],[83.75988,22.24509],[83.86806,22.34594],[84.01122,22.3699],[84.04855,22.46622],[83.98313,22.50422],[84.00133,22.53079],[84.00952,22.52286]]]}}]}
