{"type":"FeatureCollection","properties":{"source":"DataMeet Community Maps Project - Districts/Census_2011","state":"Puducherry","stateSlug":"puducherry"},"features":[{"type":"Feature","properties":{"DISTRICT":"Karaikal","ST_NM":"Puducherry","ST_CEN_CD":34,"DT_CEN_CD":4,"censuscode":637},"geometry":{"type":"Polygon","coordinates":[[[79.76528,10.99681],[79.80049,10.98272],[79.81851,11.00163],[79.85158,10.99233],[79.84861,10.87985],[79.83551,10.87377],[79.84885,10.87079],[79.84948,10.827],[79.81052,10.855],[79.82554,10.86444],[79.80691,10.87723],[79.82633,10.88297],[79.78426,10.88817],[79.79043,10.90498],[79.76912,10.89623],[79.76518,10.91057],[79.76027,10.89729],[79.76019,10.91469],[79.72135,10.93409],[79.73832,10.95056],[79.72143,10.9504],[79.7207,10.96705],[79.76264,10.95865],[79.74721,10.98626],[79.76008,11.00033],[79.76528,10.99681]]]}},{"type":"Feature","properties":{"DISTRICT":"Mahe","ST_NM":"Puducherry","ST_CEN_CD":34,"DT_CEN_CD":3,"censuscode":636},"geometry":{"type":"MultiPolygon","coordinates":[[[[75.54502,11.73396],[75.55752,11.71822],[75.52833,11.72024],[75.53574,11.75831],[75.54645,11.73923],[75.54502,11.73396]]],[[[75.54093,11.69615],[75.52914,11.70532],[75.543,11.69856],[75.54093,11.69615]]]]}},{"type":"Feature","properties":{"DISTRICT":"Puducherry","ST_NM":"Puducherry","ST_CEN_CD":34,"DT_CEN_CD":2,"censuscode":635},"geometry":{"type":"MultiPolygon","coordinates":[[[[79.70533,12.01531],[79.72481,11.99048],[79.74957,12.00861],[79.76458,12.00048],[79.75737,11.98139],[79.73065,11.98174],[79.74859,11.96157],[79.75197,11.92157],[79.78684,11.96085],[79.80264,11.95286],[79.81476,11.97878],[79.8405,11.95459],[79.80813,11.83409],[79.79703,11.85485],[79.76741,11.83898],[79.765,11.87501],[79.74297,11.84678],[79.74555,11.86132],[79.71897,11.85268],[79.71083,11.88771],[79.67414,11.87994],[79.69492,11.89355],[79.69787,11.91898],[79.71762,11.91683],[79.70661,11.89273],[79.73049,11.88935],[79.74,11.9059],[79.72102,11.94302],[79.7096,11.9456],[79.71284,11.93097],[79.69315,11.95075],[79.71648,11.96645],[79.71396,11.9863],[79.65717,11.98991],[79.66212,12.01132],[79.69382,12.0334],[79.70724,12.02525],[79.70533,12.01531]],[[79.77058,11.89404],[79.7845,11.86195],[79.79763,11.89749],[79.7724,11.899],[79.77058,11.89404]]],[[[79.73872,11.84277],[79.76447,11.82284],[79.80756,11.8321],[79.7951,11.78486],[79.76345,11.79042],[79.75515,11.7742],[79.7125,11.7893],[79.73652,11.80859],[79.73884,11.83933],[79.73872,11.84277]]],[[[79.62767,12.03044],[79.65429,12.02379],[79.63658,11.99643],[79.64315,11.94638],[79.67128,11.93285],[79.67249,11.91475],[79.64175,11.90118],[79.62653,11.9024],[79.62007,11.92443],[79.62937,12.02083],[79.62767,12.03044]]],[[[79.62934,11.88215],[79.64256,11.88607],[79.66426,11.86029],[79.65016,11.84903],[79.62681,11.85239],[79.62903,11.86723],[79.60242,11.85651],[79.60198,11.88258],[79.63135,11.88808],[79.62934,11.88215]]],[[[79.85903,12.00761],[79.8409,12.01325],[79.85004,12.0502],[79.87503,12.04331],[79.85991,12.01034],[79.85903,12.00761]]],[[[79.68894,11.97189],[79.67572,11.94793],[79.6553,11.9536],[79.68004,11.97231],[79.68894,11.97189]]],[[[79.67002,11.81491],[79.6463,11.8162],[79.64661,11.84243],[79.67079,11.82281],[79.67002,11.81491]]],[[[79.69054,11.80274],[79.676,11.81371],[79.69057,11.80745],[79.69054,11.80274]]],[[[79.80412,12.02036],[79.79151,12.02698],[79.80665,12.02187],[79.80412,12.02036]]]]}},{"type":"Feature","properties":{"DISTRICT":"Yanam","ST_NM":"Puducherry","ST_CEN_CD":34,"DT_CEN_CD":1,"censuscode":634},"geometry":{"type":"Polygon","coordinates":[[[82.22052,16.73898],[82.27324,16.7305],[82.30324,16.75417],[82.31236,16.73403],[82.29474,16.70865],[82.26302,16.7009],[82.18417,16.7361],[82.23135,16.76135],[82.21956,16.7423],[82.22052,16.73898]]]}}]}
