{"type":"FeatureCollection","properties":{"source":"DataMeet Community Maps Project - Districts/Census_2011","state":"Punjab","stateSlug":"punjab"},"features":[{"type":"Feature","properties":{"DISTRICT":"Amritsar","ST_NM":"Punjab","ST_CEN_CD":3,"DT_CEN_CD":15,"censuscode":49},"geometry":{"type":"Polygon","coordinates":[[[74.89363,32.05326],[74.92079,32.0452],[74.93643,32.01532],[74.91531,31.97727],[74.93787,31.96353],[74.97417,31.97681],[74.97333,31.96171],[74.94067,31.94324],[74.88859,31.93293],[74.96881,31.83427],[75.02582,31.82317],[75.03888,31.80417],[75.07684,31.80609],[75.11304,31.77999],[75.09854,31.76047],[75.11753,31.75036],[75.1449,31.75823],[75.19072,31.74122],[75.20294,31.72785],[75.19376,31.71228],[75.2268,31.68549],[75.28544,31.69766],[75.28781,31.67704],[75.31259,31.6686],[75.30091,31.65179],[75.37489,31.62384],[75.4049,31.59443],[75.31909,31.53941],[75.28568,31.48311],[75.25191,31.50192],[75.22953,31.49096],[75.19912,31.49985],[75.18142,31.52873],[75.12379,31.49499],[75.10783,31.52216],[75.08524,31.519],[75.04798,31.54359],[74.99184,31.50865],[74.98101,31.52923],[74.95197,31.49815],[74.94127,31.52219],[74.89802,31.52881],[74.89574,31.5537],[74.8443,31.53017],[74.79276,31.57036],[74.73159,31.56364],[74.68723,31.52414],[74.65146,31.53375],[74.61309,31.49791],[74.5791,31.50225],[74.61684,31.53547],[74.61898,31.57053],[74.55781,31.61159],[74.53608,31.68092],[74.48604,31.72243],[74.56521,31.75503],[74.56931,31.82958],[74.59408,31.84541],[74.61283,31.88699],[74.64031,31.88474],[74.67373,31.92],[74.72307,31.92107],[74.72146,31.93712],[74.75995,31.95335],[74.82319,31.95656],[74.8325,31.99891],[74.8793,32.02528],[74.88673,32.05193],[74.89363,32.05326]]]}},{"type":"Feature","properties":{"DISTRICT":"Barnala","ST_NM":"Punjab","ST_CEN_CD":3,"DT_CEN_CD":20,"censuscode":54},"geometry":{"type":"Polygon","coordinates":[[[75.65579,30.6353],[75.66513,30.61323],[75.68552,30.60848],[75.65682,30.54367],[75.68408,30.51531],[75.65942,30.47878],[75.67933,30.47265],[75.65072,30.44007],[75.67036,30.42185],[75.66819,30.37781],[75.68689,30.35135],[75.65408,30.32718],[75.67396,30.28967],[75.72054,30.28402],[75.72496,30.26641],[75.6923,30.22988],[75.64732,30.23805],[75.61199,30.21721],[75.58481,30.22839],[75.55942,30.19442],[75.57876,30.14349],[75.55008,30.13747],[75.50051,30.15001],[75.46429,30.19642],[75.4276,30.18675],[75.39042,30.21],[75.36255,30.20396],[75.37776,30.22509],[75.36531,30.24318],[75.37368,30.26388],[75.34462,30.28938],[75.3476,30.30309],[75.3214,30.30403],[75.32083,30.33155],[75.34694,30.34086],[75.32505,30.34981],[75.33583,30.37778],[75.3096,30.37888],[75.30135,30.42369],[75.26726,30.43639],[75.25774,30.46501],[75.31471,30.53459],[75.34866,30.51486],[75.40476,30.5317],[75.42144,30.55093],[75.40799,30.5824],[75.4677,30.60526],[75.51816,30.59854],[75.52867,30.61245],[75.54696,30.59574],[75.55094,30.63329],[75.62639,30.61368],[75.65505,30.63446],[75.65579,30.6353]]]}},{"type":"Feature","properties":{"DISTRICT":"Bathinda","ST_NM":"Punjab","ST_CEN_CD":3,"DT_CEN_CD":12,"censuscode":46},"geometry":{"type":"Polygon","coordinates":[[[75.29278,30.50969],[75.25843,30.46046],[75.26726,30.43639],[75.30135,30.42369],[75.3096,30.37888],[75.33583,30.37778],[75.32505,30.34981],[75.34694,30.34086],[75.32083,30.33155],[75.3214,30.30403],[75.34668,30.30379],[75.34462,30.28938],[75.36438,30.28353],[75.37776,30.22509],[75.34863,30.15673],[75.35746,30.14047],[75.2608,30.09888],[75.26259,30.05602],[75.27798,30.05765],[75.25443,30.04009],[75.26066,30.01643],[75.30294,30.02141],[75.27934,30.00021],[75.28056,29.97715],[75.25338,29.97986],[75.23462,29.9568],[75.20505,29.97596],[75.18413,29.96844],[75.16951,29.92416],[75.18495,29.88329],[75.21298,29.87886],[75.21567,29.85732],[75.16554,29.81791],[75.16924,29.78229],[75.15174,29.77509],[75.13499,29.80376],[75.10021,29.80487],[75.11721,29.82473],[75.09134,29.84765],[75.11439,29.87144],[75.09503,29.91345],[75.07563,29.87737],[75.04762,29.88017],[74.99994,29.85492],[74.92585,29.94788],[74.89531,29.93789],[74.90446,29.95171],[74.89161,29.96717],[74.8597,29.95801],[74.81125,29.99159],[74.73394,29.96103],[74.7073,29.97039],[74.71725,30.01428],[74.69622,30.03333],[74.70542,30.06505],[74.67634,30.08783],[74.68373,30.11137],[74.64984,30.11134],[74.6322,30.12974],[74.65828,30.16328],[74.69998,30.1592],[74.7369,30.1808],[74.71479,30.19681],[74.72079,30.25189],[74.75221,30.28581],[74.72571,30.30791],[74.78524,30.33521],[74.70221,30.35573],[74.72405,30.36531],[74.78641,30.3392],[74.82224,30.39312],[74.92307,30.3665],[74.973,30.39516],[75.04672,30.37901],[75.05266,30.40883],[75.02078,30.43907],[75.05309,30.45858],[75.00814,30.48815],[75.06091,30.50251],[75.08461,30.52837],[75.12989,30.52235],[75.12297,30.56193],[75.14576,30.58082],[75.17464,30.56261],[75.18727,30.50643],[75.26049,30.52037],[75.28563,30.50735],[75.29278,30.50969]]]}},{"type":"Feature","properties":{"DISTRICT":"Faridkot","ST_NM":"Punjab","ST_CEN_CD":3,"DT_CEN_CD":11,"censuscode":45},"geometry":{"type":"Polygon","coordinates":[[[74.91117,30.73578],[74.915,30.68002],[74.95543,30.67432],[74.95542,30.59286],[74.91654,30.58488],[74.90355,30.54917],[74.92721,30.5393],[74.94581,30.56979],[74.99181,30.54323],[74.99434,30.49209],[75.05309,30.45858],[75.02078,30.43907],[75.05266,30.40883],[75.04231,30.37732],[74.973,30.39516],[74.92307,30.3665],[74.87472,30.38953],[74.85426,30.37667],[74.81149,30.40064],[74.75342,30.39384],[74.75563,30.43325],[74.73233,30.45948],[74.76201,30.49108],[74.68762,30.52096],[74.71044,30.55755],[74.64734,30.59381],[74.59053,30.65411],[74.48277,30.67351],[74.47001,30.74297],[74.62521,30.83104],[74.64668,30.81481],[74.66486,30.82958],[74.77146,30.81213],[74.81719,30.76499],[74.91117,30.73577],[74.91117,30.73578]]]}},{"type":"Feature","properties":{"DISTRICT":"Fatehgarh Sahib","ST_NM":"Punjab","ST_CEN_CD":3,"DT_CEN_CD":6,"censuscode":40},"geometry":{"type":"Polygon","coordinates":[[[76.32476,30.43945],[76.33921,30.45509],[76.33578,30.47892],[76.31948,30.48106],[76.3358,30.49829],[76.32269,30.54324],[76.29293,30.57423],[76.27974,30.55486],[76.2324,30.56033],[76.10228,30.51995],[76.08288,30.52058],[76.07691,30.54481],[76.08876,30.56715],[76.10716,30.56224],[76.12392,30.59642],[76.11501,30.61355],[76.15127,30.63794],[76.17388,30.67794],[76.18552,30.66626],[76.23464,30.68878],[76.29851,30.67929],[76.31754,30.66237],[76.34484,30.67941],[76.34435,30.71366],[76.32714,30.70855],[76.31341,30.72553],[76.29108,30.71295],[76.26942,30.73664],[76.25459,30.83619],[76.28499,30.87641],[76.33709,30.85871],[76.32852,30.84952],[76.34845,30.83006],[76.39227,30.83069],[76.39263,30.80848],[76.4201,30.79804],[76.41025,30.75847],[76.49503,30.74565],[76.53335,30.76508],[76.54456,30.72748],[76.51724,30.70679],[76.54682,30.71042],[76.57088,30.67411],[76.52926,30.63699],[76.55671,30.62802],[76.55558,30.64084],[76.58016,30.64725],[76.5925,30.63461],[76.5923,30.60416],[76.56863,30.61144],[76.55741,30.59721],[76.5816,30.57112],[76.50106,30.56118],[76.48901,30.49921],[76.50379,30.47338],[76.47895,30.4306],[76.44699,30.44828],[76.41098,30.44164],[76.41603,30.42419],[76.38666,30.41111],[76.3723,30.43255],[76.33486,30.43546],[76.32476,30.43945]]]}},{"type":"Feature","properties":{"DISTRICT":"Firozpur","ST_NM":"Punjab","ST_CEN_CD":3,"DT_CEN_CD":9,"censuscode":43},"geometry":{"type":"Polygon","coordinates":[[[75.04985,31.15303],[75.07409,31.14436],[75.07524,31.12411],[75.10805,31.11654],[75.11393,31.09225],[75.08388,31.04287],[75.06247,31.05523],[75.0518,31.0319],[75.03072,31.03626],[75.02561,31.0191],[75.06259,30.99521],[75.05937,30.9601],[74.94531,30.87703],[74.9496,30.82941],[74.91259,30.77149],[74.91117,30.73577],[74.81719,30.76499],[74.77146,30.81213],[74.66486,30.82958],[74.64668,30.81481],[74.62521,30.83104],[74.4751,30.74943],[74.47839,30.68021],[74.50259,30.66778],[74.47937,30.65819],[74.49289,30.63865],[74.46339,30.62721],[74.42866,30.54919],[74.40365,30.55714],[74.39893,30.52754],[74.37358,30.51454],[74.37583,30.48358],[74.34682,30.483],[74.3287,30.44609],[74.25181,30.42371],[74.35756,30.39768],[74.35493,30.38089],[74.31691,30.38746],[74.3215,30.32885],[74.2984,30.26338],[74.28294,30.27297],[74.26158,30.24627],[74.28697,30.23143],[74.35702,30.23961],[74.33679,30.16154],[74.37437,30.15058],[74.41508,30.09532],[74.3774,30.10895],[74.36697,30.085],[74.38898,30.07295],[74.40839,30.02642],[74.45492,30.02135],[74.46452,30.00292],[74.42646,29.99705],[74.45158,29.94692],[73.90021,29.9714],[73.89021,29.99767],[73.904,30.04826],[73.97607,30.12248],[73.96756,30.26318],[73.8854,30.36264],[73.97209,30.43354],[73.93061,30.43899],[73.9352,30.48937],[73.95939,30.45944],[73.98872,30.51041],[74.0204,30.51327],[74.01267,30.53198],[74.04901,30.54094],[74.05615,30.52242],[74.07802,30.52705],[74.09287,30.55036],[74.07834,30.55641],[74.10316,30.57684],[74.1016,30.61433],[74.12007,30.6074],[74.12904,30.63365],[74.15095,30.63257],[74.19934,30.66864],[74.23301,30.72318],[74.28702,30.73527],[74.2636,30.77205],[74.30853,30.78391],[74.29694,30.80082],[74.32748,30.8488],[74.38461,30.86267],[74.36419,30.87877],[74.37229,30.89495],[74.42683,30.91222],[74.41342,30.92651],[74.46883,30.96016],[74.45967,30.96967],[74.50674,30.96643],[74.54841,30.99298],[74.54367,31.01353],[74.56558,31.05421],[74.59181,31.05828],[74.60597,31.04134],[74.66809,31.05509],[74.69532,31.07271],[74.70282,31.11504],[74.74444,31.10423],[74.76465,31.12881],[74.79089,31.13076],[74.80237,31.1142],[74.81039,31.13386],[74.85032,31.13424],[74.89685,31.16065],[75.00833,31.11984],[75.00838,31.14581],[75.05113,31.15737],[75.04985,31.15303]]]}},{"type":"Feature","properties":{"DISTRICT":"Gurdaspur","ST_NM":"Punjab","ST_CEN_CD":3,"DT_CEN_CD":1,"censuscode":35},"geometry":{"type":"Polygon","coordinates":[[[75.88469,32.48841],[75.94798,32.41631],[75.85956,32.37892],[75.7518,32.27344],[75.69117,32.26382],[75.63778,32.23455],[75.63535,32.18498],[75.6713,32.17634],[75.67057,32.14574],[75.57758,32.07371],[75.56194,32.03613],[75.53612,32.03165],[75.55922,32.00047],[75.53046,31.94359],[75.57278,31.85549],[75.57361,31.77845],[75.53807,31.77241],[75.53673,31.73739],[75.49633,31.69999],[75.46798,31.63461],[75.42545,31.62712],[75.40815,31.59578],[75.30091,31.65179],[75.31259,31.6686],[75.28781,31.67704],[75.28544,31.69766],[75.2268,31.68549],[75.19376,31.71228],[75.20294,31.72785],[75.19072,31.74122],[75.10569,31.75578],[75.11304,31.77999],[75.07684,31.80609],[75.03888,31.80417],[75.02582,31.82317],[74.96881,31.83427],[74.96369,31.85469],[74.90617,31.89717],[74.88859,31.93293],[74.97333,31.96171],[74.97417,31.97681],[74.93787,31.96353],[74.91531,31.97727],[74.9377,32.00851],[74.91235,32.05097],[74.9212,32.06384],[75.01342,32.035],[75.0723,32.06317],[75.10664,32.06035],[75.13082,32.08363],[75.179,32.06865],[75.21001,32.11733],[75.23966,32.09094],[75.26548,32.1002],[75.28304,32.14278],[75.32168,32.17465],[75.31386,32.19593],[75.32771,32.21411],[75.3782,32.23514],[75.38212,32.26925],[75.32737,32.29733],[75.34053,32.34355],[75.43025,32.32474],[75.48758,32.34041],[75.48305,32.3179],[75.50551,32.31049],[75.51419,32.27554],[75.54461,32.34913],[75.7272,32.41811],[75.76174,32.47631],[75.82023,32.48691],[75.88864,32.57603],[75.87121,32.49934],[75.88469,32.48841]]]}},{"type":"Feature","properties":{"DISTRICT":"Hoshiarpur","ST_NM":"Punjab","ST_CEN_CD":3,"DT_CEN_CD":4,"censuscode":38},"geometry":{"type":"Polygon","coordinates":[[[75.95898,31.85623],[75.98614,31.81316],[75.93645,31.81589],[76.01709,31.64492],[76.05835,31.60125],[76.16753,31.41181],[76.14804,31.38045],[76.1535,31.35088],[76.1802,31.33916],[76.18666,31.30439],[76.29127,31.30741],[76.35173,31.23826],[76.30871,31.21204],[76.24681,31.24551],[76.22306,31.20171],[76.19763,31.18787],[76.20864,31.1412],[76.19321,31.13027],[76.10311,31.17831],[76.08933,31.22456],[76.04976,31.21446],[76.02567,31.25898],[76.00384,31.24452],[75.99506,31.25977],[75.95411,31.25596],[75.94491,31.27308],[75.85591,31.29216],[75.86688,31.31857],[75.90831,31.34578],[75.8583,31.35132],[75.84588,31.37248],[75.82315,31.35907],[75.78838,31.37004],[75.78395,31.38385],[75.82296,31.40573],[75.82063,31.4254],[75.70452,31.52869],[75.67096,31.60746],[75.64094,31.61698],[75.59505,31.60484],[75.56871,31.61133],[75.57301,31.63629],[75.55156,31.63474],[75.54188,31.65103],[75.52556,31.63475],[75.47492,31.65146],[75.49633,31.69999],[75.53673,31.73739],[75.53807,31.77241],[75.57361,31.77845],[75.57278,31.85549],[75.53046,31.94359],[75.55922,32.00047],[75.53612,32.03165],[75.56194,32.03613],[75.59364,32.08144],[75.61341,32.0657],[75.6643,32.07677],[75.70476,32.06102],[75.79916,31.99353],[75.89261,31.96095],[75.95313,31.86663],[75.95898,31.85623]]]}},{"type":"Feature","properties":{"DISTRICT":"Jalandhar","ST_NM":"Punjab","ST_CEN_CD":3,"DT_CEN_CD":3,"censuscode":37},"geometry":{"type":"Polygon","coordinates":[[[75.78838,31.37004],[75.75632,31.32856],[75.71195,31.34904],[75.70083,31.34737],[75.7202,31.31601],[75.68626,31.31942],[75.7027,31.28864],[75.67882,31.29428],[75.67143,31.24063],[75.70558,31.24028],[75.70972,31.21594],[75.6874,31.19712],[75.69658,31.17643],[75.77164,31.16087],[75.78788,31.19856],[75.88223,31.16564],[75.91233,31.09791],[75.92765,31.09363],[75.95362,31.01185],[75.90897,31.01862],[75.79923,30.99396],[75.75987,31.01499],[75.60261,30.96893],[75.40972,30.97947],[75.3069,31.00072],[75.28302,31.04219],[75.24115,31.04615],[75.2295,31.06567],[75.17475,31.07905],[75.17093,31.09375],[75.15398,31.08196],[75.11316,31.09214],[75.10805,31.11654],[75.07301,31.12734],[75.08123,31.15274],[75.18801,31.16697],[75.20337,31.18519],[75.23334,31.15305],[75.27019,31.14842],[75.2767,31.1874],[75.3464,31.23239],[75.36644,31.2262],[75.36836,31.23993],[75.42328,31.24908],[75.42612,31.22888],[75.4622,31.23812],[75.49125,31.2712],[75.4556,31.28499],[75.45091,31.31505],[75.48956,31.32307],[75.50271,31.36756],[75.47596,31.37435],[75.51066,31.37745],[75.51408,31.39018],[75.44692,31.39681],[75.45623,31.4092],[75.44363,31.42936],[75.46328,31.43723],[75.45492,31.4514],[75.47327,31.45037],[75.44662,31.50117],[75.48165,31.50241],[75.52035,31.47324],[75.52203,31.53127],[75.54975,31.53071],[75.53848,31.55599],[75.56145,31.54789],[75.58247,31.55332],[75.58607,31.5721],[75.60003,31.56677],[75.59921,31.61128],[75.67096,31.60746],[75.70452,31.52869],[75.79013,31.45019],[75.80145,31.45491],[75.82296,31.40573],[75.78478,31.37606],[75.78838,31.37004]]]}},{"type":"Feature","properties":{"DISTRICT":"Kapurthala","ST_NM":"Punjab","ST_CEN_CD":3,"DT_CEN_CD":2,"censuscode":36},"geometry":{"type":"MultiPolygon","coordinates":[[[[75.48839,31.64868],[75.57073,31.63819],[75.56871,31.61133],[75.59505,31.60484],[75.60496,31.57652],[75.58607,31.5721],[75.58247,31.55332],[75.53848,31.55599],[75.54975,31.53071],[75.52203,31.53127],[75.52035,31.47324],[75.48165,31.50241],[75.44662,31.50117],[75.47327,31.45037],[75.45492,31.4514],[75.46328,31.43723],[75.44363,31.42936],[75.45623,31.4092],[75.44692,31.39681],[75.51408,31.39018],[75.51066,31.37745],[75.47596,31.37435],[75.50271,31.36756],[75.48956,31.32307],[75.45091,31.31505],[75.4556,31.28499],[75.49125,31.2712],[75.4622,31.23812],[75.42612,31.22888],[75.42328,31.24908],[75.36836,31.23993],[75.36644,31.2262],[75.3464,31.23239],[75.2767,31.1874],[75.27019,31.14842],[75.22932,31.15543],[75.21268,31.18551],[75.18801,31.16697],[75.13036,31.16928],[75.07409,31.14436],[75.03912,31.16182],[75.00747,31.14476],[75.00833,31.11984],[74.9492,31.14985],[75.05081,31.1919],[75.08419,31.27239],[75.1039,31.27824],[75.09377,31.28367],[75.1081,31.3163],[75.13374,31.31114],[75.17272,31.36318],[75.16038,31.36381],[75.16357,31.38164],[75.19487,31.40833],[75.19523,31.43564],[75.22745,31.42399],[75.23739,31.46054],[75.28568,31.48311],[75.31909,31.53941],[75.39872,31.58194],[75.42545,31.62712],[75.48329,31.65106],[75.48839,31.64868]]],[[[75.80442,31.37407],[75.90831,31.34578],[75.85424,31.29572],[75.86689,31.28247],[75.88485,31.29134],[75.91075,31.26246],[75.87537,31.24374],[75.87187,31.27384],[75.84214,31.2837],[75.85769,31.23498],[75.78498,31.20464],[75.77899,31.16563],[75.70682,31.16629],[75.6874,31.19712],[75.70972,31.21594],[75.70558,31.24028],[75.67143,31.24063],[75.67882,31.29428],[75.7027,31.28864],[75.68626,31.31942],[75.7202,31.31601],[75.70083,31.34737],[75.71195,31.34904],[75.75632,31.32856],[75.80047,31.37405],[75.80442,31.37407]]]]}},{"type":"Feature","properties":{"DISTRICT":"Ludhiana","ST_NM":"Punjab","ST_CEN_CD":3,"DT_CEN_CD":7,"censuscode":41},"geometry":{"type":"Polygon","coordinates":[[[75.93378,31.01057],[75.99146,31.01015],[76.00001,30.98896],[76.13476,30.98637],[76.21363,31.00645],[76.27184,30.97983],[76.30838,30.99162],[76.32148,30.8782],[76.3488,30.91232],[76.37428,30.87526],[76.33709,30.85871],[76.28499,30.87641],[76.25459,30.83619],[76.25233,30.79959],[76.27124,30.73268],[76.29108,30.71295],[76.31341,30.72553],[76.32714,30.70855],[76.34435,30.71366],[76.34484,30.67941],[76.31754,30.66237],[76.29851,30.67929],[76.23464,30.68878],[76.18552,30.66626],[76.17388,30.67794],[76.15127,30.63794],[76.11501,30.61355],[76.12392,30.59642],[76.10102,30.55998],[76.0378,30.58718],[76.02804,30.61486],[75.9377,30.56898],[75.92582,30.60551],[75.89581,30.60559],[75.87587,30.63002],[75.89493,30.66003],[75.83622,30.6878],[75.8175,30.66428],[75.78568,30.65925],[75.77033,30.67221],[75.76568,30.65607],[75.80017,30.63144],[75.78949,30.6232],[75.76276,30.63775],[75.73128,30.61578],[75.71089,30.64047],[75.67029,30.64985],[75.62639,30.61368],[75.55094,30.63329],[75.54561,30.61669],[75.55839,30.61269],[75.53995,30.59394],[75.52867,30.61245],[75.51816,30.59854],[75.4677,30.60526],[75.42757,30.58348],[75.39942,30.59104],[75.40164,30.61685],[75.37785,30.62275],[75.37133,30.68889],[75.39671,30.80893],[75.37138,30.83958],[75.40715,30.89386],[75.37812,30.91186],[75.35543,30.9889],[75.60261,30.96893],[75.75987,31.01499],[75.79923,30.99396],[75.91735,31.01921],[75.93378,31.01057]]]}},{"type":"Feature","properties":{"DISTRICT":"Mansa","ST_NM":"Punjab","ST_CEN_CD":3,"DT_CEN_CD":13,"censuscode":47},"geometry":{"type":"Polygon","coordinates":[[[75.62024,30.14114],[75.65648,30.11051],[75.62924,30.08105],[75.64231,30.03027],[75.68244,30.03872],[75.69192,30.01423],[75.65304,29.98218],[75.64087,29.93514],[75.66741,29.92682],[75.6735,29.90866],[75.70487,29.91824],[75.70878,29.93371],[75.76657,29.91826],[75.75772,29.86045],[75.77663,29.85232],[75.7747,29.83458],[75.71656,29.80569],[75.69794,29.74882],[75.66694,29.77318],[75.63586,29.77039],[75.62366,29.74363],[75.57918,29.73986],[75.56683,29.76312],[75.54061,29.77005],[75.52207,29.75741],[75.45466,29.80537],[75.45414,29.78369],[75.40748,29.75859],[75.38891,29.70887],[75.34542,29.69149],[75.36048,29.65686],[75.32773,29.66835],[75.31745,29.6302],[75.29043,29.60779],[75.31434,29.58609],[75.30586,29.56569],[75.23316,29.54388],[75.2209,29.58018],[75.23102,29.60433],[75.18313,29.62797],[75.16767,29.66066],[75.2052,29.68566],[75.20367,29.72313],[75.24105,29.74996],[75.20807,29.79421],[75.21109,29.82801],[75.18662,29.84155],[75.21567,29.85732],[75.21298,29.87886],[75.18495,29.88329],[75.16951,29.92416],[75.19187,29.97743],[75.23462,29.9568],[75.25338,29.97986],[75.27437,29.96996],[75.27934,30.00021],[75.30317,30.01444],[75.26066,30.01643],[75.25443,30.04009],[75.27798,30.05765],[75.26145,30.05906],[75.26426,30.10609],[75.34589,30.1297],[75.35965,30.18717],[75.39042,30.21],[75.41771,30.18799],[75.46429,30.19642],[75.51166,30.14365],[75.60589,30.13463],[75.62024,30.14114]]]}},{"type":"Feature","properties":{"DISTRICT":"Moga","ST_NM":"Punjab","ST_CEN_CD":3,"DT_CEN_CD":8,"censuscode":42},"geometry":{"type":"Polygon","coordinates":[[[75.13239,31.09186],[75.15398,31.08196],[75.17093,31.09375],[75.17475,31.07905],[75.2295,31.06567],[75.24115,31.04615],[75.29515,31.03406],[75.3069,31.00072],[75.35543,30.9889],[75.37812,30.91186],[75.40715,30.89386],[75.37138,30.83958],[75.39713,30.80386],[75.37789,30.74834],[75.38662,30.71589],[75.37114,30.70587],[75.37785,30.62275],[75.40437,30.61283],[75.39942,30.59104],[75.42144,30.55093],[75.40046,30.52915],[75.34866,30.51486],[75.32085,30.53548],[75.28563,30.50735],[75.26049,30.52037],[75.18727,30.50643],[75.17464,30.56261],[75.14576,30.58082],[75.12297,30.56193],[75.12989,30.52235],[75.08461,30.52837],[75.05387,30.49905],[74.99979,30.48796],[74.99181,30.54323],[74.94581,30.56979],[74.92721,30.5393],[74.90355,30.54917],[74.91654,30.58488],[74.95542,30.59286],[74.95543,30.67432],[74.915,30.68002],[74.90594,30.70168],[74.91259,30.77149],[74.9496,30.82941],[74.94531,30.87703],[75.05937,30.9601],[75.06259,30.99521],[75.02561,31.0191],[75.03072,31.03626],[75.0518,31.0319],[75.06247,31.05523],[75.08388,31.04287],[75.11393,31.09225],[75.13265,31.097],[75.13239,31.09186]]]}},{"type":"Feature","properties":{"DISTRICT":"Muktsar","ST_NM":"Punjab","ST_CEN_CD":3,"DT_CEN_CD":10,"censuscode":44},"geometry":{"type":"Polygon","coordinates":[[[74.82226,30.39311],[74.78641,30.3392],[74.72405,30.36531],[74.70221,30.35573],[74.78524,30.33521],[74.72571,30.30791],[74.75221,30.28581],[74.72079,30.25189],[74.71479,30.19681],[74.7369,30.1808],[74.69998,30.1592],[74.65828,30.16328],[74.6322,30.12974],[74.64984,30.11134],[74.68373,30.11137],[74.67634,30.08783],[74.70542,30.06505],[74.69622,30.03333],[74.71725,30.01428],[74.7073,29.97039],[74.64964,29.92182],[74.6567,29.90396],[74.59549,29.91421],[74.53435,29.95119],[74.45158,29.94692],[74.42646,29.99705],[74.46452,30.00292],[74.45492,30.02135],[74.40839,30.02642],[74.38898,30.07295],[74.36697,30.085],[74.3774,30.10895],[74.41508,30.09532],[74.37437,30.15058],[74.33679,30.16154],[74.35702,30.23961],[74.28697,30.23143],[74.26158,30.24627],[74.28294,30.27297],[74.2984,30.26338],[74.3215,30.32885],[74.31691,30.38746],[74.35493,30.38089],[74.35756,30.39768],[74.25181,30.42371],[74.3287,30.44609],[74.34682,30.483],[74.37583,30.48358],[74.37358,30.51454],[74.39893,30.52754],[74.40365,30.55714],[74.42866,30.54919],[74.46339,30.62721],[74.49289,30.63865],[74.47937,30.65819],[74.50437,30.66755],[74.56094,30.66319],[74.61887,30.63759],[74.64734,30.59381],[74.71044,30.55755],[74.68762,30.52096],[74.737,30.49311],[74.75947,30.4963],[74.73233,30.45948],[74.75563,30.43325],[74.75342,30.39384],[74.82226,30.39312],[74.82226,30.39311]]]}},{"type":"Feature","properties":{"DISTRICT":"Patiala","ST_NM":"Punjab","ST_CEN_CD":3,"DT_CEN_CD":14,"censuscode":48},"geometry":{"type":"MultiPolygon","coordinates":[[[[76.64044,30.66397],[76.6297,30.62612],[76.66444,30.61098],[76.66322,30.58309],[76.68807,30.59305],[76.69187,30.56909],[76.71838,30.58889],[76.73429,30.54329],[76.79035,30.50626],[76.80486,30.47793],[76.79185,30.44906],[76.71267,30.38963],[76.7306,30.3731],[76.72385,30.36113],[76.75102,30.35561],[76.72761,30.32888],[76.68703,30.32196],[76.67477,30.29556],[76.63512,30.28743],[76.62207,30.26666],[76.55983,30.26105],[76.54463,30.22325],[76.5962,30.2526],[76.62417,30.227],[76.6164,30.21119],[76.65107,30.20191],[76.63968,30.15106],[76.54549,30.07879],[76.51294,30.07268],[76.50265,30.09323],[76.46092,30.10094],[76.42217,30.19856],[76.39291,30.17954],[76.41351,30.15398],[76.3964,30.14207],[76.40183,30.12378],[76.33767,30.14559],[76.36069,30.12396],[76.33462,30.10454],[76.26284,30.11544],[76.21559,30.15543],[76.22362,30.13157],[76.20227,30.1315],[76.26666,30.101],[76.20989,30.03438],[76.22694,30.02355],[76.20238,30.01286],[76.2152,29.94049],[76.19023,29.94268],[76.17754,29.92508],[76.19328,29.91963],[76.19585,29.88494],[76.25325,29.86529],[76.12738,29.7928],[76.10155,29.80727],[76.12589,29.85434],[76.06797,29.84275],[76.06019,29.86842],[76.0274,29.86782],[76.01975,29.89105],[75.98266,29.90691],[75.99127,29.94746],[76.01606,29.94409],[76.03153,29.96449],[76.00514,30.00368],[76.0137,30.02192],[76.05772,30.07385],[76.09078,30.0638],[76.10749,30.11223],[76.07926,30.11717],[76.0801,30.13808],[76.06254,30.14289],[76.07262,30.15417],[76.05037,30.18851],[76.06345,30.21298],[76.15532,30.25406],[76.16729,30.23992],[76.20342,30.28411],[76.18297,30.30592],[76.16718,30.30153],[76.16725,30.31913],[76.08739,30.30902],[76.04843,30.33678],[75.99037,30.33785],[75.99266,30.37055],[76.00887,30.3641],[76.04869,30.43366],[76.08956,30.45574],[76.06322,30.4824],[76.08288,30.52058],[76.2324,30.56033],[76.27974,30.55486],[76.29293,30.57423],[76.32269,30.54324],[76.3358,30.49829],[76.31948,30.48106],[76.33578,30.47892],[76.33921,30.45509],[76.32476,30.43945],[76.3723,30.43255],[76.38666,30.41111],[76.41603,30.42419],[76.41098,30.44164],[76.44699,30.44828],[76.47895,30.4306],[76.50379,30.47338],[76.48901,30.49921],[76.50106,30.56118],[76.5785,30.56868],[76.55741,30.59721],[76.56863,30.61144],[76.5923,30.60416],[76.57752,30.66393],[76.63477,30.67782],[76.63975,30.66733],[76.64044,30.66397]]],[[[75.96876,29.91484],[75.97948,29.9061],[75.96051,29.89116],[75.93139,29.90989],[75.96573,29.91446],[75.96998,29.93101],[75.96866,29.91692],[75.96876,29.91484]]]]}},{"type":"Feature","properties":{"DISTRICT":"Rupnagar","ST_NM":"Punjab","ST_CEN_CD":3,"DT_CEN_CD":17,"censuscode":51},"geometry":{"type":"Polygon","coordinates":[[[76.41025,30.75847],[76.4201,30.79804],[76.39263,30.80848],[76.39227,30.83069],[76.34845,30.83006],[76.32852,30.84952],[76.37488,30.87796],[76.3488,30.91232],[76.32148,30.8782],[76.30838,30.99162],[76.36244,30.97064],[76.51185,30.97983],[76.52,30.99508],[76.46621,31.04013],[76.42668,31.12451],[76.38745,31.14881],[76.33551,31.22673],[76.35173,31.23826],[76.29191,31.29984],[76.31622,31.32381],[76.30996,31.33971],[76.35069,31.35044],[76.32995,31.3999],[76.37334,31.4131],[76.37737,31.43884],[76.40454,31.39473],[76.39339,31.38857],[76.4623,31.30319],[76.44513,31.28006],[76.48075,31.30738],[76.50259,31.27051],[76.5283,31.28016],[76.53209,31.25937],[76.55121,31.281],[76.54893,31.25238],[76.58457,31.27714],[76.61564,31.24783],[76.59456,31.21326],[76.63995,31.22395],[76.6494,31.20982],[76.60429,31.17973],[76.60311,31.12452],[76.63952,31.10698],[76.61263,31.05028],[76.62364,31.00091],[76.67618,30.96769],[76.72617,30.9599],[76.73903,30.93897],[76.53435,30.85032],[76.55967,30.78704],[76.50757,30.7495],[76.41348,30.75755],[76.41025,30.75847]]]}},{"type":"Feature","properties":{"DISTRICT":"Sahibzada Ajit Singh Nagar","ST_NM":"Punjab","ST_CEN_CD":3,"DT_CEN_CD":18,"censuscode":52},"geometry":{"type":"Polygon","coordinates":[[[76.73956,30.93578],[76.78337,30.90276],[76.78249,30.87286],[76.84117,30.82879],[76.86016,30.78869],[76.84147,30.75996],[76.81471,30.75897],[76.81108,30.78149],[76.79422,30.7701],[76.76422,30.79314],[76.70381,30.75642],[76.70385,30.74299],[76.75157,30.68537],[76.80746,30.66546],[76.83295,30.68195],[76.83191,30.65668],[76.84788,30.65189],[76.87539,30.67533],[76.87166,30.63665],[76.92368,30.60177],[76.9116,30.58435],[76.91891,30.55429],[76.89797,30.53633],[76.93324,30.51388],[76.92523,30.48951],[76.90175,30.48046],[76.9016,30.43694],[76.91789,30.40048],[76.94412,30.39282],[76.90488,30.35545],[76.88904,30.35914],[76.89288,30.38203],[76.84515,30.42977],[76.82111,30.40777],[76.77696,30.42098],[76.77016,30.43671],[76.80486,30.47793],[76.79035,30.50626],[76.73429,30.54329],[76.71838,30.58889],[76.69187,30.56909],[76.68807,30.59305],[76.66322,30.58309],[76.66444,30.61098],[76.6297,30.62612],[76.63477,30.67782],[76.57916,30.66552],[76.58743,30.65139],[76.55558,30.64084],[76.55671,30.62802],[76.52834,30.63955],[76.57088,30.67411],[76.54682,30.71042],[76.51545,30.71168],[76.54456,30.72748],[76.53335,30.76508],[76.55967,30.78704],[76.53435,30.85032],[76.73903,30.93897],[76.73956,30.93578]]]}},{"type":"Feature","properties":{"DISTRICT":"Sangrur","ST_NM":"Punjab","ST_CEN_CD":3,"DT_CEN_CD":19,"censuscode":53},"geometry":{"type":"Polygon","coordinates":[[[75.85355,30.67057],[75.88079,30.67501],[75.89493,30.66003],[75.87587,30.63002],[75.89581,30.60559],[75.92582,30.60551],[75.9377,30.56898],[76.02804,30.61486],[76.03553,30.58924],[76.08359,30.56179],[76.08925,30.53068],[76.06322,30.4824],[76.08956,30.45574],[76.04869,30.43366],[76.00887,30.3641],[75.99266,30.37055],[75.99037,30.33785],[76.04843,30.33678],[76.08739,30.30902],[76.16725,30.31913],[76.16718,30.30153],[76.18297,30.30592],[76.20342,30.28411],[76.16729,30.23992],[76.15532,30.25406],[76.11563,30.2301],[76.07714,30.2291],[76.05037,30.18851],[76.07262,30.15417],[76.06254,30.14289],[76.08036,30.13748],[76.07193,30.12637],[76.10749,30.11223],[76.09078,30.0638],[76.05772,30.07385],[76.0137,30.02192],[76.00514,30.00368],[76.03153,29.96449],[76.01606,29.94409],[75.99127,29.94746],[75.98266,29.90691],[76.01975,29.89105],[76.0274,29.86782],[76.06019,29.86842],[76.06797,29.84275],[76.12578,29.85016],[76.05232,29.74525],[76.02841,29.75259],[75.98329,29.72893],[75.87446,29.74908],[75.83072,29.81225],[75.80677,29.80403],[75.78236,29.82235],[75.73666,29.80854],[75.7747,29.83458],[75.77663,29.85232],[75.75772,29.86045],[75.76657,29.91826],[75.70878,29.93371],[75.70487,29.91824],[75.6735,29.90866],[75.66741,29.92682],[75.64087,29.93514],[75.65304,29.98218],[75.69153,30.00748],[75.69008,30.02334],[75.67764,30.03958],[75.64231,30.03027],[75.62924,30.08105],[75.65648,30.11051],[75.62656,30.14239],[75.57952,30.14172],[75.5593,30.179],[75.58481,30.22839],[75.61199,30.21721],[75.64732,30.23805],[75.6923,30.22988],[75.72496,30.26641],[75.72054,30.28402],[75.67396,30.28967],[75.65408,30.32718],[75.68689,30.35135],[75.66819,30.37781],[75.67036,30.42185],[75.65072,30.44007],[75.67933,30.47265],[75.65942,30.47878],[75.68408,30.51531],[75.65682,30.54367],[75.68552,30.60848],[75.66513,30.61323],[75.65579,30.6353],[75.68749,30.64995],[75.73128,30.61578],[75.76276,30.63775],[75.78949,30.6232],[75.80017,30.63144],[75.76568,30.65607],[75.77033,30.67221],[75.78568,30.65925],[75.8175,30.66428],[75.84303,30.6863],[75.85355,30.67057]],[[75.96672,29.92356],[75.937,29.91767],[75.93488,29.90252],[75.9743,29.89578],[75.96817,29.92659],[75.96672,29.92356]]]}},{"type":"Feature","properties":{"DISTRICT":"Shahid Bhagat Singh Nagar","ST_NM":"Punjab","ST_CEN_CD":3,"DT_CEN_CD":5,"censuscode":39},"geometry":{"type":"Polygon","coordinates":[[[75.892,31.27575],[75.94491,31.27308],[75.95411,31.25596],[75.99506,31.25977],[76.00384,31.24452],[76.02567,31.25898],[76.04976,31.21446],[76.08933,31.22456],[76.10311,31.17831],[76.19321,31.13027],[76.20864,31.1412],[76.19763,31.18787],[76.22306,31.20171],[76.24681,31.24551],[76.30871,31.21204],[76.33871,31.22576],[76.38745,31.14881],[76.42668,31.12451],[76.46621,31.04013],[76.52,30.99508],[76.51434,30.98201],[76.36244,30.97064],[76.32856,30.98002],[76.32731,30.99324],[76.27184,30.97983],[76.21363,31.00645],[76.13476,30.98637],[76.00001,30.98896],[75.99146,31.01015],[75.95362,31.01185],[75.89338,31.15615],[75.78498,31.20464],[75.85769,31.23498],[75.84214,31.2837],[75.87187,31.27384],[75.87537,31.24374],[75.91075,31.26246],[75.89657,31.26979],[75.892,31.27575]]]}},{"type":"Feature","properties":{"DISTRICT":"Tarn Taran","ST_NM":"Punjab","ST_CEN_CD":3,"DT_CEN_CD":16,"censuscode":50},"geometry":{"type":"Polygon","coordinates":[[[74.61309,31.49791],[74.65146,31.53375],[74.68723,31.52414],[74.73159,31.56364],[74.79276,31.57036],[74.8443,31.53017],[74.89574,31.5537],[74.89802,31.52881],[74.94127,31.52219],[74.95197,31.49815],[74.98101,31.52923],[74.99184,31.50865],[75.04798,31.54359],[75.08524,31.519],[75.10783,31.52216],[75.12379,31.49499],[75.18142,31.52873],[75.19912,31.49985],[75.22953,31.49096],[75.25191,31.50192],[75.27973,31.48306],[75.23739,31.46054],[75.22745,31.42399],[75.19206,31.43186],[75.19487,31.40833],[75.16357,31.38164],[75.16038,31.36381],[75.17272,31.36318],[75.13374,31.31114],[75.1081,31.3163],[75.09377,31.28367],[75.1039,31.27824],[75.08419,31.27239],[75.05081,31.1919],[74.96999,31.15395],[74.89685,31.16065],[74.85032,31.13424],[74.81039,31.13386],[74.80237,31.1142],[74.79089,31.13076],[74.76465,31.12881],[74.74444,31.10423],[74.71257,31.10471],[74.68879,31.13166],[74.64338,31.122],[74.63735,31.13802],[74.60718,31.13579],[74.60856,31.09171],[74.56396,31.08651],[74.55552,31.12267],[74.51668,31.13958],[74.51345,31.18273],[74.53455,31.24872],[74.5235,31.27357],[74.54456,31.3043],[74.53036,31.31627],[74.55281,31.33504],[74.55353,31.3669],[74.58796,31.38385],[74.60251,31.42272],[74.63125,31.43],[74.65199,31.41725],[74.64211,31.44584],[74.65495,31.4627],[74.61466,31.49705],[74.61309,31.49791]]]}}]}
