{"type":"FeatureCollection","properties":{"source":"DataMeet Community Maps Project - Districts/Census_2011","state":"Rajasthan","stateSlug":"rajasthan"},"features":[{"type":"Feature","properties":{"DISTRICT":"Ajmer","ST_NM":"Rajasthan","ST_CEN_CD":8,"DT_CEN_CD":21,"censuscode":119},"geometry":{"type":"MultiPolygon","coordinates":[[[[74.89253,26.97702],[74.98346,26.94117],[74.95785,26.84874],[74.91673,26.83685],[74.94259,26.74553],[74.98193,26.76191],[75.00866,26.74008],[74.9455,26.73228],[74.94437,26.72103],[74.96466,26.72213],[74.97425,26.67295],[75.01343,26.68696],[75.02145,26.66517],[75.06771,26.65052],[75.0647,26.62153],[75.08243,26.59587],[75.06219,26.55584],[75.07734,26.54296],[75.10433,26.55589],[75.12355,26.54678],[75.11593,26.52348],[75.15291,26.50008],[75.14514,26.47383],[75.16214,26.47194],[75.17679,26.44409],[75.16672,26.41464],[75.12975,26.39682],[75.14453,26.37418],[75.12606,26.3547],[75.13689,26.30584],[75.11342,26.28486],[75.1174,26.2519],[75.14339,26.24399],[75.15578,26.21834],[75.15861,26.18263],[75.18813,26.16343],[75.18815,26.10981],[75.22062,26.10703],[75.24602,26.07823],[75.28264,26.13884],[75.30704,26.14684],[75.33995,26.13062],[75.30698,26.06946],[75.35488,26.01432],[75.3279,25.99853],[75.30707,25.94136],[75.25142,25.93734],[75.24631,25.90917],[75.26617,25.88017],[75.26355,25.85292],[75.31134,25.85352],[75.35489,25.82977],[75.27628,25.69702],[75.23975,25.67885],[75.14888,25.71966],[75.13755,25.70055],[75.08667,25.69954],[75.09197,25.71844],[75.06771,25.75745],[75.08009,25.76938],[75.01019,25.80725],[75.04022,25.84188],[75.01674,25.85603],[74.99741,25.83966],[74.98656,25.86043],[74.92023,25.87781],[74.8019,25.87034],[74.70504,25.91931],[74.61842,25.90375],[74.55908,25.91371],[74.56665,25.87543],[74.52825,25.86506],[74.52254,25.91023],[74.48474,25.92809],[74.42489,25.92873],[74.38803,25.96305],[74.39079,26.00535],[74.34592,26.02259],[74.28185,25.9621],[74.2934,25.90897],[74.26881,25.95073],[74.26422,25.93358],[74.23225,25.93447],[74.23596,25.90719],[74.26762,25.87136],[74.22227,25.89797],[74.19678,25.85374],[74.17349,25.84421],[74.11752,25.86362],[74.11464,25.87969],[74.13802,25.88905],[74.16032,25.92868],[74.14446,25.94081],[74.1554,25.95764],[74.12563,25.96061],[74.17322,26.01033],[74.15423,26.02855],[74.16249,26.06631],[74.18294,26.02921],[74.24269,26.04998],[74.258,26.0976],[74.30433,26.13546],[74.27318,26.17384],[74.34225,26.19633],[74.36931,26.19012],[74.37016,26.23885],[74.40194,26.26691],[74.36461,26.29146],[74.30446,26.25193],[74.27271,26.26069],[74.25354,26.28622],[74.30551,26.33143],[74.29076,26.44896],[74.31655,26.45746],[74.33712,26.44271],[74.37539,26.48875],[74.42896,26.48595],[74.44325,26.50226],[74.47285,26.49053],[74.5933,26.62907],[74.61776,26.59994],[74.60162,26.58203],[74.61869,26.56583],[74.67395,26.59395],[74.72358,26.70185],[74.66539,26.71133],[74.69782,26.77113],[74.7494,26.77046],[74.75909,26.78908],[74.77901,26.7902],[74.77414,26.84873],[74.80481,26.85265],[74.85212,26.97503],[74.87769,26.97519],[74.89253,26.97702]]],[[[74.00887,25.86344],[74.08946,25.79245],[74.09328,25.76707],[74.01687,25.74659],[73.97786,25.7139],[74.01189,25.69816],[73.94903,25.65061],[73.90618,25.68521],[73.90659,25.7404],[73.93221,25.76974],[73.9243,25.79379],[73.94259,25.80382],[73.95101,25.84083],[73.97103,25.83423],[74.00584,25.8647],[74.00887,25.86344]]]]}},{"type":"Feature","properties":{"DISTRICT":"Alwar","ST_NM":"Rajasthan","ST_CEN_CD":8,"DT_CEN_CD":6,"censuscode":104},"geometry":{"type":"MultiPolygon","coordinates":[[[[76.86341,28.22005],[76.90575,28.20239],[76.89309,28.18643],[76.9708,28.13871],[76.92742,27.99231],[76.92778,27.91955],[76.94751,27.91371],[76.93519,27.82889],[76.91231,27.82735],[76.8917,27.71912],[76.92291,27.69548],[76.88922,27.69406],[76.91364,27.65064],[76.94253,27.66974],[76.97884,27.65176],[76.98372,27.61382],[76.93636,27.61241],[76.96165,27.53732],[77.02293,27.53801],[77.00215,27.55228],[77.00568,27.56612],[77.04874,27.55489],[77.03478,27.54735],[77.0672,27.53207],[77.02094,27.50822],[77.05528,27.47539],[77.06155,27.44584],[77.04856,27.43377],[77.0417,27.46031],[77.0059,27.44854],[76.94288,27.48282],[76.90744,27.51681],[76.92697,27.53125],[76.8998,27.53246],[76.88124,27.50898],[76.89768,27.4905],[76.92465,27.49037],[76.90087,27.45522],[76.92297,27.45877],[76.96334,27.41833],[76.99363,27.42672],[77.0101,27.39331],[77.03162,27.39821],[77.04568,27.37704],[77.07657,27.38878],[77.11219,27.35697],[77.2066,27.35242],[77.20878,27.33579],[77.14722,27.31132],[77.12346,27.25224],[77.04713,27.22433],[77.08721,27.19425],[77.09172,27.16009],[77.00377,27.15631],[76.9738,27.17958],[76.96491,27.14608],[76.9272,27.14062],[76.89932,27.16723],[76.91426,27.18188],[76.90662,27.23013],[76.87215,27.23123],[76.84358,27.20709],[76.84845,27.16781],[76.83118,27.16307],[76.83584,27.07652],[76.81871,27.0799],[76.81635,27.12301],[76.79724,27.13667],[76.78751,27.11272],[76.69483,27.11551],[76.6705,27.09384],[76.64367,27.09475],[76.62632,27.12866],[76.65373,27.16608],[76.59515,27.17805],[76.56247,27.17491],[76.55622,27.12819],[76.49428,27.11356],[76.47288,27.07896],[76.44373,27.09146],[76.43312,27.13313],[76.40932,27.12596],[76.40028,27.08095],[76.36434,27.05612],[76.29331,27.06372],[76.27751,27.18338],[76.20338,27.11889],[76.18479,27.13205],[76.18511,27.18456],[76.15885,27.18464],[76.16108,27.21896],[76.12823,27.19662],[76.14159,27.22564],[76.12551,27.23322],[76.12738,27.25117],[76.23334,27.41243],[76.2224,27.45569],[76.24777,27.5033],[76.21605,27.53693],[76.20259,27.62204],[76.24995,27.63017],[76.2417,27.66966],[76.25714,27.67087],[76.24691,27.68242],[76.25969,27.69999],[76.24623,27.76128],[76.27593,27.80195],[76.2905,27.80032],[76.25726,27.84511],[76.21376,27.84335],[76.19685,27.87175],[76.20653,27.89437],[76.17434,27.91048],[76.18745,27.96826],[76.16294,27.99445],[76.18232,28.01735],[76.22193,28.02709],[76.18547,28.05471],[76.27315,28.06409],[76.30535,28.02126],[76.34504,28.02492],[76.36294,28.06945],[76.30572,28.09637],[76.34794,28.10498],[76.36402,28.12371],[76.28658,28.16393],[76.2973,28.17802],[76.34439,28.17264],[76.38523,28.13331],[76.47957,28.14989],[76.50633,28.10173],[76.46944,28.10705],[76.45704,28.08833],[76.50612,28.05983],[76.4664,28.05711],[76.46213,28.04481],[76.54699,28.03416],[76.53941,27.97438],[76.55498,27.9664],[76.60745,28.00482],[76.66864,28.01398],[76.65989,28.09171],[76.69088,28.0927],[76.71874,28.12727],[76.74794,28.12393],[76.80039,28.15208],[76.81038,28.20645],[76.85956,28.22148],[76.86341,28.22005]]],[[[76.8788,27.14677],[76.89412,27.13966],[76.84482,27.13938],[76.87521,27.14921],[76.8788,27.14677]]]]}},{"type":"Feature","properties":{"DISTRICT":"Banswara","ST_NM":"Rajasthan","ST_CEN_CD":8,"DT_CEN_CD":27,"censuscode":125},"geometry":{"type":"Polygon","coordinates":[[[74.49053,23.90931],[74.52623,23.88267],[74.51839,23.83308],[74.56053,23.81172],[74.55515,23.73825],[74.52558,23.72992],[74.53249,23.67299],[74.52046,23.63722],[74.55198,23.61922],[74.64709,23.64183],[74.66784,23.66705],[74.77295,23.58874],[74.76319,23.52185],[74.73283,23.49771],[74.69974,23.5009],[74.65116,23.46067],[74.61218,23.45869],[74.59718,23.42712],[74.57268,23.41992],[74.56933,23.37516],[74.51765,23.31942],[74.5321,23.32049],[74.55191,23.27997],[74.57042,23.29831],[74.6449,23.25707],[74.69994,23.26943],[74.72096,23.23979],[74.69833,23.21765],[74.7497,23.22763],[74.71989,23.19427],[74.66779,23.19884],[74.60646,23.14224],[74.54393,23.12957],[74.54084,23.10441],[74.51037,23.08638],[74.46521,23.08286],[74.38898,23.10968],[74.32032,23.06046],[74.28002,23.09282],[74.28567,23.11654],[74.24354,23.1861],[74.20495,23.18994],[74.1839,23.15045],[74.15239,23.15571],[74.11968,23.18957],[74.13674,23.22479],[74.13109,23.26743],[74.09892,23.29376],[74.04156,23.29418],[74.02978,23.33045],[73.98778,23.33579],[73.95946,23.37959],[74.01245,23.44114],[74.03234,23.5442],[74.05927,23.56374],[74.0711,23.59887],[74.11845,23.60972],[74.13592,23.69175],[74.1227,23.72371],[74.14767,23.78123],[74.27928,23.83549],[74.36005,23.89832],[74.48508,23.91988],[74.49053,23.90931]]]}},{"type":"Feature","properties":{"DISTRICT":"Baran","ST_NM":"Rajasthan","ST_CEN_CD":8,"DT_CEN_CD":30,"censuscode":128},"geometry":{"type":"Polygon","coordinates":[[[76.71961,25.33754],[76.77519,25.30727],[76.84819,25.32557],[76.89849,25.31743],[76.94711,25.27038],[76.96407,25.29218],[77.02961,25.29608],[77.04481,25.32002],[77.081,25.33464],[77.21081,25.30635],[77.20384,25.32544],[77.22071,25.31941],[77.226,25.36832],[77.31122,25.43125],[77.36729,25.4078],[77.34225,25.32047],[77.36963,25.32787],[77.38065,25.30073],[77.35546,25.26667],[77.41222,25.2212],[77.4238,25.18795],[77.39646,25.18313],[77.40126,25.10697],[77.39236,25.11693],[77.30839,25.07887],[77.26779,25.11425],[77.175,25.10874],[77.16309,25.08331],[77.14551,25.09124],[77.11976,25.06415],[77.08247,25.05306],[76.99888,25.07503],[76.97374,25.05104],[76.88699,25.02924],[76.87941,25.00826],[76.85923,25.00546],[76.89607,24.91486],[76.92575,24.91195],[76.91869,24.88307],[76.95381,24.86806],[76.93133,24.84499],[76.83632,24.83549],[76.80618,24.81509],[76.85135,24.76526],[76.85189,24.74568],[76.91408,24.74207],[76.95651,24.76069],[76.97674,24.72692],[77.03148,24.70616],[77.06426,24.6377],[77.06905,24.55944],[77.05497,24.52187],[77.03659,24.52413],[77.00609,24.47327],[76.96464,24.45562],[76.91908,24.48305],[76.91736,24.53893],[76.88398,24.52069],[76.87062,24.54473],[76.84259,24.54384],[76.8185,24.52769],[76.85113,24.48296],[76.84546,24.43825],[76.80052,24.43277],[76.76389,24.45193],[76.71131,24.40477],[76.67557,24.43899],[76.64462,24.41635],[76.61932,24.4218],[76.58018,24.46428],[76.57861,24.49221],[76.54102,24.50625],[76.53823,24.56861],[76.52161,24.58994],[76.53134,24.66237],[76.4945,24.65186],[76.479,24.6643],[76.44509,24.76388],[76.44311,24.78298],[76.49661,24.82531],[76.56515,24.80741],[76.57548,24.85823],[76.4866,24.92032],[76.4735,24.92587],[76.46172,24.90811],[76.42147,24.97708],[76.35178,24.98876],[76.31429,24.95979],[76.21804,25.08418],[76.25475,25.18883],[76.25391,25.23771],[76.29386,25.2518],[76.3306,25.37882],[76.44099,25.37929],[76.44928,25.39934],[76.50897,25.42275],[76.58322,25.40184],[76.57924,25.4318],[76.59394,25.42661],[76.60749,25.38411],[76.6861,25.34058],[76.70826,25.34271],[76.71961,25.33754]]]}},{"type":"Feature","properties":{"DISTRICT":"Barmer","ST_NM":"Rajasthan","ST_CEN_CD":8,"DT_CEN_CD":17,"censuscode":115},"geometry":{"type":"Polygon","coordinates":[[[72.07268,26.34943],[72.10515,26.3152],[72.14082,26.32632],[72.15946,26.28098],[72.26855,26.19785],[72.34042,26.24441],[72.37426,26.22543],[72.40936,26.23897],[72.42703,26.28642],[72.46693,26.30095],[72.49164,26.29925],[72.50738,26.27861],[72.52471,26.28812],[72.55187,26.26438],[72.59615,26.27987],[72.6336,26.2282],[72.68435,26.19244],[72.69811,26.12136],[72.67874,26.0718],[72.69405,26.03646],[72.6101,26.0008],[72.62647,25.95735],[72.72471,25.92123],[72.75121,25.88174],[72.77695,25.88173],[72.80608,25.85286],[72.8343,25.86305],[72.84857,25.84175],[72.84229,25.82017],[72.80326,25.83177],[72.72689,25.77511],[72.72419,25.75547],[72.75986,25.72495],[72.68643,25.66985],[72.72043,25.60898],[72.58595,25.60204],[72.54881,25.56088],[72.56187,25.53134],[72.5116,25.50595],[72.46296,25.45435],[72.41145,25.43611],[72.34248,25.44632],[72.31688,25.38733],[72.25019,25.41615],[72.21632,25.40603],[72.1604,25.43424],[72.10748,25.42203],[72.08893,25.46531],[72.03341,25.47615],[71.92265,25.35518],[71.94997,25.32128],[71.93455,25.28435],[71.8887,25.26202],[71.89901,25.24442],[71.8495,25.20712],[71.83785,25.1483],[71.80362,25.1162],[71.79471,25.05321],[71.76399,25.0751],[71.73681,25.06924],[71.725,25.02727],[71.68246,24.98577],[71.62838,25.03438],[71.58864,25.02622],[71.53023,24.97385],[71.52721,25.00136],[71.50815,25.00858],[71.40723,24.96766],[71.38863,24.97836],[71.34224,24.94475],[71.34728,24.91846],[71.33202,24.8974],[71.31592,24.90589],[71.30632,24.89079],[71.32885,24.86811],[71.32544,24.84385],[71.25443,24.79549],[71.24354,24.80513],[71.26292,24.74834],[71.20951,24.69901],[71.18799,24.64849],[71.10997,24.67453],[71.0635,24.71808],[71.01436,24.82752],[70.93631,24.94128],[70.88552,25.15117],[70.75758,25.2727],[70.73547,25.32885],[70.66534,25.39757],[70.67945,25.52566],[70.66777,25.53225],[70.67311,25.66923],[70.65798,25.70581],[70.60895,25.71543],[70.52777,25.68587],[70.39073,25.67356],[70.27606,25.70926],[70.09927,25.93546],[70.08641,26.08786],[70.13605,26.15335],[70.19196,26.15314],[70.22432,26.1228],[70.26528,26.16551],[70.36018,26.14556],[70.41028,26.20054],[70.42786,26.19692],[70.43198,26.17792],[70.50251,26.17666],[70.56683,26.20258],[70.71621,26.21218],[70.71062,26.17228],[70.74266,26.14465],[70.87713,26.12817],[70.96112,26.02197],[70.96781,26.04966],[70.94288,26.08232],[71.02542,26.1153],[71.0513,26.14237],[71.01005,26.22463],[70.94319,26.22459],[70.95386,26.2491],[71.06346,26.29037],[71.06165,26.315],[71.07726,26.32525],[71.13891,26.30882],[71.19004,26.3889],[71.18526,26.40972],[71.22156,26.44652],[71.28873,26.46655],[71.32724,26.4197],[71.44761,26.51387],[71.4905,26.45689],[71.51961,26.48834],[71.59081,26.50192],[71.61423,26.48228],[71.6384,26.40421],[71.68459,26.38168],[71.70558,26.39051],[71.7572,26.3474],[71.81133,26.33233],[71.8424,26.37384],[71.88458,26.34085],[71.89476,26.30017],[72.06727,26.34923],[72.07268,26.34943]]]}},{"type":"Feature","properties":{"DISTRICT":"Bharatpur","ST_NM":"Rajasthan","ST_CEN_CD":8,"DT_CEN_CD":7,"censuscode":105},"geometry":{"type":"Polygon","coordinates":[[[77.28461,27.80099],[77.313,27.78242],[77.3211,27.73309],[77.30633,27.71309],[77.34527,27.69057],[77.35101,27.64741],[77.31981,27.60609],[77.35871,27.58778],[77.33894,27.56549],[77.34364,27.52441],[77.39094,27.5109],[77.4049,27.47217],[77.43809,27.45639],[77.42361,27.41971],[77.4403,27.39351],[77.5057,27.37566],[77.58299,27.321],[77.62261,27.33766],[77.62195,27.30902],[77.60009,27.29483],[77.65258,27.23314],[77.64788,27.21153],[77.68136,27.19461],[77.66294,27.16983],[77.61339,27.16275],[77.59898,27.11737],[77.50647,27.08952],[77.52548,27.08382],[77.52943,27.06154],[77.57379,27.07232],[77.56547,27.03122],[77.59199,27.03362],[77.63549,27.0098],[77.66514,27.01701],[77.68151,27.04583],[77.7117,26.99457],[77.73046,26.9946],[77.73468,27.0258],[77.76323,27.017],[77.74449,26.98248],[77.65699,26.9681],[77.43018,26.86142],[77.42516,26.8372],[77.44689,26.81355],[77.43619,26.76451],[77.45858,26.77506],[77.47194,26.76395],[77.43653,26.72804],[77.38411,26.70694],[77.34904,26.71148],[77.35235,26.75479],[77.33931,26.76448],[77.35164,26.80439],[77.29419,26.77954],[77.25906,26.81854],[77.20532,26.78114],[77.21038,26.80967],[77.16879,26.83118],[77.15847,26.82237],[77.1054,26.87373],[77.0781,26.85924],[77.05967,26.91269],[77.01758,26.92836],[77.01809,26.97175],[76.98622,27.02365],[77.011,27.02148],[76.97597,27.06836],[76.99566,27.10706],[76.9635,27.12726],[76.97134,27.17906],[77.00377,27.15631],[77.09752,27.16367],[77.08721,27.19425],[77.04713,27.22433],[77.12346,27.25224],[77.14722,27.31132],[77.20271,27.32574],[77.2081,27.35194],[77.14077,27.34627],[77.07657,27.38878],[77.04568,27.37704],[77.03162,27.39821],[77.0137,27.39057],[76.99363,27.42672],[76.96334,27.41833],[76.92297,27.45877],[76.90087,27.45522],[76.92465,27.49037],[76.89768,27.4905],[76.88124,27.50898],[76.8998,27.53246],[76.92697,27.53125],[76.90744,27.51681],[76.97382,27.45934],[77.02661,27.44877],[77.03578,27.46267],[77.05014,27.45382],[77.04128,27.43848],[77.06056,27.44172],[77.05528,27.47539],[77.02031,27.50258],[77.06582,27.53626],[77.00568,27.56612],[77.00215,27.55228],[77.02293,27.53801],[76.96165,27.53732],[76.94811,27.55477],[76.959,27.57049],[76.94078,27.57055],[76.9361,27.59784],[76.93636,27.61241],[76.98372,27.61382],[76.97868,27.66008],[77.00202,27.73631],[77.03748,27.74396],[77.06173,27.72243],[77.08777,27.73295],[77.07593,27.75832],[77.02921,27.77271],[77.039,27.80602],[77.07713,27.80614],[77.13519,27.77099],[77.16013,27.78632],[77.15936,27.81007],[77.18942,27.80315],[77.17741,27.7794],[77.20263,27.81642],[77.2405,27.78025],[77.27632,27.80641],[77.28461,27.80099]]]}},{"type":"Feature","properties":{"DISTRICT":"Bhilwara","ST_NM":"Rajasthan","ST_CEN_CD":8,"DT_CEN_CD":24,"censuscode":122},"geometry":{"type":"Polygon","coordinates":[[[75.31911,25.76375],[75.39105,25.75903],[75.40346,25.77438],[75.46442,25.71838],[75.42354,25.68604],[75.43522,25.62095],[75.36053,25.5343],[75.37357,25.50232],[75.36278,25.47661],[75.3075,25.41964],[75.28906,25.43265],[75.26478,25.41782],[75.27141,25.39608],[75.28823,25.40046],[75.3272,25.35989],[75.34456,25.32281],[75.44848,25.26123],[75.45277,25.15564],[75.40829,25.1041],[75.44979,25.06254],[75.45279,25.02567],[75.36129,25.01439],[75.35211,25.03791],[75.31293,25.0423],[75.20277,25.03084],[75.19341,25.05404],[75.20503,25.08939],[75.12856,25.10708],[75.12537,25.12262],[75.05989,25.11757],[75.02411,25.1361],[74.97421,25.10479],[74.96254,25.13867],[74.93849,25.15174],[74.92917,25.12692],[74.91641,25.14571],[74.89121,25.14226],[74.90336,25.18189],[74.86865,25.1775],[74.83656,25.146],[74.80367,25.15082],[74.78406,25.19809],[74.75044,25.21721],[74.74726,25.18203],[74.72755,25.16988],[74.71394,25.20531],[74.69022,25.17746],[74.65846,25.18257],[74.61338,25.14291],[74.57698,25.14844],[74.56462,25.13338],[74.53445,25.14633],[74.55362,25.17661],[74.51443,25.1815],[74.51212,25.20298],[74.4968,25.2065],[74.45876,25.16721],[74.41499,25.2025],[74.39574,25.18775],[74.39771,25.20479],[74.3733,25.19628],[74.38757,25.1715],[74.37979,25.15403],[74.35432,25.15003],[74.34582,25.1223],[74.28398,25.10263],[74.27293,25.06688],[74.23361,25.06909],[74.21657,25.04828],[74.18883,25.06011],[74.19009,25.10042],[74.1648,25.12736],[74.05649,25.14757],[74.0754,25.17891],[74.10179,25.18505],[74.12394,25.24219],[74.04622,25.23659],[74.02692,25.27212],[74.03625,25.29749],[74.01888,25.31047],[74.08298,25.30982],[74.07549,25.32493],[74.03406,25.33145],[74.01248,25.38166],[74.07604,25.4077],[74.0585,25.43942],[74.01617,25.43498],[74.02944,25.4639],[74.05284,25.4634],[74.03445,25.47348],[74.03997,25.49409],[74.09096,25.49016],[74.10279,25.51386],[74.07697,25.53796],[74.08428,25.55692],[74.0567,25.56937],[74.11952,25.6058],[74.12682,25.64798],[74.07653,25.67737],[74.10429,25.71927],[74.19589,25.73925],[74.18822,25.76242],[74.20695,25.77413],[74.19903,25.7987],[74.21558,25.80577],[74.19325,25.82059],[74.17025,25.81378],[74.18355,25.84833],[74.22471,25.84349],[74.303,25.89343],[74.34128,25.8994],[74.33482,25.94027],[74.38894,25.96226],[74.43535,25.92427],[74.48474,25.92809],[74.52935,25.90137],[74.52825,25.86506],[74.56665,25.87543],[74.55908,25.91371],[74.61842,25.90375],[74.70504,25.91931],[74.8019,25.87034],[74.90458,25.88082],[74.98656,25.86043],[74.99741,25.83966],[75.01674,25.85603],[75.04022,25.84188],[75.01019,25.80725],[75.02997,25.78616],[75.07466,25.77631],[75.07235,25.73285],[75.09197,25.71844],[75.08667,25.69954],[75.10886,25.69344],[75.16074,25.71949],[75.25466,25.68081],[75.31789,25.7623],[75.31911,25.76375]],[[74.1864,25.56856],[74.16823,25.58667],[74.18083,25.56604],[74.1864,25.56856]],[[74.14601,25.66883],[74.15719,25.67999],[74.13805,25.68024],[74.13798,25.66823],[74.14601,25.66883]]]}},{"type":"Feature","properties":{"DISTRICT":"Bikaner","ST_NM":"Rajasthan","ST_CEN_CD":8,"DT_CEN_CD":3,"censuscode":101},"geometry":{"type":"Polygon","coordinates":[[[73.78488,29.04108],[73.79994,29.04092],[73.7985,29.00713],[73.84229,28.96947],[73.84682,28.93798],[73.96891,28.97627],[73.95954,28.94588],[73.97511,28.90369],[74.02629,28.93334],[74.02228,28.98655],[74.04247,29.01231],[74.07116,28.96928],[74.06694,28.93816],[74.11394,28.93748],[74.11289,28.89938],[74.13024,28.87529],[74.12606,28.83904],[74.09305,28.8255],[74.05925,28.77744],[74.13595,28.79561],[74.16247,28.76402],[74.1379,28.74126],[74.19257,28.72034],[74.08221,28.66917],[74.1084,28.58917],[74.05903,28.52381],[74.06021,28.44553],[74.07884,28.42532],[74.03748,28.40578],[74.02978,28.37624],[74.06798,28.33345],[74.13171,28.34557],[74.152,28.31967],[74.19799,28.32554],[74.19838,28.2864],[74.23554,28.25052],[74.32485,28.25464],[74.35897,28.20948],[74.34073,28.16379],[74.29793,28.14505],[74.27934,28.09183],[74.29745,28.05189],[74.24212,27.99924],[74.23545,27.96306],[74.25214,27.93143],[74.2208,27.88183],[74.22755,27.81692],[74.17312,27.7947],[74.12069,27.79748],[74.04778,27.72219],[73.99821,27.73392],[74.03042,27.77057],[73.99094,27.80661],[73.86929,27.77961],[73.87812,27.69868],[73.85893,27.65956],[73.89629,27.6023],[73.87586,27.58001],[73.87824,27.53941],[73.79636,27.49773],[73.76172,27.53335],[73.70448,27.51861],[73.65706,27.56406],[73.61705,27.53796],[73.62755,27.51511],[73.61207,27.48931],[73.57964,27.48102],[73.53972,27.49405],[73.50615,27.43378],[73.50539,27.39527],[73.5262,27.37512],[73.49464,27.36042],[73.5042,27.33334],[73.3752,27.26047],[73.35858,27.22521],[73.37387,27.21074],[73.3534,27.18655],[73.28406,27.25513],[73.24968,27.32577],[73.21347,27.30441],[73.20825,27.27776],[73.16306,27.29483],[73.14531,27.39015],[73.12062,27.40809],[73.04248,27.41041],[72.98758,27.38385],[72.94841,27.40436],[72.9396,27.44756],[72.90212,27.41515],[72.89486,27.45071],[72.85976,27.44317],[72.88262,27.47694],[72.83075,27.46614],[72.82218,27.48784],[72.81956,27.51626],[72.84759,27.53367],[72.85029,27.55513],[72.83411,27.58352],[72.77374,27.56316],[72.76616,27.52295],[72.69604,27.6044],[72.66056,27.53233],[72.60389,27.60663],[72.56017,27.61846],[72.50164,27.5836],[72.44942,27.58579],[72.43749,27.56156],[72.36783,27.52767],[72.36112,27.48992],[72.32684,27.51366],[72.27849,27.46559],[72.2552,27.46095],[72.25181,27.50726],[72.2841,27.51524],[72.29611,27.54288],[72.26317,27.55775],[72.30349,27.59961],[72.34313,27.69182],[72.29986,27.70762],[72.22645,27.65713],[72.18046,27.69935],[72.10889,27.70512],[72.09366,27.73609],[72.15556,27.77968],[72.14556,27.87266],[72.03227,27.94929],[71.99343,27.9431],[71.95212,27.91194],[71.92435,27.92146],[71.89757,27.96263],[71.93504,28.13269],[71.99908,28.21411],[72.12871,28.3088],[72.20521,28.39036],[72.30212,28.67343],[72.38886,28.7688],[72.64845,28.90319],[72.74683,28.78265],[72.76534,28.79981],[72.9244,28.73087],[72.95761,28.73985],[73.01115,28.71379],[73.04537,28.74848],[73.15002,28.78398],[73.16864,28.82686],[73.22593,28.8527],[73.19736,28.88418],[73.22781,28.92972],[73.28026,28.94041],[73.28523,28.96782],[73.3454,29.0059],[73.38768,29.01016],[73.43499,28.99056],[73.48672,29.01198],[73.52081,28.99456],[73.55685,29.00887],[73.56858,28.99622],[73.62912,29.03772],[73.66579,29.01835],[73.70204,29.03699],[73.74243,29.00757],[73.78437,29.05054],[73.78488,29.04108]]]}},{"type":"Feature","properties":{"DISTRICT":"Bundi","ST_NM":"Rajasthan","ST_CEN_CD":8,"DT_CEN_CD":23,"censuscode":121},"geometry":{"type":"Polygon","coordinates":[[[76.15723,25.76174],[76.14598,25.74525],[76.18268,25.7106],[76.2407,25.69118],[76.26101,25.6691],[76.29728,25.69633],[76.32538,25.65018],[76.29857,25.62613],[76.29269,25.54472],[76.27479,25.51094],[76.20903,25.48427],[76.18492,25.49246],[76.17535,25.43839],[76.13812,25.40587],[76.15311,25.39214],[76.13814,25.3701],[76.16015,25.35453],[76.15227,25.33567],[76.13087,25.34386],[76.11295,25.32865],[76.0742,25.34937],[76.06497,25.32841],[76.02494,25.31437],[76.03336,25.27696],[75.98175,25.23079],[75.94945,25.2755],[75.87939,25.225],[75.82979,25.22657],[75.81989,25.23404],[75.83397,25.24459],[75.79392,25.25794],[75.78894,25.21115],[75.73619,25.16555],[75.75017,25.14072],[75.72712,25.11886],[75.76174,25.10664],[75.74313,25.07208],[75.63654,24.99952],[75.58914,25.02333],[75.45216,25.02335],[75.44979,25.06254],[75.40829,25.1041],[75.45277,25.15564],[75.44848,25.26123],[75.34456,25.32281],[75.3272,25.35989],[75.28823,25.40046],[75.27141,25.39608],[75.26478,25.41782],[75.28906,25.43265],[75.3075,25.41964],[75.36278,25.47661],[75.37357,25.50232],[75.36053,25.5343],[75.43522,25.62095],[75.42354,25.68604],[75.47731,25.73473],[75.52277,25.74721],[75.54547,25.70406],[75.59682,25.71083],[75.59571,25.68491],[75.62249,25.67695],[75.63169,25.70875],[75.68108,25.75447],[75.76147,25.75631],[75.7733,25.82248],[75.80214,25.8222],[75.82226,25.79677],[75.83803,25.80377],[75.84193,25.84706],[75.89401,25.86877],[75.91798,25.84414],[75.9055,25.81445],[75.94733,25.81606],[75.95729,25.86458],[75.98227,25.85807],[76.01583,25.88158],[76.02809,25.86493],[76.06071,25.86225],[76.06059,25.80831],[76.10236,25.81009],[76.11462,25.78751],[76.15588,25.77093],[76.15723,25.76174]]]}},{"type":"Feature","properties":{"DISTRICT":"Chittaurgarh","ST_NM":"Rajasthan","ST_CEN_CD":8,"DT_CEN_CD":28,"censuscode":126},"geometry":{"type":"MultiPolygon","coordinates":[[[[74.78757,25.1817],[74.79541,25.15385],[74.83656,25.146],[74.86865,25.1775],[74.90336,25.18189],[74.89121,25.14226],[74.91641,25.14571],[74.92917,25.12692],[74.93849,25.15174],[74.96254,25.13867],[74.97421,25.10479],[75.02411,25.1361],[75.05989,25.11757],[75.12537,25.12262],[75.12856,25.10708],[75.20503,25.08939],[75.1986,25.03943],[75.16127,25.04186],[75.16647,24.98805],[75.12103,24.97119],[75.12071,24.8855],[75.05804,24.87847],[75.04504,24.85578],[74.94628,24.87457],[74.95023,24.89146],[74.91395,24.89579],[74.902,24.93645],[74.88615,24.94649],[74.8686,24.93369],[74.85463,24.97149],[74.83409,24.96424],[74.82541,24.91162],[74.86026,24.82578],[74.84194,24.80022],[74.85261,24.78945],[74.8598,24.80984],[74.8793,24.80993],[74.91824,24.78389],[75.01443,24.7904],[75.02169,24.74935],[74.99483,24.74935],[75.00124,24.70511],[74.96344,24.6975],[74.94403,24.65708],[74.89389,24.65211],[74.85088,24.69545],[74.80039,24.7925],[74.80417,24.7517],[74.78099,24.73963],[74.7906,24.72351],[74.77615,24.68462],[74.81428,24.683],[74.81802,24.66852],[74.78425,24.63365],[74.7909,24.60764],[74.74865,24.59374],[74.7483,24.53318],[74.68091,24.48912],[74.61099,24.4749],[74.58445,24.49337],[74.54266,24.47859],[74.54549,24.41817],[74.50352,24.37257],[74.52074,24.3083],[74.46817,24.22182],[74.41673,24.24487],[74.41469,24.29211],[74.35315,24.33718],[74.36584,24.41044],[74.3282,24.45045],[74.3338,24.4935],[74.29872,24.48192],[74.26872,24.50394],[74.26837,24.46965],[74.24948,24.47323],[74.23934,24.44886],[74.21002,24.45547],[74.2488,24.53062],[74.27431,24.52557],[74.27911,24.56517],[74.22351,24.61613],[74.25864,24.63027],[74.25068,24.65322],[74.23112,24.65837],[74.22306,24.62821],[74.2064,24.62972],[74.21572,24.65736],[74.20459,24.66964],[74.15655,24.67641],[74.17266,24.71604],[74.11891,24.7394],[74.10661,24.78107],[74.13139,24.84585],[74.10682,24.86188],[74.13734,24.86213],[74.20078,24.9523],[74.20282,24.98614],[74.30721,24.99508],[74.31975,25.03199],[74.25949,25.06507],[74.27293,25.06688],[74.28398,25.10263],[74.34582,25.1223],[74.35432,25.15003],[74.37979,25.15403],[74.3876,25.18148],[74.3733,25.19628],[74.39771,25.20479],[74.40579,25.18647],[74.41499,25.2025],[74.45876,25.16721],[74.4968,25.2065],[74.51212,25.20298],[74.51443,25.1815],[74.55362,25.17661],[74.53445,25.14633],[74.56462,25.13338],[74.57698,25.14844],[74.61338,25.14291],[74.65846,25.18257],[74.69022,25.17746],[74.71394,25.20531],[74.72755,25.16988],[74.74726,25.18203],[74.75044,25.21721],[74.78406,25.19809],[74.78757,25.1817]]],[[[75.41075,25.02334],[75.61431,25.01719],[75.68627,24.92753],[75.76703,24.87336],[75.82184,24.86687],[75.78909,24.76137],[75.73358,24.75144],[75.6618,24.69767],[75.61585,24.68442],[75.58441,24.71872],[75.45413,24.68937],[75.26916,24.72904],[75.2259,24.73183],[75.21874,24.71878],[75.18733,24.76445],[75.20832,24.8063],[75.24871,24.81817],[75.25394,24.83348],[75.20332,24.88056],[75.21022,24.90636],[75.22546,24.88637],[75.25205,24.892],[75.22939,24.85549],[75.28105,24.84978],[75.30784,24.8096],[75.41947,24.86005],[75.42665,24.88888],[75.37427,24.87416],[75.3282,24.88324],[75.31348,24.86571],[75.26179,24.89613],[75.29528,24.91944],[75.26854,24.9582],[75.27816,24.973],[75.3161,24.89668],[75.33984,24.95931],[75.32489,25.00961],[75.39728,25.02462],[75.41075,25.02334]]]]}},{"type":"Feature","properties":{"DISTRICT":"Churu","ST_NM":"Rajasthan","ST_CEN_CD":8,"DT_CEN_CD":4,"censuscode":102},"geometry":{"type":"Polygon","coordinates":[[[75.45058,28.97555],[75.4972,28.89511],[75.4967,28.85642],[75.52205,28.83331],[75.50712,28.78437],[75.53748,28.74693],[75.56408,28.61112],[75.62645,28.59863],[75.63741,28.54236],[75.67382,28.5296],[75.66816,28.5088],[75.61399,28.50219],[75.60478,28.44603],[75.59062,28.44407],[75.61534,28.40625],[75.57173,28.4071],[75.57175,28.37777],[75.53563,28.38062],[75.50181,28.33687],[75.462,28.33807],[75.438,28.3644],[75.41854,28.36085],[75.41953,28.34152],[75.3831,28.33786],[75.33507,28.36694],[75.33042,28.39566],[75.25391,28.45974],[75.23469,28.4554],[75.21847,28.39041],[75.16718,28.37913],[75.15839,28.40758],[75.13154,28.40165],[75.16479,28.34472],[75.14888,28.29164],[75.05021,28.25307],[75.02958,28.19816],[74.8926,28.19186],[74.85662,28.13355],[74.79393,28.11301],[74.78697,28.08476],[74.8083,28.05828],[74.80344,28.03079],[74.76129,27.98768],[74.78118,27.95562],[74.82106,27.93799],[74.82907,27.91048],[74.7383,27.88914],[74.7296,27.86243],[74.76719,27.85407],[74.77999,27.83201],[74.79678,27.8369],[74.81732,27.79968],[74.74131,27.76444],[74.72733,27.71759],[74.75251,27.71684],[74.73703,27.67913],[74.62831,27.64822],[74.60679,27.67634],[74.62651,27.69783],[74.61093,27.70595],[74.54838,27.66192],[74.4016,27.69788],[74.34377,27.67938],[74.30913,27.64822],[74.31319,27.63419],[74.25727,27.6023],[74.23866,27.52644],[74.1964,27.4955],[74.19296,27.48056],[74.21223,27.46851],[74.20467,27.42378],[74.15411,27.41056],[74.13726,27.46061],[74.08214,27.47904],[74.03024,27.53487],[73.99403,27.50765],[73.89194,27.50163],[73.87586,27.58001],[73.89629,27.6023],[73.85893,27.65956],[73.87812,27.69868],[73.86929,27.77961],[73.99094,27.80661],[74.03042,27.77057],[73.99821,27.73392],[74.04778,27.72219],[74.12069,27.79748],[74.17312,27.7947],[74.22755,27.81692],[74.2208,27.88183],[74.25214,27.93143],[74.23545,27.96306],[74.24212,27.99924],[74.29745,28.05189],[74.27934,28.09183],[74.29793,28.14505],[74.34073,28.16379],[74.35913,28.20689],[74.32485,28.25464],[74.23554,28.25052],[74.19838,28.2864],[74.19799,28.32554],[74.152,28.31967],[74.13171,28.34557],[74.06798,28.33345],[74.02978,28.37624],[74.03748,28.40578],[74.07884,28.42532],[74.06021,28.44553],[74.05903,28.52381],[74.1084,28.58917],[74.08221,28.66917],[74.19438,28.71148],[74.17586,28.73409],[74.1379,28.74126],[74.17128,28.79366],[74.22203,28.81191],[74.27799,28.80032],[74.41592,28.88601],[74.43904,28.8318],[74.47042,28.82011],[74.57881,28.8289],[74.63335,28.81462],[74.6375,28.83681],[74.74169,28.85493],[74.75711,28.82848],[74.77792,28.82584],[74.80169,28.83412],[74.76874,28.88777],[74.78295,28.9136],[74.86234,28.9449],[74.90228,28.94012],[74.9194,28.89784],[74.93635,28.89394],[75.04005,28.93623],[75.04597,28.89337],[75.02779,28.85032],[75.14367,28.87345],[75.16997,28.84453],[75.19504,28.86931],[75.21975,28.85741],[75.24853,28.88376],[75.24742,28.93163],[75.29487,28.91778],[75.31285,28.95408],[75.29653,28.96426],[75.29925,28.98555],[75.35642,28.9686],[75.35891,28.94676],[75.33371,28.91661],[75.3574,28.91048],[75.39981,28.9423],[75.42357,28.99858],[75.45178,28.98006],[75.45058,28.97555]]]}},{"type":"Feature","properties":{"DISTRICT":"Dausa","ST_NM":"Rajasthan","ST_CEN_CD":8,"DT_CEN_CD":11,"censuscode":109},"geometry":{"type":"Polygon","coordinates":[[[76.9047,27.22563],[76.91426,27.18188],[76.90096,27.16278],[76.9272,27.14062],[76.96491,27.14608],[76.9635,27.12726],[76.99566,27.10706],[76.97479,27.07451],[77.00964,27.0274],[76.98622,27.02365],[77.01809,26.97175],[77.01758,26.92836],[77.05967,26.91269],[77.08366,26.85967],[76.96232,26.86187],[76.9528,26.91627],[76.90325,26.97083],[76.86071,26.99368],[76.81208,26.99691],[76.79391,26.9322],[76.7617,26.90055],[76.76761,26.87717],[76.61025,26.77047],[76.54006,26.77221],[76.47854,26.70588],[76.40682,26.55265],[76.41534,26.53843],[76.45857,26.548],[76.48056,26.49317],[76.41537,26.4141],[76.40647,26.37678],[76.34235,26.41039],[76.33112,26.45125],[76.25045,26.44074],[76.24632,26.46315],[76.1806,26.48564],[76.16237,26.50444],[76.15345,26.56744],[76.18351,26.63598],[76.17367,26.75486],[76.19227,26.80066],[76.24926,26.84222],[76.25396,26.88776],[76.23305,26.92846],[76.28241,27.08136],[76.29331,27.06372],[76.36434,27.05612],[76.40028,27.08095],[76.40932,27.12596],[76.43312,27.13313],[76.44373,27.09146],[76.47288,27.07896],[76.49428,27.11356],[76.55622,27.12819],[76.56247,27.17491],[76.59515,27.17805],[76.65373,27.16608],[76.62632,27.12866],[76.64367,27.09475],[76.6705,27.09384],[76.69483,27.11551],[76.78751,27.11272],[76.79724,27.13667],[76.81635,27.12301],[76.81871,27.0799],[76.83584,27.07652],[76.84315,27.11692],[76.82702,27.13419],[76.83118,27.16307],[76.85079,27.17252],[76.84358,27.20709],[76.87215,27.23123],[76.90662,27.23013],[76.9047,27.22563]]]}},{"type":"Feature","properties":{"DISTRICT":"Dhaulpur","ST_NM":"Rajasthan","ST_CEN_CD":8,"DT_CEN_CD":8,"censuscode":106},"geometry":{"type":"Polygon","coordinates":[[[78.21817,26.83028],[78.16927,26.82123],[78.1844,26.7857],[78.10806,26.79123],[78.10389,26.76603],[78.12426,26.74885],[78.0973,26.73233],[78.09382,26.6773],[78.00024,26.6969],[77.95584,26.65932],[77.90248,26.65649],[77.88723,26.61459],[77.82818,26.59416],[77.82069,26.54914],[77.75196,26.53961],[77.72152,26.49863],[77.6752,26.5027],[77.53013,26.40936],[77.43487,26.4014],[77.43954,26.3595],[77.38593,26.35835],[77.35628,26.39653],[77.3393,26.39622],[77.34361,26.42245],[77.31094,26.43953],[77.26265,26.42864],[77.23959,26.46966],[77.22715,26.53092],[77.24313,26.54919],[77.29047,26.5538],[77.3905,26.61658],[77.39315,26.63113],[77.34743,26.64022],[77.37178,26.65505],[77.34904,26.71148],[77.38411,26.70694],[77.48797,26.74827],[77.50435,26.76849],[77.48865,26.78219],[77.50573,26.84231],[77.52844,26.81637],[77.60802,26.83683],[77.61234,26.82713],[77.68631,26.87262],[77.72383,26.87562],[77.72694,26.91069],[77.76148,26.93199],[77.82948,26.92045],[77.89828,26.88369],[77.90816,26.91878],[77.95019,26.89401],[78.01495,26.90486],[78.0362,26.87035],[78.03027,26.85508],[78.05609,26.86901],[78.05057,26.90962],[78.10983,26.89918],[78.11647,26.94418],[78.14791,26.9513],[78.21372,26.93306],[78.22442,26.94811],[78.24123,26.92785],[78.26974,26.92593],[78.235,26.8768],[78.19955,26.88278],[78.22001,26.83264],[78.21817,26.83028]]]}},{"type":"Feature","properties":{"DISTRICT":"Dungarpur","ST_NM":"Rajasthan","ST_CEN_CD":8,"DT_CEN_CD":26,"censuscode":124},"geometry":{"type":"Polygon","coordinates":[[[74.27315,23.94853],[74.30236,23.96038],[74.32615,23.93635],[74.36688,23.93348],[74.38407,23.90579],[74.27928,23.83549],[74.14767,23.78123],[74.1227,23.72371],[74.13592,23.69175],[74.11845,23.60972],[74.0711,23.59887],[74.05927,23.56374],[74.03234,23.5442],[74.01245,23.44114],[73.92468,23.33614],[73.891,23.33544],[73.82885,23.44513],[73.77965,23.43308],[73.76128,23.45706],[73.72252,23.41122],[73.70059,23.45437],[73.64941,23.43917],[73.6289,23.4511],[73.65474,23.50278],[73.63347,23.54672],[73.65725,23.62155],[73.61545,23.65014],[73.5736,23.65416],[73.52837,23.61241],[73.50956,23.61572],[73.49718,23.63277],[73.50474,23.70225],[73.47541,23.70795],[73.41657,23.77841],[73.39605,23.7831],[73.37184,23.76584],[73.35705,23.79085],[73.36643,23.81357],[73.40849,23.8073],[73.43183,23.83696],[73.46448,23.84295],[73.51792,23.93085],[73.59242,23.96543],[73.67084,23.93899],[73.69683,23.9582],[73.84184,23.93344],[73.91791,23.98314],[74.08513,23.96942],[74.1274,23.99073],[74.14439,24.01926],[74.16027,24.01328],[74.17504,23.96954],[74.20544,23.95464],[74.22677,23.90935],[74.27514,23.93555],[74.27315,23.94853]]]}},{"type":"Feature","properties":{"DISTRICT":"Ganganagar","ST_NM":"Rajasthan","ST_CEN_CD":8,"DT_CEN_CD":1,"censuscode":99},"geometry":{"type":"Polygon","coordinates":[[[73.89849,29.97896],[74.30057,29.9564],[74.30578,29.94295],[74.28038,29.93726],[74.26294,29.90944],[74.26601,29.88874],[74.28391,29.88513],[74.28335,29.85337],[74.20679,29.84835],[74.21243,29.81803],[74.1726,29.79935],[74.14854,29.72971],[74.13363,29.7225],[74.13412,29.74839],[74.09967,29.73876],[74.08676,29.75624],[74.07539,29.70229],[74.02472,29.72657],[73.99206,29.7075],[73.99151,29.69539],[74.01455,29.69518],[73.99083,29.66588],[73.96342,29.67305],[73.927,29.65235],[73.91675,29.62643],[73.80227,29.59867],[73.8051,29.53997],[73.81455,29.52881],[73.85763,29.55738],[73.86878,29.52811],[73.85238,29.51852],[73.88774,29.51334],[73.92021,29.43678],[73.84328,29.39682],[73.86227,29.34953],[73.89179,29.35326],[73.93323,29.38644],[73.98684,29.34207],[74.02472,29.2826],[74.04543,29.28757],[74.09489,29.2578],[74.10738,29.28175],[74.16967,29.26929],[74.21371,29.29301],[74.23842,29.27136],[74.19908,29.18538],[74.20286,29.14982],[74.16737,29.13922],[74.13214,29.06513],[74.02907,29.0073],[74.02629,28.93334],[73.97511,28.90369],[73.95954,28.94588],[73.96891,28.97627],[73.84682,28.93798],[73.85241,28.9518],[73.7985,29.00713],[73.79994,29.04092],[73.78437,29.05054],[73.74243,29.00757],[73.70204,29.03699],[73.66579,29.01835],[73.62912,29.03772],[73.56858,28.99622],[73.55685,29.00887],[73.52081,28.99456],[73.48672,29.01198],[73.43499,28.99056],[73.38768,29.01016],[73.3454,29.0059],[73.28523,28.96782],[73.28026,28.94041],[73.22781,28.92972],[73.19736,28.88418],[73.22593,28.8527],[73.16864,28.82686],[73.15002,28.78398],[73.04537,28.74848],[73.01115,28.71379],[72.95761,28.73985],[72.9244,28.73087],[72.76534,28.79981],[72.74683,28.78265],[72.64845,28.90319],[72.94946,29.03311],[72.99881,29.14269],[73.09568,29.25206],[73.27867,29.5597],[73.39971,29.94069],[73.61998,30.02463],[73.79634,30.06815],[73.97591,30.19643],[73.97607,30.12248],[73.90761,30.05506],[73.89096,30.01265],[73.89754,29.98313],[73.89849,29.97896]]]}},{"type":"Feature","properties":{"DISTRICT":"Hanumangarh","ST_NM":"Rajasthan","ST_CEN_CD":8,"DT_CEN_CD":2,"censuscode":100},"geometry":{"type":"Polygon","coordinates":[[[74.04201,29.0097],[74.13653,29.06886],[74.16737,29.13922],[74.20286,29.14982],[74.19908,29.18538],[74.23842,29.27136],[74.21371,29.29301],[74.16967,29.26929],[74.10738,29.28175],[74.09489,29.2578],[74.04543,29.28757],[74.02472,29.2826],[73.98684,29.34207],[73.93323,29.38644],[73.89179,29.35326],[73.86227,29.34953],[73.84328,29.39682],[73.92021,29.43678],[73.88774,29.51334],[73.85238,29.51852],[73.86878,29.52811],[73.85763,29.55738],[73.81455,29.52881],[73.8051,29.53997],[73.80227,29.59867],[73.91675,29.62643],[73.927,29.65235],[73.96342,29.67305],[73.99083,29.66588],[74.01455,29.69518],[73.99151,29.69539],[73.99206,29.7075],[74.02472,29.72657],[74.07539,29.70229],[74.08676,29.75624],[74.09967,29.73876],[74.13412,29.74839],[74.13363,29.7225],[74.14854,29.72971],[74.1726,29.79935],[74.21243,29.81803],[74.20679,29.84835],[74.28361,29.85375],[74.28391,29.88513],[74.26601,29.88874],[74.26274,29.90854],[74.28038,29.93726],[74.30581,29.94228],[74.30057,29.9564],[74.52875,29.94299],[74.51464,29.90739],[74.54332,29.90218],[74.56313,29.86511],[74.54203,29.83878],[74.5011,29.82609],[74.47458,29.78716],[74.48124,29.74358],[74.53512,29.74078],[74.59605,29.7678],[74.61479,29.75211],[74.57551,29.56264],[74.62336,29.52612],[74.5877,29.45765],[74.55158,29.46569],[74.53782,29.44868],[74.53998,29.42409],[74.5665,29.41767],[74.60534,29.36109],[74.60434,29.32719],[74.65042,29.32997],[74.65888,29.37116],[74.76543,29.3545],[74.81849,29.39694],[74.85011,29.40247],[74.93616,29.36282],[74.95992,29.32418],[74.94902,29.30292],[74.96198,29.28],[74.99993,29.26973],[75.04891,29.28504],[75.08701,29.23021],[75.11713,29.22448],[75.12274,29.2406],[75.18909,29.26622],[75.23255,29.23244],[75.32859,29.2908],[75.32413,29.23329],[75.35452,29.22341],[75.36725,29.25187],[75.40801,29.25217],[75.39536,29.21842],[75.40984,29.18603],[75.37809,29.16714],[75.37022,29.1398],[75.4053,29.12554],[75.38975,29.10784],[75.38961,29.06741],[75.43927,29.06172],[75.44368,29.0135],[75.51412,29.01199],[75.52546,28.97219],[75.50643,28.93829],[75.47245,28.93445],[75.44877,28.98871],[75.42357,28.99858],[75.39981,28.9423],[75.3574,28.91048],[75.33371,28.91661],[75.35891,28.94676],[75.35642,28.9686],[75.29925,28.98555],[75.29653,28.96426],[75.31285,28.95408],[75.29487,28.91778],[75.24742,28.93163],[75.24853,28.88376],[75.21975,28.85741],[75.19504,28.86931],[75.16997,28.84453],[75.14367,28.87345],[75.02779,28.85032],[75.04597,28.89337],[75.04005,28.93623],[74.93635,28.89394],[74.9194,28.89784],[74.90228,28.94012],[74.86234,28.9449],[74.78295,28.9136],[74.76874,28.88777],[74.80169,28.83412],[74.77792,28.82584],[74.75711,28.82848],[74.74169,28.85493],[74.6375,28.83681],[74.63335,28.81462],[74.57881,28.8289],[74.47042,28.82011],[74.43904,28.8318],[74.41592,28.88601],[74.27799,28.80032],[74.22203,28.81191],[74.18894,28.80652],[74.16085,28.77722],[74.13595,28.79561],[74.05925,28.77744],[74.09305,28.8255],[74.12606,28.83904],[74.13024,28.87529],[74.11289,28.89938],[74.11214,28.94025],[74.06694,28.93816],[74.07116,28.96928],[74.04106,29.0043],[74.04201,29.0097]]]}},{"type":"Feature","properties":{"DISTRICT":"Jaipur","ST_NM":"Rajasthan","ST_CEN_CD":8,"DT_CEN_CD":12,"censuscode":110},"geometry":{"type":"Polygon","coordinates":[[[76.2311,27.83627],[76.25726,27.84511],[76.2905,27.80032],[76.27593,27.80195],[76.24623,27.76128],[76.25969,27.69999],[76.24691,27.68242],[76.25714,27.67087],[76.2417,27.66966],[76.24995,27.63017],[76.20259,27.62204],[76.21605,27.53693],[76.24026,27.52521],[76.24714,27.48841],[76.2224,27.45569],[76.23003,27.40084],[76.12738,27.25117],[76.12551,27.23322],[76.14159,27.22564],[76.12823,27.19662],[76.16108,27.21896],[76.15741,27.1882],[76.18511,27.18456],[76.19453,27.12127],[76.27317,27.18431],[76.2931,27.12931],[76.23305,26.92846],[76.25396,26.88776],[76.24926,26.84222],[76.19227,26.80066],[76.17367,26.75486],[76.18351,26.63598],[76.15345,26.56744],[76.1606,26.51466],[76.11303,26.5353],[76.07238,26.50739],[76.03509,26.51675],[76.00882,26.49189],[75.97417,26.50217],[75.96312,26.48299],[75.8848,26.51923],[75.81707,26.51797],[75.79837,26.54978],[75.77407,26.54326],[75.78418,26.52573],[75.76095,26.51208],[75.77277,26.47226],[75.74931,26.46882],[75.74434,26.44691],[75.72971,26.46543],[75.71236,26.44481],[75.65508,26.46601],[75.64968,26.44509],[75.6173,26.43936],[75.57397,26.44614],[75.57598,26.47289],[75.55288,26.48621],[75.5272,26.46313],[75.45273,26.49313],[75.43714,26.48145],[75.41065,26.49528],[75.41313,26.48092],[75.37247,26.4861],[75.3374,26.5214],[75.33101,26.55807],[75.2868,26.56393],[75.25459,26.53008],[75.20564,26.51556],[75.20079,26.48028],[75.18986,26.48881],[75.16267,26.45853],[75.16214,26.47194],[75.14879,26.46911],[75.15291,26.50008],[75.11593,26.52348],[75.12355,26.54678],[75.10433,26.55589],[75.07734,26.54296],[75.06219,26.55584],[75.08243,26.59587],[75.0647,26.62153],[75.06771,26.65052],[75.02145,26.66517],[75.01343,26.68696],[74.97425,26.67295],[74.96553,26.68338],[74.96466,26.72213],[74.94437,26.72103],[74.9455,26.73228],[75.00004,26.73056],[75.00829,26.74506],[74.98193,26.76191],[74.94259,26.74553],[74.91673,26.83685],[74.95653,26.84676],[74.97682,26.89026],[75.01435,26.89494],[75.01363,26.94524],[75.1656,26.93285],[75.15976,26.96977],[75.20396,26.97356],[75.20441,27.00699],[75.25926,27.03413],[75.22309,27.05532],[75.22113,27.08276],[75.36841,27.08757],[75.36638,27.11011],[75.341,27.1177],[75.34447,27.1396],[75.3184,27.14684],[75.31615,27.18114],[75.3288,27.21387],[75.39191,27.23042],[75.39507,27.28252],[75.38068,27.28966],[75.42984,27.28764],[75.43225,27.30104],[75.47667,27.28918],[75.53087,27.34389],[75.57279,27.34184],[75.57317,27.31162],[75.59916,27.3085],[75.62865,27.34039],[75.66028,27.338],[75.6654,27.36583],[75.72499,27.36918],[75.73967,27.40418],[75.77424,27.40226],[75.79396,27.3808],[75.81119,27.40497],[75.8305,27.38959],[75.84592,27.40053],[75.87789,27.38923],[75.87156,27.42364],[75.89553,27.45656],[75.98563,27.47788],[75.97854,27.50135],[75.93807,27.4964],[75.95206,27.5468],[75.94311,27.56808],[75.96706,27.59429],[75.94203,27.59278],[75.94207,27.62169],[75.96439,27.62432],[75.9563,27.63835],[75.9795,27.65561],[75.99129,27.70318],[76.07095,27.77473],[76.09676,27.82323],[76.09579,27.86395],[76.18065,27.80284],[76.22162,27.82793],[76.2311,27.83627]]]}},{"type":"Feature","properties":{"DISTRICT":"Jaisalmer","ST_NM":"Rajasthan","ST_CEN_CD":8,"DT_CEN_CD":16,"censuscode":114},"geometry":{"type":"Polygon","coordinates":[[[71.89757,27.96263],[71.92435,27.92146],[71.95212,27.91194],[71.99343,27.9431],[72.03227,27.94929],[72.14556,27.87266],[72.15556,27.77968],[72.09366,27.73609],[72.10889,27.70512],[72.18046,27.69935],[72.22645,27.65713],[72.29986,27.70762],[72.34313,27.69182],[72.30349,27.59961],[72.26317,27.55775],[72.28406,27.54873],[72.25153,27.53331],[72.24902,27.48722],[72.21096,27.48907],[72.17547,27.46178],[72.13763,27.52199],[72.14539,27.53242],[72.1064,27.55637],[72.12909,27.5804],[72.04994,27.61446],[71.96654,27.54973],[71.93083,27.55914],[71.90685,27.5333],[71.89949,27.4738],[71.83821,27.4785],[71.81452,27.44166],[71.82953,27.32061],[71.79351,27.28797],[71.79047,27.24529],[71.82032,27.25376],[71.91068,27.21801],[71.91875,27.17776],[71.95537,27.18244],[71.96773,27.13953],[72.08735,27.10479],[72.05946,27.05008],[72.08028,27.044],[72.04424,27.02089],[72.03991,26.93576],[72.10361,26.8869],[72.08758,26.84923],[72.09923,26.83006],[72.04544,26.78907],[72.06078,26.78615],[72.08906,26.71932],[72.06878,26.71873],[72.03968,26.67534],[72.09852,26.60036],[72.02709,26.49866],[72.082,26.44296],[72.07268,26.34943],[71.89476,26.30017],[71.88458,26.34085],[71.8424,26.37384],[71.81133,26.33233],[71.7572,26.3474],[71.70558,26.39051],[71.68459,26.38168],[71.6384,26.40421],[71.61423,26.48228],[71.59081,26.50192],[71.51961,26.48834],[71.4905,26.45689],[71.44761,26.51387],[71.32724,26.4197],[71.28873,26.46655],[71.22156,26.44652],[71.18526,26.40972],[71.19004,26.3889],[71.13891,26.30882],[71.07726,26.32525],[71.06165,26.315],[71.06346,26.29037],[70.95386,26.2491],[70.94319,26.22459],[71.01005,26.22463],[71.0513,26.14237],[71.02542,26.1153],[70.94288,26.08232],[70.96781,26.04966],[70.96112,26.02197],[70.87713,26.12817],[70.74266,26.14465],[70.71062,26.17228],[70.71621,26.21218],[70.56683,26.20258],[70.50251,26.17666],[70.43198,26.17792],[70.42786,26.19692],[70.41028,26.20054],[70.36018,26.14556],[70.26528,26.16551],[70.22432,26.1228],[70.19196,26.15314],[70.13605,26.15335],[70.17211,26.23114],[70.1657,26.30089],[70.18354,26.36142],[70.18332,26.48426],[70.16402,26.56042],[70.06433,26.60018],[69.87937,26.58056],[69.80444,26.59764],[69.7109,26.662],[69.50556,26.75301],[69.48437,26.808],[69.51417,27.00956],[69.58969,27.18294],[69.87167,27.40918],[69.94079,27.50249],[70.02465,27.56132],[70.13469,27.80702],[70.22489,27.89839],[70.31026,27.94888],[70.37178,28.01083],[70.49672,28.03658],[70.59245,28.00964],[70.67701,27.92395],[70.68744,27.82815],[70.74459,27.74305],[70.76785,27.7249],[70.88254,27.70823],[71.27263,27.85018],[71.40975,27.87347],[71.65885,27.87557],[71.89437,27.96091],[71.89757,27.96263]]]}},{"type":"Feature","properties":{"DISTRICT":"Jalor","ST_NM":"Rajasthan","ST_CEN_CD":8,"DT_CEN_CD":18,"censuscode":116},"geometry":{"type":"Polygon","coordinates":[[[72.77774,25.80152],[72.87094,25.7503],[72.89769,25.7106],[72.88933,25.69493],[72.93356,25.68508],[72.92145,25.66693],[72.93503,25.63882],[73.05633,25.56027],[73.05816,25.50791],[73.09685,25.4681],[73.05816,25.44654],[73.06955,25.43776],[73.04141,25.39116],[72.99314,25.37666],[73.00651,25.35322],[72.99416,25.34743],[72.97244,25.37149],[72.93637,25.36027],[72.97607,25.3317],[72.99783,25.28883],[72.97869,25.2475],[72.88603,25.24743],[72.82754,25.28713],[72.78218,25.22616],[72.78142,25.19204],[72.70902,25.10707],[72.68739,25.04648],[72.65825,25.04066],[72.57756,24.93878],[72.5206,24.93487],[72.50417,24.92007],[72.50522,24.88066],[72.48387,24.87015],[72.50022,24.8182],[72.49595,24.75912],[72.4139,24.75375],[72.40085,24.77435],[72.37291,24.76121],[72.32643,24.70151],[72.31046,24.65564],[72.33471,24.6248],[72.32547,24.61371],[72.29407,24.61812],[72.29963,24.63414],[72.2813,24.6484],[72.26847,24.62413],[72.22418,24.635],[72.20473,24.61474],[72.15937,24.61681],[72.14469,24.63646],[72.11488,24.63441],[72.07869,24.65531],[72.07916,24.69959],[72.04631,24.70848],[71.99471,24.68581],[71.98678,24.65598],[71.9375,24.62977],[71.91205,24.64928],[71.91341,24.67043],[71.86967,24.67838],[71.85137,24.60742],[71.80463,24.62522],[71.80805,24.65809],[71.79194,24.67399],[71.65397,24.63717],[71.60895,24.67476],[71.48028,24.67838],[71.37453,24.62655],[71.34249,24.65823],[71.2889,24.61281],[71.18799,24.64849],[71.20951,24.69901],[71.26292,24.74834],[71.24354,24.80513],[71.25443,24.79549],[71.32544,24.84385],[71.32885,24.86811],[71.30632,24.89079],[71.31592,24.90589],[71.33202,24.8974],[71.34728,24.91846],[71.34224,24.94475],[71.38863,24.97836],[71.40723,24.96766],[71.50815,25.00858],[71.52721,25.00136],[71.53023,24.97385],[71.58864,25.02622],[71.62838,25.03438],[71.68246,24.98577],[71.725,25.02727],[71.73681,25.06924],[71.76399,25.0751],[71.79471,25.05321],[71.80362,25.1162],[71.83785,25.1483],[71.8495,25.20712],[71.89901,25.24442],[71.8887,25.26202],[71.93455,25.28435],[71.94997,25.32128],[71.92265,25.35518],[72.03341,25.47615],[72.08893,25.46531],[72.10748,25.42203],[72.1604,25.43424],[72.21632,25.40603],[72.27059,25.41122],[72.30636,25.3862],[72.32934,25.39556],[72.33265,25.43371],[72.35622,25.45364],[72.41145,25.43611],[72.46296,25.45435],[72.5116,25.50595],[72.56187,25.53134],[72.54881,25.56088],[72.58595,25.60204],[72.72043,25.60898],[72.68643,25.66985],[72.75986,25.72495],[72.72284,25.76231],[72.75657,25.80877],[72.77774,25.80152]]]}},{"type":"Feature","properties":{"DISTRICT":"Jhalawar","ST_NM":"Rajasthan","ST_CEN_CD":8,"DT_CEN_CD":31,"censuscode":129},"geometry":{"type":"Polygon","coordinates":[[[76.36535,24.87105],[76.39985,24.838],[76.44473,24.83058],[76.44509,24.76388],[76.479,24.6643],[76.4945,24.65186],[76.53134,24.66237],[76.52161,24.58994],[76.53823,24.56861],[76.53695,24.51402],[76.57861,24.49221],[76.58018,24.46428],[76.61291,24.4267],[76.63594,24.41406],[76.67557,24.43899],[76.71131,24.40477],[76.76389,24.45193],[76.80052,24.43277],[76.85495,24.43279],[76.84014,24.41202],[76.85655,24.37033],[76.84118,24.35619],[76.84437,24.33421],[76.87839,24.26661],[76.94865,24.20183],[76.93735,24.18242],[76.92028,24.18428],[76.90403,24.1267],[76.86002,24.13454],[76.80504,24.11596],[76.7589,24.1677],[76.70495,24.16706],[76.67799,24.18904],[76.70638,24.24438],[76.69688,24.28059],[76.67215,24.26295],[76.62011,24.25843],[76.61769,24.23778],[76.59173,24.24517],[76.60108,24.22553],[76.56938,24.19644],[76.58335,24.17633],[76.53495,24.15914],[76.47344,24.22706],[76.4567,24.21249],[76.42702,24.22263],[76.41782,24.20311],[76.33018,24.24932],[76.29285,24.23276],[76.28594,24.21146],[76.25079,24.22367],[76.21863,24.21259],[76.19776,24.28055],[76.20937,24.30666],[76.18861,24.32726],[76.17229,24.29185],[76.146,24.28108],[76.15743,24.23956],[76.12418,24.19223],[76.13747,24.09116],[76.04957,24.0716],[76.00462,24.0312],[75.96258,24.02137],[75.96261,23.99347],[75.98257,23.97039],[75.97815,23.92897],[75.88071,23.88066],[75.86274,23.8917],[75.79614,23.87047],[75.77893,23.85005],[75.76346,23.85308],[75.75159,23.8862],[75.7041,23.90025],[75.69985,23.87333],[75.73088,23.85442],[75.71955,23.81526],[75.68905,23.81549],[75.70032,23.7881],[75.68605,23.75685],[75.65338,23.79823],[75.58393,23.79669],[75.58474,23.81153],[75.55745,23.82227],[75.57762,23.83784],[75.56206,23.85627],[75.45779,23.91711],[75.46615,23.97708],[75.51593,24.04501],[75.56856,24.01897],[75.58546,23.98818],[75.63647,23.99604],[75.67106,24.02972],[75.70225,23.96524],[75.76402,23.99408],[75.78172,24.05817],[75.83596,24.07148],[75.83805,24.10739],[75.8144,24.09893],[75.8046,24.11437],[75.79177,24.10587],[75.77847,24.13502],[75.7456,24.13568],[75.77578,24.21692],[75.82927,24.2424],[75.81505,24.25287],[75.81363,24.29943],[75.76743,24.30668],[75.74026,24.34399],[75.73069,24.4035],[75.75772,24.40529],[75.75119,24.42439],[75.78613,24.44777],[75.79371,24.47113],[75.81772,24.46103],[75.81222,24.43716],[75.83159,24.41844],[75.90136,24.43746],[75.91524,24.48142],[75.89538,24.51737],[75.92492,24.5231],[75.92632,24.55043],[75.95333,24.54285],[75.96435,24.56217],[76.03448,24.5591],[76.05429,24.57789],[76.08166,24.57658],[76.06714,24.66787],[76.10352,24.69596],[76.19313,24.62316],[76.1831,24.66434],[76.20084,24.68297],[76.20035,24.7428],[76.22737,24.83199],[76.27023,24.845],[76.26596,24.81367],[76.28422,24.80787],[76.29071,24.83684],[76.35775,24.87214],[76.36535,24.87105]]]}},{"type":"Feature","properties":{"DISTRICT":"Jhunjhunun","ST_NM":"Rajasthan","ST_CEN_CD":8,"DT_CEN_CD":5,"censuscode":103},"geometry":{"type":"Polygon","coordinates":[[[76.01662,28.28208],[76.02701,28.27668],[76.01942,28.23746],[76.06125,28.21988],[76.05328,28.19857],[76.07383,28.19458],[76.10105,28.14719],[76.07319,28.14007],[76.07453,28.16339],[76.03588,28.16838],[76.00274,28.1463],[75.99914,28.12387],[75.95043,28.10138],[75.94399,28.08928],[75.99,28.07591],[75.98529,28.04788],[76.00985,28.05639],[76.02364,28.0845],[76.04361,28.0696],[76.01329,28.05018],[76.01797,28.03235],[75.97783,28.02664],[75.99837,28.00582],[75.96418,27.99671],[75.96322,27.98434],[75.9947,27.98028],[75.97085,27.93262],[75.9462,27.94679],[75.76993,27.83344],[75.71164,27.75602],[75.71922,27.74468],[75.68901,27.67351],[75.66965,27.67424],[75.66516,27.71322],[75.649,27.7173],[75.56846,27.69827],[75.53645,27.70911],[75.52208,27.69357],[75.47545,27.69129],[75.43417,27.64384],[75.39371,27.65799],[75.37761,27.6431],[75.38023,27.68102],[75.2893,27.71599],[75.26454,27.76412],[75.2898,27.77028],[75.29039,27.81225],[75.2419,27.81045],[75.23011,27.8777],[75.212,27.88099],[75.19535,27.91051],[75.19725,27.96365],[75.1751,27.95755],[75.1485,28.02572],[75.12992,28.02519],[75.10272,28.06429],[75.1287,28.13484],[75.0896,28.15943],[75.05547,28.15606],[75.08566,28.18659],[75.02748,28.20091],[75.04945,28.226],[75.05021,28.25307],[75.14888,28.29164],[75.16479,28.34472],[75.13154,28.40165],[75.15839,28.40758],[75.16718,28.37913],[75.21847,28.39041],[75.23469,28.4554],[75.27947,28.44957],[75.33042,28.39566],[75.33507,28.36694],[75.3831,28.33786],[75.41953,28.34152],[75.41854,28.36085],[75.438,28.3644],[75.462,28.33807],[75.50181,28.33687],[75.53563,28.38062],[75.57175,28.37777],[75.57173,28.4071],[75.61534,28.40625],[75.59062,28.44407],[75.60478,28.44603],[75.61399,28.50219],[75.67225,28.51717],[75.79348,28.44684],[75.77857,28.40373],[75.81089,28.41028],[75.90522,28.38592],[75.93571,28.34096],[75.96465,28.33419],[75.96297,28.31435],[75.97595,28.31989],[76.0067,28.28723],[76.01662,28.28208]]]}},{"type":"Feature","properties":{"DISTRICT":"Jodhpur","ST_NM":"Rajasthan","ST_CEN_CD":8,"DT_CEN_CD":15,"censuscode":113},"geometry":{"type":"Polygon","coordinates":[[[72.28406,27.54873],[72.29611,27.54288],[72.2841,27.51524],[72.25181,27.50726],[72.24855,27.46812],[72.26086,27.45771],[72.32684,27.51366],[72.36112,27.48992],[72.36783,27.52767],[72.43749,27.56156],[72.44942,27.58579],[72.50164,27.5836],[72.56017,27.61846],[72.60389,27.60663],[72.66056,27.53233],[72.69604,27.6044],[72.76616,27.52295],[72.77374,27.56316],[72.83411,27.58352],[72.85029,27.55513],[72.84759,27.53367],[72.81956,27.51626],[72.82466,27.47761],[72.83075,27.46614],[72.88262,27.47694],[72.85823,27.44486],[72.89486,27.45071],[72.90212,27.41515],[72.9396,27.44756],[72.94841,27.40436],[72.98364,27.38439],[73.04248,27.41041],[73.1159,27.4093],[73.14531,27.39015],[73.16306,27.29483],[73.15385,27.25175],[73.132,27.23516],[73.16579,27.1614],[73.15201,27.12081],[73.19189,27.0564],[73.1578,27.02491],[73.15262,26.99236],[73.11466,26.96569],[73.11813,26.9421],[73.17426,26.93189],[73.19099,26.882],[73.2131,26.86851],[73.29976,26.87377],[73.3324,26.85597],[73.40208,26.88316],[73.45813,26.8729],[73.4985,26.88692],[73.53034,26.85848],[73.58764,26.86329],[73.63095,26.83934],[73.63216,26.8068],[73.655,26.80778],[73.67729,26.75583],[73.64978,26.71],[73.67264,26.67822],[73.65947,26.64801],[73.6926,26.6227],[73.72135,26.539],[73.77029,26.538],[73.79394,26.50439],[73.85665,26.4672],[73.87311,26.43047],[73.84604,26.40728],[73.84227,26.3845],[73.8554,26.37943],[73.81717,26.35763],[73.81234,26.31683],[73.7908,26.31933],[73.81342,26.29144],[73.79184,26.24702],[73.80457,26.20682],[73.78572,26.15751],[73.81292,26.11818],[73.80359,26.09731],[73.75936,26.09273],[73.73407,26.1133],[73.68587,26.06245],[73.65013,26.07808],[73.65309,26.12619],[73.6287,26.14701],[73.5226,26.10293],[73.52939,26.06356],[73.49987,26.08737],[73.46636,26.08525],[73.4365,26.12788],[73.40943,26.12581],[73.39378,26.16304],[73.3409,26.11721],[73.36329,26.08062],[73.36011,26.06267],[73.31855,26.03909],[73.32129,26.00512],[73.26971,26.05623],[73.25643,26.05367],[73.24114,26.08494],[73.22582,26.0739],[73.19256,26.08576],[73.17788,26.05432],[73.18665,26.03298],[73.13904,26.04436],[73.04962,26.01362],[73.04996,25.96766],[72.97445,25.93515],[72.95806,25.90169],[72.85523,25.89849],[72.8339,25.86248],[72.80608,25.85286],[72.77695,25.88173],[72.75121,25.88174],[72.72471,25.92123],[72.62647,25.95735],[72.6101,26.0008],[72.69405,26.03646],[72.67874,26.0718],[72.69811,26.12136],[72.68435,26.19244],[72.6336,26.2282],[72.59615,26.27987],[72.55187,26.26438],[72.52471,26.28812],[72.50738,26.27861],[72.49164,26.29925],[72.46693,26.30095],[72.42703,26.28642],[72.40936,26.23897],[72.37426,26.22543],[72.34042,26.24441],[72.26855,26.19785],[72.15946,26.28098],[72.14082,26.32632],[72.09763,26.31898],[72.07268,26.34943],[72.082,26.44296],[72.02709,26.49866],[72.09852,26.60036],[72.03968,26.67534],[72.06878,26.71873],[72.08906,26.71932],[72.06078,26.78615],[72.04544,26.78907],[72.09923,26.83006],[72.08758,26.84923],[72.10361,26.8869],[72.03991,26.93576],[72.04424,27.02089],[72.08028,27.044],[72.05946,27.05008],[72.08735,27.10479],[71.96773,27.13953],[71.95537,27.18244],[71.91875,27.17776],[71.91068,27.21801],[71.82032,27.25376],[71.79047,27.24529],[71.79108,27.28147],[71.82953,27.32061],[71.8174,27.44819],[71.83821,27.4785],[71.89949,27.4738],[71.90685,27.5333],[71.93083,27.55914],[71.96654,27.54973],[72.04994,27.61446],[72.11184,27.59084],[72.12898,27.57595],[72.1064,27.55637],[72.14539,27.53242],[72.13763,27.52199],[72.17547,27.46178],[72.21096,27.48907],[72.24902,27.48722],[72.25153,27.53331],[72.2719,27.54597],[72.28406,27.54873]]]}},{"type":"Feature","properties":{"DISTRICT":"Karauli","ST_NM":"Rajasthan","ST_CEN_CD":8,"DT_CEN_CD":9,"censuscode":107},"geometry":{"type":"Polygon","coordinates":[[[76.83559,26.9977],[76.91314,26.96083],[76.9528,26.91627],[76.9645,26.86086],[77.00357,26.87107],[77.05936,26.85376],[77.1054,26.87373],[77.15847,26.82237],[77.16879,26.83118],[77.21038,26.80967],[77.20532,26.78114],[77.25906,26.81854],[77.29419,26.77954],[77.35164,26.80439],[77.33931,26.76448],[77.35235,26.75479],[77.34738,26.69722],[77.37178,26.65505],[77.34743,26.64022],[77.39382,26.62656],[77.29047,26.5538],[77.25745,26.55519],[77.22715,26.53092],[77.25899,26.43035],[77.33094,26.43157],[77.34794,26.4142],[77.3393,26.39622],[77.35628,26.39653],[77.37328,26.36603],[77.32503,26.34092],[77.31508,26.30955],[77.27387,26.27074],[77.2098,26.23201],[77.13065,26.23258],[77.09821,26.18555],[77.04118,26.17663],[76.99236,26.12708],[76.90149,26.09281],[76.85054,26.03447],[76.82904,26.07192],[76.81137,26.06944],[76.80144,26.0965],[76.70328,26.18071],[76.66905,26.16587],[76.5791,26.21445],[76.60556,26.246],[76.60428,26.27222],[76.55251,26.26661],[76.56838,26.28222],[76.56792,26.31831],[76.60332,26.33557],[76.63232,26.31784],[76.63879,26.34085],[76.67689,26.35099],[76.68661,26.39297],[76.77775,26.43958],[76.7812,26.46807],[76.83145,26.47887],[76.90581,26.52236],[76.9107,26.55762],[76.94935,26.54109],[76.97173,26.5511],[76.96738,26.57203],[76.93687,26.5742],[76.98271,26.60291],[76.95367,26.66857],[76.91716,26.68248],[76.83327,26.65147],[76.75566,26.5668],[76.72782,26.59129],[76.66289,26.59394],[76.603,26.67694],[76.58036,26.67025],[76.49098,26.71887],[76.54006,26.77221],[76.61025,26.77047],[76.76761,26.87717],[76.7617,26.90055],[76.79391,26.9322],[76.79906,26.98108],[76.83501,26.99793],[76.83559,26.9977]]]}},{"type":"Feature","properties":{"DISTRICT":"Kota","ST_NM":"Rajasthan","ST_CEN_CD":8,"DT_CEN_CD":29,"censuscode":127},"geometry":{"type":"Polygon","coordinates":[[[76.23171,25.8044],[76.25586,25.79413],[76.27584,25.80611],[76.29717,25.78401],[76.32201,25.80897],[76.36435,25.73839],[76.45328,25.77429],[76.48738,25.81039],[76.49213,25.84115],[76.57222,25.8347],[76.53465,25.79303],[76.53589,25.72904],[76.48757,25.71324],[76.48292,25.69018],[76.51596,25.66794],[76.50456,25.64346],[76.51985,25.62879],[76.52532,25.52507],[76.56459,25.46838],[76.58322,25.40184],[76.50897,25.42275],[76.44928,25.39934],[76.44099,25.37929],[76.3306,25.37882],[76.29386,25.2518],[76.25391,25.23771],[76.25475,25.18883],[76.21804,25.08418],[76.31429,24.95979],[76.35178,24.98876],[76.42147,24.97708],[76.46172,24.90811],[76.4735,24.92587],[76.4866,24.92032],[76.57548,24.85823],[76.57324,24.81679],[76.55689,24.80397],[76.49661,24.82531],[76.44311,24.78298],[76.44473,24.83058],[76.39985,24.838],[76.36535,24.87105],[76.29071,24.83684],[76.28422,24.80787],[76.26596,24.81367],[76.27295,24.84363],[76.25792,24.84678],[76.25337,24.83042],[76.22737,24.83199],[76.22345,24.78511],[76.20439,24.75962],[76.20193,24.68775],[76.1831,24.66434],[76.19313,24.62316],[76.10352,24.69596],[76.06714,24.66787],[76.08166,24.57658],[76.05429,24.57789],[76.03448,24.5591],[75.96435,24.56217],[75.95493,24.54366],[75.92632,24.55043],[75.92341,24.53962],[75.90951,24.54802],[75.91804,24.5704],[75.88723,24.57757],[75.87697,24.60294],[75.8554,24.61016],[75.84118,24.59155],[75.83095,24.60921],[75.85171,24.64889],[75.83003,24.66734],[75.84172,24.72569],[75.78909,24.76137],[75.82184,24.86687],[75.76108,24.87634],[75.66653,24.94477],[75.65602,24.97464],[75.62409,24.99621],[75.6961,25.03019],[75.74313,25.07208],[75.76174,25.10664],[75.72712,25.11886],[75.75017,25.14072],[75.73619,25.16555],[75.78894,25.21115],[75.79392,25.25794],[75.83397,25.24459],[75.81989,25.23404],[75.82979,25.22657],[75.87939,25.225],[75.94945,25.2755],[75.98175,25.23079],[76.03336,25.27696],[76.02494,25.31437],[76.06497,25.32841],[76.0742,25.34937],[76.11295,25.32865],[76.13087,25.34386],[76.15227,25.33567],[76.16015,25.35453],[76.13814,25.3701],[76.15311,25.39214],[76.13812,25.40587],[76.17535,25.43839],[76.18492,25.49246],[76.20903,25.48427],[76.27479,25.51094],[76.29269,25.54472],[76.29857,25.62613],[76.32538,25.65018],[76.30263,25.69393],[76.26101,25.6691],[76.14598,25.74525],[76.16733,25.76077],[76.17151,25.81287],[76.20075,25.84197],[76.22838,25.80887],[76.23171,25.8044]]]}},{"type":"Feature","properties":{"DISTRICT":"Nagaur","ST_NM":"Rajasthan","ST_CEN_CD":8,"DT_CEN_CD":14,"censuscode":112},"geometry":{"type":"Polygon","coordinates":[[[74.61241,27.66722],[74.62831,27.64822],[74.68105,27.6672],[74.71052,27.63904],[74.70594,27.59263],[74.72794,27.60744],[74.74103,27.58508],[74.7556,27.5906],[74.76155,27.56761],[74.71638,27.53748],[74.7231,27.50118],[74.79462,27.48547],[74.80318,27.44976],[74.85722,27.45029],[74.87324,27.4119],[74.84499,27.3787],[74.87381,27.372],[74.87897,27.3449],[74.86682,27.33472],[74.87929,27.31064],[74.94695,27.34629],[75.02847,27.35192],[75.05752,27.38144],[75.11817,27.3765],[75.10836,27.33828],[75.1679,27.31627],[75.15963,27.28091],[75.13728,27.28381],[75.07191,27.21935],[75.12533,27.21101],[75.11816,27.18394],[75.17918,27.16045],[75.17223,27.14361],[75.20107,27.12855],[75.28226,27.12309],[75.31623,27.15914],[75.34447,27.1396],[75.34961,27.10905],[75.36638,27.11011],[75.36841,27.08757],[75.22113,27.08276],[75.22309,27.05532],[75.25926,27.03413],[75.20441,27.00699],[75.20396,26.97356],[75.15976,26.96977],[75.1656,26.93285],[75.01363,26.94524],[75.01435,26.89494],[74.99291,26.88832],[74.97439,26.89274],[74.98346,26.94117],[74.96102,26.96027],[74.85212,26.97503],[74.81582,26.86842],[74.77414,26.84873],[74.77901,26.7902],[74.75909,26.78908],[74.7494,26.77046],[74.69782,26.77113],[74.66539,26.71133],[74.72358,26.70185],[74.67395,26.59395],[74.61869,26.56583],[74.60162,26.58203],[74.61776,26.59994],[74.5933,26.62907],[74.46514,26.48675],[74.44325,26.50226],[74.42896,26.48595],[74.37539,26.48875],[74.33712,26.44271],[74.31655,26.45746],[74.23816,26.46128],[74.15925,26.41128],[74.12344,26.45624],[74.09946,26.44641],[74.09668,26.4156],[73.88076,26.42647],[73.85665,26.4672],[73.79394,26.50439],[73.77029,26.538],[73.72135,26.539],[73.6926,26.6227],[73.65947,26.64801],[73.67264,26.67822],[73.64978,26.71],[73.67729,26.75583],[73.655,26.80778],[73.63216,26.8068],[73.62652,26.84424],[73.58764,26.86329],[73.53034,26.85848],[73.4985,26.88692],[73.45813,26.8729],[73.40208,26.88316],[73.3324,26.85597],[73.29976,26.87377],[73.2131,26.86851],[73.19099,26.882],[73.17426,26.93189],[73.11813,26.9421],[73.11466,26.96569],[73.15262,26.99236],[73.1578,27.02491],[73.19189,27.0564],[73.15201,27.12081],[73.16579,27.1614],[73.132,27.23516],[73.15385,27.25175],[73.16306,27.29483],[73.20825,27.27776],[73.21347,27.30441],[73.24968,27.32577],[73.28406,27.25513],[73.3534,27.18655],[73.37387,27.21074],[73.35858,27.22521],[73.3752,27.26047],[73.5042,27.33334],[73.49464,27.36042],[73.5262,27.37512],[73.50539,27.39527],[73.50615,27.43378],[73.52291,27.44473],[73.52977,27.48496],[73.61207,27.48931],[73.62755,27.51511],[73.61705,27.53796],[73.65706,27.56406],[73.70448,27.51861],[73.76172,27.53335],[73.79636,27.49773],[73.87824,27.53941],[73.90214,27.49628],[73.95077,27.51282],[73.99403,27.50765],[74.03024,27.53487],[74.08214,27.47904],[74.13726,27.46061],[74.15411,27.41056],[74.20467,27.42378],[74.21223,27.46851],[74.19296,27.48056],[74.1964,27.4955],[74.23866,27.52644],[74.25727,27.6023],[74.31319,27.63419],[74.30913,27.64822],[74.34377,27.67938],[74.4016,27.69788],[74.54838,27.66192],[74.61093,27.70595],[74.62651,27.69783],[74.60679,27.67634],[74.61241,27.66722]]]}},{"type":"Feature","properties":{"DISTRICT":"Pali","ST_NM":"Rajasthan","ST_CEN_CD":8,"DT_CEN_CD":20,"censuscode":118},"geometry":{"type":"Polygon","coordinates":[[[74.29076,26.44896],[74.30551,26.33143],[74.25354,26.28622],[74.27271,26.26069],[74.30446,26.25193],[74.36461,26.29146],[74.38968,26.27908],[74.40194,26.26691],[74.37016,26.23885],[74.36931,26.19012],[74.34225,26.19633],[74.27318,26.17384],[74.30433,26.13546],[74.258,26.0976],[74.24269,26.04998],[74.18294,26.02921],[74.16249,26.06631],[74.15423,26.02855],[74.17322,26.01033],[74.12563,25.96061],[74.1554,25.95764],[74.14446,25.94081],[74.15767,25.91721],[74.11464,25.87969],[74.10764,25.85253],[74.05408,25.82706],[74.00584,25.8647],[73.97103,25.83423],[73.95101,25.84083],[73.94259,25.80382],[73.9243,25.79379],[73.93221,25.76974],[73.90659,25.7404],[73.9022,25.67454],[73.86466,25.65091],[73.7336,25.38214],[73.70838,25.38177],[73.61207,25.28627],[73.62231,25.25793],[73.59391,25.19279],[73.46189,25.08944],[73.3971,25.0742],[73.32965,24.97714],[73.3461,24.96053],[73.32765,24.90858],[73.2905,24.875],[73.27141,24.87731],[73.23101,24.79353],[73.14378,24.75711],[73.1636,24.79324],[73.14296,24.843],[73.07119,24.85743],[73.00003,24.92705],[73.04779,25.00464],[73.11559,25.04443],[73.14027,25.10137],[73.04493,25.1622],[73.04985,25.1042],[73.02381,25.08939],[73.00124,25.10107],[72.99884,25.1439],[72.9552,25.14196],[72.94749,25.16536],[72.94605,25.18797],[72.97588,25.19502],[72.97558,25.22335],[72.94517,25.21788],[72.93866,25.23011],[72.94012,25.24371],[72.9933,25.2575],[72.9989,25.2813],[72.97607,25.3317],[72.93637,25.36027],[72.97244,25.37149],[72.99416,25.34743],[73.00651,25.35322],[72.99314,25.37666],[73.04141,25.39116],[73.06955,25.43776],[73.05816,25.44654],[73.09685,25.4681],[73.05816,25.50791],[73.05633,25.56027],[72.93503,25.63882],[72.92145,25.66693],[72.93356,25.68508],[72.88933,25.69493],[72.88892,25.73459],[72.81186,25.77355],[72.77922,25.80832],[72.80326,25.83177],[72.84229,25.82017],[72.84857,25.84175],[72.8343,25.86305],[72.85523,25.89849],[72.95806,25.90169],[73.00034,25.95318],[73.03176,25.95176],[73.05396,25.97775],[73.04962,26.01362],[73.13904,26.04436],[73.18665,26.03298],[73.17788,26.05432],[73.19256,26.08576],[73.22582,26.0739],[73.24114,26.08494],[73.25643,26.05367],[73.26971,26.05623],[73.32129,26.00512],[73.31855,26.03909],[73.36011,26.06267],[73.36329,26.08062],[73.3409,26.11721],[73.39378,26.16304],[73.40943,26.12581],[73.4365,26.12788],[73.46636,26.08525],[73.49987,26.08737],[73.52939,26.06356],[73.5226,26.10293],[73.6287,26.14701],[73.65309,26.12619],[73.65013,26.07808],[73.68587,26.06245],[73.73407,26.1133],[73.75936,26.09273],[73.80359,26.09731],[73.81292,26.11818],[73.78572,26.15751],[73.80457,26.20682],[73.79184,26.24702],[73.81342,26.29144],[73.7908,26.31933],[73.81234,26.31683],[73.81717,26.35763],[73.8554,26.37943],[73.84227,26.3845],[73.84604,26.40728],[73.87311,26.43047],[73.95814,26.41925],[73.9723,26.43126],[74.04118,26.40892],[74.06978,26.42293],[74.10409,26.41673],[74.09946,26.44641],[74.12344,26.45624],[74.15925,26.41128],[74.23816,26.46128],[74.27866,26.45655],[74.29076,26.44896]]]}},{"type":"Feature","properties":{"DISTRICT":"Pratapgarh","ST_NM":"Rajasthan","ST_CEN_CD":8,"DT_CEN_CD":33,"censuscode":131},"geometry":{"type":"Polygon","coordinates":[[[74.77336,23.54043],[74.77295,23.58874],[74.74769,23.61279],[74.72155,23.61468],[74.67232,23.66556],[74.64709,23.64183],[74.55198,23.61922],[74.52046,23.63722],[74.53249,23.67299],[74.52558,23.72992],[74.55515,23.73825],[74.56053,23.81172],[74.51416,23.83969],[74.52623,23.88267],[74.47984,23.92412],[74.40023,23.90189],[74.36688,23.93348],[74.32615,23.93635],[74.33823,23.97594],[74.32489,23.99405],[74.33779,24.00919],[74.29724,24.03666],[74.30444,24.071],[74.32802,24.04797],[74.35995,24.09159],[74.37899,24.06689],[74.42219,24.0675],[74.43778,24.08433],[74.43233,24.11567],[74.35907,24.18054],[74.39119,24.28478],[74.39789,24.30346],[74.41469,24.29211],[74.41673,24.24487],[74.46817,24.22182],[74.52074,24.3083],[74.50352,24.37257],[74.54549,24.41817],[74.54266,24.47859],[74.58445,24.49337],[74.61099,24.4749],[74.72769,24.50775],[74.77957,24.48029],[74.81751,24.48803],[74.81889,24.45882],[74.85886,24.46415],[74.78742,24.36857],[74.78399,24.31373],[74.75304,24.27964],[74.85377,24.26684],[74.87021,24.27755],[74.89482,24.25849],[74.90636,24.23054],[74.88154,24.21035],[74.90075,24.17113],[74.92795,24.15396],[74.9366,24.12057],[74.95997,24.10687],[74.99341,24.02647],[74.96899,23.97653],[74.92147,23.93258],[74.90571,23.87081],[74.91029,23.79775],[74.92992,23.7911],[74.94051,23.73177],[74.90741,23.67977],[74.93954,23.6273],[74.90575,23.61992],[74.85101,23.55444],[74.80227,23.53115],[74.78435,23.54514],[74.77336,23.54043]]]}},{"type":"Feature","properties":{"DISTRICT":"Rajsamand","ST_NM":"Rajasthan","ST_CEN_CD":8,"DT_CEN_CD":25,"censuscode":123},"geometry":{"type":"MultiPolygon","coordinates":[[[[74.12687,25.86168],[74.18355,25.84833],[74.17025,25.81378],[74.19325,25.82059],[74.21558,25.80577],[74.19903,25.7987],[74.20695,25.77413],[74.18822,25.76242],[74.19589,25.73925],[74.10429,25.71927],[74.07653,25.67737],[74.12682,25.64798],[74.11952,25.6058],[74.0567,25.56937],[74.08428,25.55692],[74.07697,25.53796],[74.10279,25.51386],[74.09302,25.49404],[74.0448,25.49894],[74.03445,25.47348],[74.05284,25.4634],[74.02944,25.4639],[74.01611,25.43787],[74.0585,25.43942],[74.05972,25.41657],[74.07685,25.41198],[74.01789,25.39036],[74.01296,25.37491],[74.03406,25.33145],[74.08396,25.31673],[74.07647,25.30099],[74.02283,25.3159],[74.03625,25.29749],[74.02692,25.27212],[74.04622,25.23659],[74.12394,25.24219],[74.10179,25.18505],[74.0754,25.17891],[74.05649,25.14757],[74.064,25.13987],[74.09646,25.14974],[74.10965,25.13377],[74.1648,25.12736],[74.19009,25.10042],[74.19446,25.05336],[74.22157,25.04943],[74.23361,25.06909],[74.27385,25.06282],[74.31975,25.03199],[74.31694,25.01193],[74.27129,24.9841],[74.24236,24.99618],[74.20282,24.98614],[74.18811,24.92977],[74.16461,24.9161],[74.13734,24.86213],[74.10682,24.86188],[74.11352,24.84926],[74.04548,24.83277],[74.00181,24.89217],[73.95824,24.85398],[73.93098,24.88148],[73.85527,24.88669],[73.7835,24.73507],[73.75638,24.73858],[73.70285,24.78903],[73.61159,24.77459],[73.59501,24.79132],[73.56151,24.93397],[73.50695,24.97556],[73.52324,25.03144],[73.50077,25.05354],[73.50031,25.12598],[73.60135,25.20337],[73.6237,25.30266],[73.64993,25.31158],[73.70838,25.38177],[73.7419,25.39347],[73.86466,25.65091],[73.90618,25.68521],[73.94903,25.65061],[73.98755,25.66881],[74.01281,25.70366],[73.98027,25.71633],[74.01687,25.74659],[74.09328,25.76707],[74.09563,25.78378],[74.05626,25.82889],[74.11752,25.86362],[74.12687,25.86168]]],[[[74.35054,26.02183],[74.39079,26.00535],[74.38894,25.96226],[74.32905,25.93537],[74.34552,25.90257],[74.26762,25.87136],[74.23596,25.90719],[74.23225,25.93447],[74.26422,25.93358],[74.26881,25.95073],[74.2934,25.90897],[74.28185,25.9621],[74.34592,26.02259],[74.35054,26.02183]]],[[[74.24523,25.881],[74.25835,25.86749],[74.23417,25.8485],[74.19678,25.85374],[74.22805,25.89302],[74.24523,25.881]]],[[[74.14601,25.66883],[74.13114,25.67545],[74.15076,25.68245],[74.15549,25.67066],[74.14601,25.66883]]],[[[74.1864,25.56856],[74.17162,25.56699],[74.16823,25.58667],[74.18308,25.57234],[74.1864,25.56856]]]]}},{"type":"Feature","properties":{"DISTRICT":"Sawai Madhopur","ST_NM":"Rajasthan","ST_CEN_CD":8,"DT_CEN_CD":10,"censuscode":108},"geometry":{"type":"Polygon","coordinates":[[[76.58202,26.6698],[76.603,26.67694],[76.66289,26.59394],[76.72782,26.59129],[76.75566,26.5668],[76.83327,26.65147],[76.91716,26.68248],[76.95261,26.67053],[76.98126,26.61112],[76.97775,26.59601],[76.9369,26.57904],[76.96738,26.57203],[76.9712,26.55063],[76.94493,26.54157],[76.9107,26.55762],[76.90581,26.52236],[76.83145,26.47887],[76.7812,26.46807],[76.77775,26.43958],[76.68661,26.39297],[76.67689,26.35099],[76.63879,26.34085],[76.63232,26.31784],[76.60332,26.33557],[76.56792,26.31831],[76.56838,26.28222],[76.55251,26.26661],[76.60428,26.27222],[76.60556,26.246],[76.5791,26.21445],[76.62933,26.18382],[76.67291,26.16542],[76.70273,26.18101],[76.741,26.15436],[76.81137,26.06944],[76.82904,26.07192],[76.84954,26.04996],[76.83642,26.02443],[76.84624,26.00612],[76.8122,25.94785],[76.76174,25.93659],[76.76821,25.91696],[76.75123,25.90414],[76.65177,25.90382],[76.63725,25.87022],[76.59825,25.86917],[76.57222,25.8347],[76.49213,25.84115],[76.48738,25.81039],[76.45328,25.77429],[76.36435,25.73839],[76.33477,25.77361],[76.32449,25.82213],[76.30197,25.82086],[76.29377,25.83574],[76.27546,25.82376],[76.22224,25.86213],[76.21892,25.91193],[76.25286,25.91637],[76.25038,26.01935],[76.19328,26.01341],[76.18237,25.98871],[76.16284,25.98974],[76.14377,25.96493],[76.11213,25.99978],[76.06985,25.99507],[76.11391,26.04308],[76.11609,26.05626],[76.09078,26.06926],[76.09886,26.09969],[76.06629,26.13333],[76.05585,26.11545],[75.99444,26.11556],[76.00675,26.17655],[75.98156,26.19472],[75.98414,26.21049],[76.03087,26.2222],[76.03001,26.25182],[76.10367,26.23907],[76.12338,26.25114],[76.11574,26.27388],[76.14781,26.30809],[76.13071,26.34476],[76.14579,26.35396],[76.13443,26.36906],[76.15731,26.42773],[76.13945,26.45816],[76.1806,26.48564],[76.24632,26.46315],[76.25045,26.44074],[76.33112,26.45125],[76.34235,26.41039],[76.40647,26.37678],[76.41537,26.4141],[76.48056,26.49317],[76.45857,26.548],[76.41534,26.53843],[76.40682,26.55265],[76.47854,26.70588],[76.49098,26.71887],[76.58036,26.67025],[76.58202,26.6698]]]}},{"type":"Feature","properties":{"DISTRICT":"Sikar","ST_NM":"Rajasthan","ST_CEN_CD":8,"DT_CEN_CD":13,"censuscode":111},"geometry":{"type":"Polygon","coordinates":[[[75.02958,28.19816],[75.08566,28.18659],[75.05547,28.15606],[75.0896,28.15943],[75.1287,28.13484],[75.10272,28.06429],[75.12992,28.02519],[75.1485,28.02572],[75.1751,27.95755],[75.19725,27.96365],[75.19535,27.91051],[75.212,27.88099],[75.23011,27.8777],[75.2419,27.81045],[75.29039,27.81225],[75.2898,27.77028],[75.26454,27.76412],[75.2893,27.71599],[75.38023,27.68102],[75.37761,27.6431],[75.39371,27.65799],[75.43417,27.64384],[75.47545,27.69129],[75.52208,27.69357],[75.53645,27.70911],[75.56846,27.69827],[75.649,27.7173],[75.66516,27.71322],[75.66965,27.67424],[75.68901,27.67351],[75.71922,27.74468],[75.71164,27.75602],[75.76993,27.83344],[75.93124,27.9288],[75.93644,27.9125],[75.98506,27.9049],[75.97065,27.86037],[76.08777,27.84657],[76.09676,27.82323],[76.07095,27.77473],[75.99129,27.70318],[75.9795,27.65561],[75.9563,27.63835],[75.96439,27.62432],[75.94207,27.62169],[75.94203,27.59278],[75.96706,27.59429],[75.94311,27.56808],[75.95206,27.5468],[75.93807,27.4964],[75.97854,27.50135],[75.98563,27.47788],[75.89553,27.45656],[75.87156,27.42364],[75.87789,27.38923],[75.84592,27.40053],[75.8305,27.38959],[75.81119,27.40497],[75.79396,27.3808],[75.77424,27.40226],[75.73967,27.40418],[75.72499,27.36918],[75.6654,27.36583],[75.66028,27.338],[75.62865,27.34039],[75.59916,27.3085],[75.57317,27.31162],[75.57279,27.34184],[75.53087,27.34389],[75.47667,27.28918],[75.43225,27.30104],[75.42984,27.28764],[75.38068,27.28966],[75.39507,27.28252],[75.39191,27.23042],[75.32254,27.2082],[75.31623,27.15914],[75.28226,27.12309],[75.20107,27.12855],[75.17223,27.14361],[75.17918,27.16045],[75.11816,27.18394],[75.12533,27.21101],[75.07191,27.21935],[75.13728,27.28381],[75.15963,27.28091],[75.1679,27.31627],[75.10836,27.33828],[75.11817,27.3765],[75.05752,27.38144],[75.02847,27.35192],[74.94695,27.34629],[74.87929,27.31064],[74.86682,27.33472],[74.87897,27.3449],[74.87381,27.372],[74.84499,27.3787],[74.87324,27.4119],[74.85722,27.45029],[74.80318,27.44976],[74.79462,27.48547],[74.7231,27.50118],[74.71638,27.53748],[74.7611,27.5805],[74.72794,27.60744],[74.70594,27.59263],[74.71052,27.63904],[74.68105,27.6672],[74.74467,27.68518],[74.75251,27.71684],[74.72733,27.71759],[74.74131,27.76444],[74.81732,27.79968],[74.79678,27.8369],[74.77999,27.83201],[74.76719,27.85407],[74.7296,27.86243],[74.7383,27.88914],[74.82907,27.91048],[74.82106,27.93799],[74.78118,27.95562],[74.76129,27.98768],[74.80344,28.03079],[74.8083,28.05828],[74.78697,28.08476],[74.79393,28.11301],[74.85662,28.13355],[74.8926,28.19186],[75.0244,28.19677],[75.02958,28.19816]]]}},{"type":"Feature","properties":{"DISTRICT":"Sirohi","ST_NM":"Rajasthan","ST_CEN_CD":8,"DT_CEN_CD":19,"censuscode":117},"geometry":{"type":"MultiPolygon","coordinates":[[[[72.83602,25.28127],[72.87439,25.25153],[72.94012,25.24371],[72.94517,25.21788],[72.97558,25.22335],[72.97588,25.19502],[72.94605,25.18797],[72.94749,25.16536],[72.9552,25.14196],[72.99884,25.1439],[73.00124,25.10107],[73.02381,25.08939],[73.04985,25.1042],[73.04493,25.1622],[73.14027,25.10137],[73.11559,25.04443],[73.04779,25.00464],[73.00003,24.92705],[73.07119,24.85743],[73.14296,24.843],[73.16042,24.81813],[73.13801,24.68771],[73.08397,24.63639],[73.08299,24.61136],[73.01199,24.50798],[73.00897,24.48243],[72.97704,24.45115],[72.98662,24.42096],[72.95913,24.38386],[72.98735,24.36401],[72.91955,24.32652],[72.86366,24.36615],[72.72768,24.36194],[72.68861,24.42007],[72.69249,24.458],[72.58345,24.47358],[72.53946,24.50806],[72.5064,24.44866],[72.49521,24.4516],[72.50227,24.4112],[72.45912,24.4085],[72.43114,24.46199],[72.43706,24.50573],[72.38072,24.50214],[72.35236,24.55424],[72.32925,24.56048],[72.33136,24.54594],[72.28932,24.54034],[72.28428,24.5602],[72.26583,24.55213],[72.24516,24.5822],[72.27355,24.60197],[72.31223,24.58681],[72.34365,24.60408],[72.34834,24.61987],[72.31102,24.6626],[72.37291,24.76121],[72.40085,24.77435],[72.4139,24.75375],[72.49595,24.75912],[72.50022,24.8182],[72.48387,24.87015],[72.50522,24.88066],[72.50417,24.92007],[72.5206,24.93487],[72.57756,24.93878],[72.65825,25.04066],[72.68739,25.04648],[72.70902,25.10707],[72.78142,25.19204],[72.78218,25.22616],[72.82754,25.28713],[72.83602,25.28127]]],[[[72.29993,24.63235],[72.28802,24.61513],[72.26847,24.62413],[72.2813,24.6484],[72.29963,24.63414],[72.29993,24.63235]]]]}},{"type":"Feature","properties":{"DISTRICT":"Tonk","ST_NM":"Rajasthan","ST_CEN_CD":8,"DT_CEN_CD":22,"censuscode":120},"geometry":{"type":"Polygon","coordinates":[[[76.1606,26.51466],[76.1806,26.48564],[76.13945,26.45816],[76.15821,26.44017],[76.13443,26.36906],[76.14683,26.35734],[76.13071,26.34476],[76.14437,26.29794],[76.10367,26.23907],[76.03001,26.25182],[76.03087,26.2222],[75.98414,26.21049],[75.98156,26.19472],[76.00675,26.17655],[75.99444,26.11556],[76.05585,26.11545],[76.06629,26.13333],[76.09244,26.11357],[76.09357,26.05933],[76.11609,26.05626],[76.11391,26.04308],[76.06985,25.99507],[76.11213,25.99978],[76.14377,25.96493],[76.16284,25.98974],[76.18237,25.98871],[76.19328,26.01341],[76.25038,26.01935],[76.25286,25.91637],[76.21892,25.91193],[76.21968,25.87045],[76.27546,25.82376],[76.29377,25.83574],[76.30197,25.82086],[76.32449,25.82213],[76.29988,25.78577],[76.27584,25.80611],[76.25586,25.79413],[76.23171,25.8044],[76.20075,25.84197],[76.17151,25.81287],[76.15723,25.76174],[76.10236,25.81009],[76.05691,25.8113],[76.06071,25.86225],[76.01276,25.88183],[75.98227,25.85807],[75.95729,25.86458],[75.94733,25.81606],[75.9055,25.81445],[75.91798,25.84414],[75.89401,25.86877],[75.84193,25.84706],[75.83803,25.80377],[75.82226,25.79677],[75.80214,25.8222],[75.7733,25.82248],[75.76147,25.75631],[75.68108,25.75447],[75.63169,25.70875],[75.62249,25.67695],[75.59571,25.68491],[75.59682,25.71083],[75.54547,25.70406],[75.52277,25.74721],[75.46442,25.71838],[75.40346,25.77438],[75.39105,25.75903],[75.31911,25.76375],[75.35489,25.82977],[75.31134,25.85352],[75.26355,25.85292],[75.26617,25.88017],[75.24631,25.90917],[75.25142,25.93734],[75.30707,25.94136],[75.3279,25.99853],[75.35488,26.01432],[75.30698,26.06946],[75.33995,26.13062],[75.30704,26.14684],[75.28264,26.13884],[75.24602,26.07823],[75.22062,26.10703],[75.18815,26.10981],[75.18511,26.17001],[75.15861,26.18263],[75.14339,26.24399],[75.1174,26.2519],[75.11342,26.28486],[75.13841,26.31766],[75.12606,26.3547],[75.14442,26.3657],[75.12975,26.39682],[75.16672,26.41464],[75.17002,26.46198],[75.18986,26.48881],[75.20079,26.48028],[75.20564,26.51556],[75.25459,26.53008],[75.2868,26.56393],[75.32087,26.56064],[75.37247,26.4861],[75.41313,26.48092],[75.41065,26.49528],[75.43714,26.48145],[75.45273,26.49313],[75.5272,26.46313],[75.55288,26.48621],[75.57598,26.47289],[75.57397,26.44614],[75.6173,26.43936],[75.64968,26.44509],[75.65508,26.46601],[75.71236,26.44481],[75.72971,26.46543],[75.74434,26.44691],[75.74931,26.46882],[75.77277,26.47226],[75.76095,26.51208],[75.78418,26.52573],[75.77407,26.54326],[75.79837,26.54978],[75.81707,26.51797],[75.8848,26.51923],[75.96312,26.48299],[75.97417,26.50217],[76.00882,26.49189],[76.03509,26.51675],[76.07238,26.50739],[76.11303,26.5353],[76.15588,26.51999],[76.1606,26.51466]]]}},{"type":"Feature","properties":{"DISTRICT":"Udaipur","ST_NM":"Rajasthan","ST_CEN_CD":8,"DT_CEN_CD":32,"censuscode":130},"geometry":{"type":"Polygon","coordinates":[[[74.39789,24.30346],[74.35907,24.18054],[74.43233,24.11567],[74.43778,24.08433],[74.42219,24.0675],[74.37899,24.06689],[74.35995,24.09159],[74.32802,24.04797],[74.30444,24.071],[74.29724,24.03666],[74.33779,24.00919],[74.32475,23.93738],[74.30236,23.96038],[74.2815,23.95766],[74.27514,23.93555],[74.22677,23.90935],[74.20544,23.95464],[74.17504,23.96954],[74.16027,24.01328],[74.14439,24.01926],[74.1274,23.99073],[74.08513,23.96942],[73.91791,23.98314],[73.84184,23.93344],[73.69683,23.9582],[73.67084,23.93899],[73.59242,23.96543],[73.51792,23.93085],[73.46448,23.84295],[73.43183,23.83696],[73.40849,23.8073],[73.37962,23.80766],[73.36643,23.81357],[73.35814,23.86107],[73.39235,23.91594],[73.42103,23.93014],[73.416,23.98176],[73.40147,23.98967],[73.41029,24.05018],[73.36609,24.08718],[73.37002,24.12733],[73.33159,24.11439],[73.32884,24.07295],[73.28717,24.02675],[73.2418,24.01017],[73.19656,24.04479],[73.21988,24.09772],[73.11,24.13832],[73.07715,24.19167],[73.14117,24.30755],[73.17694,24.30112],[73.18937,24.34318],[73.20752,24.33379],[73.22805,24.36418],[73.20751,24.37499],[73.16634,24.35032],[73.09449,24.38533],[73.08065,24.3975],[73.10467,24.42612],[73.09535,24.49132],[73.02941,24.46368],[73.00617,24.49412],[73.08299,24.61136],[73.08397,24.63639],[73.13801,24.68771],[73.14025,24.75258],[73.23101,24.79353],[73.27141,24.87731],[73.2905,24.875],[73.33011,24.91222],[73.3461,24.96053],[73.32965,24.97714],[73.35393,25.02377],[73.40998,25.08497],[73.46189,25.08944],[73.50326,25.11775],[73.50077,25.05354],[73.52324,25.03144],[73.50695,24.97556],[73.56151,24.93397],[73.59501,24.79132],[73.61159,24.77459],[73.70285,24.78903],[73.75638,24.73858],[73.7835,24.73507],[73.85527,24.88669],[73.93098,24.88148],[73.95824,24.85398],[74.00181,24.89217],[74.04548,24.83277],[74.1295,24.8521],[74.10661,24.78107],[74.11891,24.7394],[74.17266,24.71604],[74.15655,24.67641],[74.20459,24.66964],[74.21572,24.65736],[74.2064,24.62972],[74.22306,24.62821],[74.23112,24.65837],[74.25068,24.65322],[74.25864,24.63027],[74.22351,24.61613],[74.27911,24.56517],[74.27431,24.52557],[74.2488,24.53062],[74.21002,24.45547],[74.23934,24.44886],[74.24948,24.47323],[74.26837,24.46965],[74.26872,24.50394],[74.29872,24.48192],[74.3338,24.4935],[74.3282,24.45045],[74.36584,24.41044],[74.35315,24.33718],[74.38682,24.31093],[74.39789,24.30346]]]}}]}
