{"type":"FeatureCollection","properties":{"source":"DataMeet Community Maps Project - Districts/Census_2011","state":"Sikkim","stateSlug":"sikkim"},"features":[{"type":"Feature","properties":{"DISTRICT":"East","ST_NM":"Sikkim","ST_CEN_CD":11,"DT_CEN_CD":4,"censuscode":244},"geometry":{"type":"Polygon","coordinates":[[[88.81334,27.41401],[88.84558,27.3786],[88.86887,27.38341],[88.89704,27.3362],[88.92948,27.32611],[88.90627,27.27476],[88.80821,27.24738],[88.79522,27.18562],[88.73956,27.13714],[88.69152,27.17999],[88.6667,27.16198],[88.59869,27.1942],[88.53626,27.17749],[88.50629,27.18484],[88.49331,27.23924],[88.44603,27.26622],[88.45705,27.31506],[88.48884,27.33335],[88.48857,27.37808],[88.52579,27.39684],[88.62939,27.38702],[88.73408,27.41905],[88.79983,27.41617],[88.81334,27.41401]]]}},{"type":"Feature","properties":{"DISTRICT":"North","ST_NM":"Sikkim","ST_CEN_CD":11,"DT_CEN_CD":1,"censuscode":241},"geometry":{"type":"Polygon","coordinates":[[[88.81334,27.41401],[88.73408,27.41905],[88.62939,27.38702],[88.52579,27.39684],[88.48857,27.37808],[88.43917,27.39958],[88.40817,27.47539],[88.35832,27.521],[88.28422,27.5126],[88.24408,27.53455],[88.2123,27.58105],[88.11723,27.61784],[88.15105,27.66864],[88.16042,27.73551],[88.19882,27.7881],[88.17734,27.82052],[88.2027,27.84217],[88.18063,27.86521],[88.13403,27.87306],[88.12224,27.91709],[88.13263,27.9504],[88.14777,27.96296],[88.19731,27.9432],[88.21215,27.96613],[88.23834,27.96744],[88.2525,27.94808],[88.3538,27.98907],[88.39835,27.97768],[88.49171,28.04523],[88.54748,28.03856],[88.56304,28.08451],[88.62506,28.10338],[88.61536,28.12589],[88.62987,28.13068],[88.67528,28.0738],[88.75952,28.07306],[88.83734,28.01494],[88.84437,27.93177],[88.86934,27.92324],[88.89373,27.86112],[88.86219,27.81629],[88.87018,27.73877],[88.84639,27.71023],[88.85433,27.66866],[88.81762,27.64167],[88.81313,27.603],[88.77494,27.5665],[88.79648,27.52589],[88.79082,27.4553],[88.81146,27.42484],[88.81334,27.41401]]]}},{"type":"Feature","properties":{"DISTRICT":"South","ST_NM":"Sikkim","ST_CEN_CD":11,"DT_CEN_CD":3,"censuscode":243},"geometry":{"type":"Polygon","coordinates":[[[88.48857,27.37808],[88.48884,27.33335],[88.45705,27.31506],[88.44412,27.27364],[88.49331,27.23924],[88.49361,27.20204],[88.528,27.1779],[88.53713,27.14988],[88.43912,27.08133],[88.33115,27.10458],[88.31861,27.12502],[88.28551,27.1305],[88.30339,27.17336],[88.33695,27.19424],[88.2817,27.28606],[88.31201,27.30242],[88.30065,27.33066],[88.36091,27.38967],[88.35058,27.41388],[88.28177,27.40549],[88.27406,27.50328],[88.32184,27.5268],[88.35832,27.521],[88.40817,27.47539],[88.42211,27.41832],[88.48109,27.38077],[88.48857,27.37808]]]}},{"type":"Feature","properties":{"DISTRICT":"West","ST_NM":"Sikkim","ST_CEN_CD":11,"DT_CEN_CD":2,"censuscode":242},"geometry":{"type":"Polygon","coordinates":[[[88.28422,27.5126],[88.26866,27.4895],[88.27737,27.41158],[88.33409,27.41679],[88.36017,27.39901],[88.36085,27.37801],[88.30065,27.33066],[88.31201,27.30242],[88.28096,27.28128],[88.30656,27.26065],[88.31025,27.2258],[88.33695,27.19424],[88.30339,27.17336],[88.28551,27.1305],[88.23991,27.11942],[88.19114,27.13484],[88.16289,27.11173],[88.14409,27.1165],[88.09339,27.14111],[88.06939,27.21087],[88.01686,27.21644],[88.06502,27.33791],[88.04424,27.38273],[88.07077,27.44297],[88.04736,27.49329],[88.08352,27.58675],[88.11723,27.61784],[88.2123,27.58105],[88.26593,27.52549],[88.28422,27.5126]]]}}]}
