{"type":"FeatureCollection","properties":{"source":"DataMeet Community Maps Project - Districts/Census_2011","state":"Tamil Nadu","stateSlug":"tamil-nadu"},"features":[{"type":"Feature","properties":{"DISTRICT":"Ariyalur","ST_NM":"Tamil Nadu","ST_CEN_CD":33,"DT_CEN_CD":15,"censuscode":616},"geometry":{"type":"Polygon","coordinates":[[[79.32232,11.41967],[79.37005,11.41923],[79.37421,11.39873],[79.38523,11.39718],[79.38213,11.41084],[79.3945,11.40295],[79.39503,11.35471],[79.42663,11.36514],[79.43875,11.33331],[79.50038,11.31248],[79.50542,11.20323],[79.40758,11.07314],[79.29473,11.01361],[79.22166,10.94285],[79.08389,10.92303],[79.05061,10.88519],[79.00742,10.88937],[78.99987,10.92015],[78.98104,10.92092],[78.93896,10.96188],[78.97789,10.96585],[78.98783,11.0001],[79.01481,11.00829],[79.01062,11.05971],[79.06969,11.1059],[79.05739,11.13317],[79.07902,11.182],[79.06794,11.20424],[79.09633,11.1984],[79.10105,11.23002],[79.12373,11.24825],[79.11336,11.28618],[79.14236,11.28843],[79.14474,11.30122],[79.12735,11.3103],[79.13195,11.33293],[79.15702,11.33803],[79.15266,11.36412],[79.16989,11.37748],[79.23399,11.39194],[79.24481,11.36962],[79.25929,11.38841],[79.29881,11.38075],[79.29476,11.41211],[79.31428,11.41819],[79.32232,11.41967]]]}},{"type":"Feature","properties":{"DISTRICT":"Chennai","ST_NM":"Tamil Nadu","ST_CEN_CD":33,"DT_CEN_CD":2,"censuscode":603},"geometry":{"type":"Polygon","coordinates":[[[80.29769,13.12548],[80.3057,13.09474],[80.27326,12.99475],[80.21498,12.99449],[80.20069,13.01543],[80.21533,13.03176],[80.2169,13.10915],[80.22768,13.12646],[80.26484,13.12472],[80.28062,13.14179],[80.30349,13.14125],[80.29925,13.13175],[80.29769,13.12548]]]}},{"type":"Feature","properties":{"DISTRICT":"Coimbatore","ST_NM":"Tamil Nadu","ST_CEN_CD":33,"DT_CEN_CD":31,"censuscode":632},"geometry":{"type":"Polygon","coordinates":[[[77.11075,11.38995],[77.14449,11.33406],[77.14403,11.3029],[77.1109,11.29166],[77.16473,11.27185],[77.14196,11.21389],[77.15319,11.16568],[77.16916,11.16125],[77.17389,11.137],[77.18218,11.14764],[77.21914,11.12339],[77.23807,11.1367],[77.25818,11.10801],[77.15881,11.0607],[77.17449,11.03172],[77.15349,10.98529],[77.17508,10.92348],[77.24872,10.89597],[77.25404,10.86196],[77.28884,10.84887],[77.29887,10.81348],[77.27739,10.80152],[77.28021,10.7873],[77.24068,10.77455],[77.20882,10.78881],[77.21493,10.8027],[77.15316,10.78969],[77.13714,10.70551],[77.17415,10.63021],[77.15147,10.58297],[77.08083,10.56985],[77.08197,10.51531],[77.0545,10.41733],[77.07888,10.38082],[77.0952,10.3084],[77.04708,10.28075],[77.05188,10.25675],[76.984,10.21708],[76.94079,10.2379],[76.91844,10.23301],[76.875,10.27521],[76.87691,10.2982],[76.85116,10.2857],[76.83217,10.3033],[76.85174,10.36782],[76.81947,10.42295],[76.84152,10.59314],[76.8149,10.6221],[76.81659,10.63438],[76.88445,10.63761],[76.8819,10.67228],[76.86673,10.68055],[76.89542,10.71556],[76.90909,10.77903],[76.89976,10.80809],[76.85172,10.81576],[76.85645,10.83461],[76.82863,10.86984],[76.74344,10.88882],[76.65772,10.93663],[76.71684,11.03911],[76.79239,11.03689],[76.804,11.05497],[76.7777,11.04012],[76.74748,11.05533],[76.75839,11.08295],[76.7444,11.10118],[76.74893,11.12911],[76.71989,11.14805],[76.7067,11.14042],[76.69595,11.1654],[76.73651,11.21424],[76.70146,11.25492],[76.7394,11.24467],[76.76858,11.26112],[76.77331,11.28758],[76.78966,11.27686],[76.81,11.29501],[76.8559,11.29184],[76.85115,11.33845],[76.88751,11.34848],[76.89219,11.36462],[76.90869,11.34752],[76.95254,11.36173],[76.93387,11.37434],[76.96425,11.38266],[77.0157,11.36732],[77.04851,11.40047],[77.06764,11.40128],[77.06898,11.38149],[77.09845,11.40479],[77.1089,11.39495],[77.11075,11.38995]]]}},{"type":"Feature","properties":{"DISTRICT":"Cuddalore","ST_NM":"Tamil Nadu","ST_CEN_CD":33,"DT_CEN_CD":16,"censuscode":617},"geometry":{"type":"MultiPolygon","coordinates":[[[[79.69546,11.88492],[79.71083,11.88771],[79.71897,11.85268],[79.73335,11.86278],[79.75362,11.84948],[79.765,11.87501],[79.76741,11.83898],[79.78236,11.85503],[79.80931,11.84483],[79.79701,11.82311],[79.77353,11.82199],[79.73872,11.84277],[79.73652,11.80859],[79.7125,11.7893],[79.75515,11.7742],[79.76345,11.79042],[79.7951,11.78486],[79.78645,11.73934],[79.76698,11.7445],[79.78558,11.72932],[79.75845,11.57809],[79.76735,11.52287],[79.81043,11.43935],[79.80513,11.38244],[79.79064,11.3712],[79.76544,11.38022],[79.76054,11.35125],[79.72885,11.34741],[79.6525,11.29967],[79.64912,11.24976],[79.61864,11.2545],[79.59903,11.21743],[79.45989,11.14928],[79.51387,11.2263],[79.4962,11.248],[79.50111,11.31097],[79.43875,11.33331],[79.42663,11.36514],[79.39503,11.35471],[79.3945,11.40295],[79.38213,11.41084],[79.38523,11.39718],[79.37421,11.39873],[79.37005,11.41923],[79.29476,11.41211],[79.29881,11.38075],[79.25929,11.38841],[79.24481,11.36962],[79.23399,11.39194],[79.17692,11.37343],[79.10806,11.40114],[78.96509,11.40108],[78.87583,11.50498],[78.90514,11.50233],[78.92348,11.56465],[79.00001,11.57323],[79.01807,11.60435],[79.04919,11.58627],[79.07855,11.59737],[79.07039,11.6294],[79.08591,11.63275],[79.1406,11.5882],[79.18495,11.58576],[79.21127,11.63413],[79.23591,11.62741],[79.24987,11.65011],[79.31077,11.63311],[79.38291,11.67869],[79.44508,11.66398],[79.42916,11.73028],[79.46061,11.73852],[79.46608,11.76685],[79.44679,11.76146],[79.43154,11.77592],[79.44322,11.8078],[79.48452,11.80697],[79.47091,11.84679],[79.45323,11.84753],[79.4557,11.87],[79.59301,11.83907],[79.64697,11.79763],[79.69054,11.80274],[79.68562,11.83235],[79.70274,11.83122],[79.69546,11.88492]]],[[[79.77109,11.90091],[79.79763,11.89749],[79.7845,11.86195],[79.7724,11.899],[79.77109,11.90091]]]]}},{"type":"Feature","properties":{"DISTRICT":"Dharmapuri","ST_NM":"Tamil Nadu","ST_CEN_CD":33,"DT_CEN_CD":29,"censuscode":630},"geometry":{"type":"Polygon","coordinates":[[[78.63535,12.17519],[78.64942,12.15737],[78.63316,12.1293],[78.65934,12.12337],[78.6639,12.10238],[78.74057,12.13386],[78.74729,12.12527],[78.69853,11.98833],[78.71752,11.97979],[78.7054,11.93376],[78.72446,11.91535],[78.70639,11.89039],[78.63638,11.8838],[78.59608,11.81856],[78.54251,11.80044],[78.45415,11.82386],[78.4409,11.86465],[78.41695,11.87568],[78.35552,11.7925],[78.32925,11.77192],[78.31402,11.77916],[78.36779,11.8765],[78.36037,11.90374],[78.31063,11.87644],[78.32747,11.92503],[78.28216,11.89477],[78.29289,11.92712],[78.26299,11.90977],[78.27322,11.93433],[78.25634,11.93499],[78.23909,11.91234],[78.25272,11.94671],[78.23534,11.975],[78.13386,11.95953],[77.97378,11.89254],[77.86653,11.91304],[77.84685,11.89298],[77.67594,11.94922],[77.70061,12.01947],[77.77961,12.11522],[77.75129,12.13884],[77.75592,12.16244],[77.79341,12.1542],[77.81914,12.2281],[77.86355,12.25671],[77.87601,12.32161],[77.95051,12.34182],[77.9735,12.40688],[77.90176,12.49855],[77.93149,12.5137],[77.94499,12.51242],[77.94831,12.49039],[77.99153,12.50572],[78.00815,12.49565],[78.0207,12.45609],[78.05203,12.46388],[78.11821,12.44269],[78.14462,12.37094],[78.18554,12.33175],[78.23481,12.33972],[78.23215,12.31321],[78.2762,12.25933],[78.33449,12.26149],[78.36189,12.22064],[78.3962,12.22691],[78.40229,12.21668],[78.37866,12.19289],[78.47452,12.17336],[78.46883,12.14684],[78.50324,12.1428],[78.54462,12.18585],[78.57002,12.18611],[78.5867,12.16275],[78.62539,12.17783],[78.63535,12.17519]]]}},{"type":"Feature","properties":{"DISTRICT":"Dindigul","ST_NM":"Tamil Nadu","ST_CEN_CD":33,"DT_CEN_CD":11,"censuscode":612},"geometry":{"type":"Polygon","coordinates":[[[78.19782,10.54686],[78.17178,10.50183],[78.22425,10.46288],[78.31497,10.43829],[78.27811,10.38091],[78.33772,10.32567],[78.32887,10.22581],[78.25603,10.1627],[78.28126,10.16392],[78.28413,10.14819],[78.25977,10.08552],[78.21214,10.06449],[78.17035,10.09203],[78.14153,10.18243],[78.03047,10.17929],[77.97477,10.13118],[77.95282,10.14021],[77.93712,10.10674],[77.94784,10.09043],[77.92034,10.07422],[77.76416,10.05544],[77.71103,10.02023],[77.70058,10.10269],[77.66699,10.1215],[77.6735,10.14421],[77.72947,10.13136],[77.70293,10.21377],[77.66508,10.18866],[77.62283,10.21519],[77.56852,10.17952],[77.54768,10.20296],[77.54604,10.18027],[77.46812,10.14311],[77.46471,10.12751],[77.39447,10.1587],[77.37192,10.13638],[77.36187,10.14694],[77.32492,10.12509],[77.30416,10.13498],[77.28351,10.116],[77.26763,10.12052],[77.29698,10.25093],[77.30905,10.24395],[77.32553,10.27189],[77.34304,10.26057],[77.35049,10.27581],[77.3262,10.31915],[77.33608,10.35334],[77.31372,10.36205],[77.32467,10.44963],[77.385,10.44926],[77.38037,10.49094],[77.40065,10.49827],[77.40508,10.52211],[77.37808,10.52482],[77.36776,10.5433],[77.4175,10.62515],[77.48166,10.64897],[77.50146,10.64213],[77.50971,10.60544],[77.53992,10.60679],[77.58519,10.68215],[77.65594,10.67358],[77.66454,10.71467],[77.68953,10.73343],[77.70861,10.70737],[77.70136,10.65846],[77.72382,10.62999],[77.75584,10.64976],[77.75548,10.67025],[77.78907,10.68436],[77.81669,10.68075],[77.81372,10.64736],[77.83102,10.63154],[77.87318,10.63063],[77.90924,10.65444],[77.97965,10.63775],[77.9716,10.66965],[78.00751,10.67383],[78.01645,10.7178],[77.99744,10.74133],[77.93233,10.73474],[77.9396,10.7655],[77.98528,10.75948],[78.03397,10.78012],[78.05779,10.76279],[78.07253,10.77503],[78.09807,10.76457],[78.10636,10.80492],[78.14944,10.80507],[78.15866,10.83121],[78.17678,10.83374],[78.18651,10.81929],[78.15518,10.74394],[78.14654,10.67102],[78.16599,10.6137],[78.13844,10.59942],[78.13373,10.57308],[78.18891,10.55624],[78.19782,10.54686]]]}},{"type":"Feature","properties":{"DISTRICT":"Erode","ST_NM":"Tamil Nadu","ST_CEN_CD":33,"DT_CEN_CD":9,"censuscode":610},"geometry":{"type":"Polygon","coordinates":[[[77.4998,11.11443],[77.49353,11.1429],[77.47926,11.13802],[77.46637,11.16031],[77.47229,11.17946],[77.51025,11.18085],[77.51059,11.19756],[77.46359,11.24596],[77.45418,11.3069],[77.39952,11.31143],[77.36957,11.33998],[77.3647,11.31526],[77.33206,11.31419],[77.3471,11.28652],[77.33169,11.25474],[77.28547,11.28843],[77.28373,11.33975],[77.25279,11.30804],[77.24105,11.32204],[77.24142,11.30114],[77.1999,11.30109],[77.23413,11.31352],[77.22471,11.34986],[77.17644,11.33869],[77.18059,11.31247],[77.16614,11.31343],[77.13992,11.33518],[77.12696,11.37713],[77.11206,11.37699],[77.10886,11.40535],[77.06898,11.38149],[77.06764,11.40128],[77.04851,11.40047],[77.0157,11.36732],[76.96425,11.38266],[76.98401,11.4001],[76.98425,11.43772],[77.014,11.43667],[76.99379,11.47826],[76.99687,11.50869],[77.01602,11.52247],[77.00737,11.54359],[76.94055,11.57592],[76.91794,11.56276],[76.90933,11.57598],[76.85205,11.57844],[76.86044,11.60975],[76.83711,11.64628],[76.90898,11.79121],[76.95389,11.78938],[76.96913,11.77328],[76.98228,11.80916],[77.01402,11.81117],[77.04139,11.79217],[77.03208,11.77291],[77.06636,11.78539],[77.05995,11.76602],[77.0816,11.73335],[77.11942,11.72122],[77.11283,11.7715],[77.23739,11.79239],[77.25209,11.81112],[77.29528,11.80712],[77.33679,11.76782],[77.37022,11.78773],[77.4302,11.75975],[77.46717,11.84823],[77.46357,11.8976],[77.48776,11.88516],[77.49515,11.94151],[77.53452,11.93069],[77.67594,11.94922],[77.68513,11.87441],[77.66303,11.87501],[77.64987,11.81412],[77.68395,11.81701],[77.72259,11.79197],[77.69258,11.7164],[77.69192,11.64502],[77.70319,11.63081],[77.74439,11.65296],[77.77641,11.69308],[77.73942,11.60188],[77.74719,11.56406],[77.72651,11.53409],[77.73364,11.5108],[77.70172,11.47906],[77.68459,11.41366],[77.75257,11.3504],[77.80845,11.26472],[77.86232,11.24442],[77.86256,11.18155],[77.88367,11.15687],[77.8892,11.08196],[77.93227,11.06743],[77.89916,11.03067],[77.86643,11.02141],[77.81808,11.06576],[77.77845,11.05124],[77.65471,11.11502],[77.50048,11.11435],[77.4998,11.11443]]]}},{"type":"Feature","properties":{"DISTRICT":"Kancheepuram","ST_NM":"Tamil Nadu","ST_CEN_CD":33,"DT_CEN_CD":3,"censuscode":604},"geometry":{"type":"Polygon","coordinates":[[[80.09392,13.13565],[80.11952,13.1243],[80.12482,13.06017],[80.14835,13.03026],[80.20456,13.0282],[80.21991,12.99249],[80.27326,12.99475],[80.25179,12.87753],[80.25387,12.76688],[80.16383,12.51717],[80.16243,12.47068],[80.14043,12.45774],[80.14887,12.44818],[80.13106,12.44709],[80.13824,12.43246],[80.00479,12.25592],[79.97348,12.23474],[79.9261,12.2465],[79.92549,12.2299],[79.90011,12.22927],[79.87074,12.24435],[79.79919,12.33625],[79.75255,12.32441],[79.70259,12.33449],[79.68526,12.3162],[79.64477,12.34518],[79.66356,12.38261],[79.69644,12.39822],[79.69068,12.41764],[79.73961,12.43322],[79.74697,12.48282],[79.72416,12.49482],[79.75676,12.51812],[79.70731,12.57114],[79.72577,12.58762],[79.65018,12.60121],[79.63657,12.64447],[79.64849,12.66771],[79.7452,12.69361],[79.73905,12.71583],[79.71562,12.72667],[79.74654,12.74278],[79.67861,12.79091],[79.65654,12.7638],[79.63797,12.78759],[79.63994,12.81631],[79.56038,12.84958],[79.56081,12.8804],[79.57298,12.89944],[79.66205,12.92961],[79.66087,12.94824],[79.79947,13.02657],[79.82504,12.96331],[79.89568,12.94644],[79.9169,12.97706],[79.89759,12.99471],[79.94431,13.00306],[79.90524,13.01491],[79.9041,13.05077],[79.94633,13.0334],[79.98938,13.05687],[79.97912,13.03649],[79.99178,13.03142],[79.99824,13.05189],[79.98141,13.07361],[80.01349,13.10741],[80.0147,13.13151],[80.08773,13.14063],[80.09392,13.13565]]]}},{"type":"Feature","properties":{"DISTRICT":"Kanniyakumari","ST_NM":"Tamil Nadu","ST_CEN_CD":33,"DT_CEN_CD":28,"censuscode":629},"geometry":{"type":"Polygon","coordinates":[[[77.5911,8.1418],[77.56309,8.12169],[77.55293,8.07785],[77.31751,8.12136],[77.10006,8.29136],[77.14118,8.3307],[77.17902,8.32036],[77.17384,8.35928],[77.15496,8.35349],[77.15391,8.38638],[77.17284,8.38535],[77.20774,8.44281],[77.22864,8.44585],[77.20535,8.50149],[77.26655,8.50968],[77.28412,8.54584],[77.27035,8.57938],[77.36315,8.54149],[77.37791,8.518],[77.44229,8.5037],[77.4474,8.47396],[77.47223,8.45602],[77.47825,8.39573],[77.49277,8.38033],[77.53951,8.38762],[77.53238,8.3184],[77.57759,8.24876],[77.54606,8.24294],[77.55295,8.19293],[77.5404,8.16689],[77.58991,8.14593],[77.5911,8.1418]]]}},{"type":"Feature","properties":{"DISTRICT":"Karur","ST_NM":"Tamil Nadu","ST_CEN_CD":33,"DT_CEN_CD":12,"censuscode":613},"geometry":{"type":"Polygon","coordinates":[[[78.16847,11.01091],[78.199,10.95904],[78.38232,10.96457],[78.4775,10.90798],[78.46929,10.88523],[78.54907,10.87564],[78.58711,10.82919],[78.57668,10.80824],[78.5541,10.81178],[78.54598,10.79723],[78.56975,10.77528],[78.56456,10.73165],[78.5182,10.70835],[78.5141,10.69223],[78.47401,10.70384],[78.41614,10.67249],[78.37774,10.72515],[78.29416,10.70234],[78.28292,10.74434],[78.25833,10.57419],[78.22298,10.54924],[78.17078,10.55371],[78.13373,10.57308],[78.13844,10.59942],[78.16599,10.6137],[78.14654,10.67102],[78.15518,10.74394],[78.18651,10.81929],[78.17324,10.83399],[78.14944,10.80507],[78.10636,10.80492],[78.09807,10.76457],[78.07253,10.77503],[78.05779,10.76279],[78.03397,10.78012],[77.98528,10.75948],[77.9396,10.7655],[77.93233,10.73474],[77.99744,10.74133],[78.01645,10.7178],[78.00751,10.67383],[77.9716,10.66965],[77.97965,10.63775],[77.90924,10.65444],[77.87318,10.63063],[77.8268,10.63512],[77.80825,10.69376],[77.82453,10.7503],[77.76861,10.76552],[77.77421,10.7848],[77.80091,10.80483],[77.86858,10.7708],[77.89054,10.7732],[77.8906,10.78851],[77.86714,10.79762],[77.86888,10.83935],[77.82989,10.83446],[77.78958,10.88134],[77.77521,10.86635],[77.76031,10.8995],[77.76915,10.95497],[77.74981,10.97461],[77.78653,11.01366],[77.77939,11.06019],[77.81392,11.06752],[77.87194,11.02175],[77.93227,11.06743],[78.01301,11.0933],[78.09593,11.0749],[78.16385,11.01473],[78.16847,11.01091]]]}},{"type":"Feature","properties":{"DISTRICT":"Krishnagiri","ST_NM":"Tamil Nadu","ST_CEN_CD":33,"DT_CEN_CD":30,"censuscode":631},"geometry":{"type":"Polygon","coordinates":[[[78.63535,12.17519],[78.5867,12.16275],[78.57002,12.18611],[78.54462,12.18585],[78.50324,12.1428],[78.46883,12.14684],[78.47452,12.17336],[78.37866,12.19289],[78.40229,12.21668],[78.3962,12.22691],[78.36189,12.22064],[78.33449,12.26149],[78.2762,12.25933],[78.23215,12.31321],[78.23481,12.33972],[78.18554,12.33175],[78.14462,12.37094],[78.11821,12.44269],[78.05203,12.46388],[78.0207,12.45609],[78.00815,12.49565],[77.99153,12.50572],[77.94831,12.49039],[77.94499,12.51242],[77.93149,12.5137],[77.90176,12.49855],[77.9735,12.40688],[77.95051,12.34182],[77.87601,12.32161],[77.86355,12.25671],[77.81914,12.2281],[77.79341,12.1542],[77.76783,12.16556],[77.75117,12.15324],[77.73041,12.18099],[77.66615,12.19706],[77.50273,12.19614],[77.47583,12.21116],[77.47304,12.24463],[77.48851,12.27853],[77.55294,12.29271],[77.61659,12.36933],[77.63528,12.48629],[77.58531,12.47731],[77.61634,12.50876],[77.58841,12.51592],[77.57982,12.56677],[77.60757,12.62987],[77.59997,12.66635],[77.66406,12.68309],[77.68825,12.65801],[77.70539,12.66027],[77.71374,12.68277],[77.74141,12.67307],[77.73722,12.69193],[77.76026,12.69627],[77.77303,12.72357],[77.76301,12.73418],[77.79291,12.74795],[77.78155,12.76892],[77.80944,12.79599],[77.81091,12.8299],[77.79472,12.84285],[77.83549,12.86809],[77.89229,12.86762],[77.92782,12.88765],[77.9446,12.86538],[77.92063,12.82902],[77.9432,12.8223],[77.95574,12.85869],[77.99178,12.80513],[78.01189,12.80498],[78.00367,12.82317],[78.02528,12.85543],[78.05718,12.85196],[78.13142,12.77983],[78.23164,12.76264],[78.23832,12.72526],[78.20091,12.69136],[78.23924,12.68399],[78.24378,12.70388],[78.27563,12.70205],[78.30178,12.66321],[78.37991,12.62234],[78.40916,12.62416],[78.41721,12.48595],[78.45484,12.42897],[78.43639,12.39305],[78.49009,12.3866],[78.49719,12.40927],[78.51598,12.40443],[78.5702,12.38537],[78.61811,12.34598],[78.58972,12.31199],[78.61126,12.30768],[78.60489,12.26626],[78.62615,12.26408],[78.64343,12.2819],[78.6367,12.26158],[78.67245,12.22385],[78.63462,12.1759],[78.63535,12.17519]]]}},{"type":"Feature","properties":{"DISTRICT":"Madurai","ST_NM":"Tamil Nadu","ST_CEN_CD":33,"DT_CEN_CD":22,"censuscode":623},"geometry":{"type":"Polygon","coordinates":[[[78.14582,9.78354],[78.14021,9.76076],[78.10946,9.78491],[78.09237,9.77936],[78.10193,9.75489],[78.06337,9.7409],[78.08941,9.68218],[78.08376,9.66217],[78.04106,9.67638],[78.01552,9.63919],[78.0034,9.64892],[77.97537,9.6303],[77.93543,9.64826],[77.90216,9.62466],[77.89148,9.64184],[77.84759,9.65022],[77.84376,9.63547],[77.77622,9.64037],[77.7629,9.68365],[77.71108,9.70376],[77.6694,9.67674],[77.63068,9.70652],[77.55115,9.6446],[77.54414,9.65972],[77.52752,9.64788],[77.49419,9.57216],[77.47844,9.5626],[77.46433,9.57884],[77.61861,9.80701],[77.62262,9.8634],[77.67614,9.92482],[77.67439,9.95946],[77.69323,9.96774],[77.69827,10.01289],[77.76416,10.05544],[77.92034,10.07422],[77.94784,10.09043],[77.93712,10.10674],[77.95282,10.14021],[77.97477,10.13118],[78.03047,10.17929],[78.12153,10.18892],[78.14974,10.17447],[78.17035,10.09203],[78.21214,10.06449],[78.25977,10.08552],[78.28413,10.14819],[78.28126,10.16392],[78.25603,10.1627],[78.32887,10.22581],[78.3341,10.2999],[78.36489,10.29287],[78.38058,10.30905],[78.38636,10.26963],[78.42374,10.26829],[78.39498,10.2416],[78.41273,10.21253],[78.39623,10.17773],[78.41493,10.15903],[78.40392,10.13686],[78.47171,10.11501],[78.45775,10.10026],[78.46132,10.06957],[78.42915,10.05208],[78.46213,10.01053],[78.45817,9.96781],[78.3944,9.95266],[78.37763,9.9626],[78.37331,9.93263],[78.31952,9.92303],[78.31345,9.8651],[78.25358,9.8723],[78.26881,9.84856],[78.25991,9.83397],[78.2402,9.84614],[78.24769,9.85827],[78.20389,9.87469],[78.15552,9.87293],[78.15408,9.85038],[78.12675,9.8541],[78.13228,9.81284],[78.16927,9.82895],[78.19318,9.80682],[78.17695,9.77071],[78.16329,9.77396],[78.17104,9.79776],[78.14651,9.80649],[78.1455,9.79383],[78.14582,9.78354]]]}},{"type":"Feature","properties":{"DISTRICT":"Nagappattinam","ST_NM":"Tamil Nadu","ST_CEN_CD":33,"DT_CEN_CD":17,"censuscode":618},"geometry":{"type":"MultiPolygon","coordinates":[[[[79.707,10.91855],[79.76019,10.91469],[79.76027,10.89729],[79.76518,10.91057],[79.76912,10.89623],[79.79043,10.90498],[79.78426,10.88817],[79.82633,10.88297],[79.80691,10.87723],[79.82554,10.86444],[79.81052,10.855],[79.84948,10.827],[79.83576,10.81147],[79.85015,10.80902],[79.87624,10.28559],[79.79481,10.27131],[79.72865,10.32993],[79.70552,10.33],[79.72381,10.3104],[79.70641,10.31206],[79.63863,10.35469],[79.63405,10.44069],[79.69618,10.45214],[79.6831,10.48091],[79.70304,10.48614],[79.69716,10.50903],[79.7292,10.53421],[79.71743,10.55351],[79.67263,10.56462],[79.69879,10.58719],[79.66642,10.6055],[79.67721,10.63362],[79.65628,10.64833],[79.68539,10.68757],[79.6625,10.71471],[79.69683,10.7242],[79.70664,10.78011],[79.73378,10.80431],[79.72953,10.82622],[79.66047,10.81631],[79.67131,10.79435],[79.64928,10.79483],[79.6389,10.8188],[79.6616,10.83997],[79.6461,10.85765],[79.67273,10.91549],[79.69172,10.93099],[79.707,10.92291],[79.707,10.91855]]],[[[79.81806,11.39863],[79.82468,11.36448],[79.7987,11.36863],[79.81239,11.34433],[79.84013,11.35246],[79.85715,11.15084],[79.85249,10.98798],[79.84187,11.00211],[79.80049,10.98272],[79.75422,11.00436],[79.73457,10.99499],[79.6911,11.01586],[79.6505,11.01306],[79.63366,10.97741],[79.57914,10.98094],[79.52733,10.95758],[79.50986,10.9836],[79.54876,11.00046],[79.52708,11.00677],[79.53448,11.02478],[79.5154,11.04001],[79.55071,11.07512],[79.5487,11.10291],[79.53768,11.10207],[79.5739,11.14501],[79.52346,11.18078],[79.59903,11.21743],[79.61864,11.2545],[79.64912,11.24976],[79.6525,11.29967],[79.72885,11.34741],[79.76054,11.35125],[79.76544,11.38022],[79.79673,11.37368],[79.81417,11.42064],[79.81674,11.40361],[79.81806,11.39863]]]]}},{"type":"Feature","properties":{"DISTRICT":"Namakkal","ST_NM":"Tamil Nadu","ST_CEN_CD":33,"DT_CEN_CD":8,"censuscode":609},"geometry":{"type":"Polygon","coordinates":[[[78.48641,11.4031],[78.46053,11.339],[78.44774,11.34211],[78.46634,11.3108],[78.42106,11.21034],[78.38139,11.18674],[78.38231,11.13842],[78.34665,11.13634],[78.326,11.09756],[78.36262,11.06251],[78.34478,11.02448],[78.32887,11.03013],[78.32401,11.05629],[78.28386,11.07624],[78.26469,11.06701],[78.2297,11.09311],[78.22793,11.05225],[78.20363,11.0717],[78.16579,11.04754],[78.19803,11.03958],[78.19534,11.02119],[78.16847,11.01091],[78.08975,11.07657],[78.01301,11.0933],[77.95067,11.06461],[77.89268,11.07624],[77.88367,11.15687],[77.86256,11.18155],[77.86232,11.24442],[77.80845,11.26472],[77.75257,11.3504],[77.68349,11.41921],[77.69626,11.45844],[77.73921,11.44107],[77.77505,11.47848],[77.79549,11.46294],[77.79109,11.44638],[77.83027,11.46446],[77.82362,11.43994],[77.8736,11.40863],[77.9014,11.41787],[77.92672,11.4586],[77.97229,11.46565],[77.98182,11.52624],[78.03376,11.52686],[78.05806,11.51153],[78.07854,11.5209],[78.08383,11.55153],[78.15945,11.53522],[78.20746,11.5607],[78.26693,11.55639],[78.27984,11.56168],[78.26627,11.56504],[78.27328,11.57521],[78.30533,11.58515],[78.32102,11.58083],[78.30928,11.56122],[78.3291,11.55524],[78.31333,11.53658],[78.33159,11.53004],[78.37519,11.58416],[78.38328,11.57272],[78.43971,11.59358],[78.45215,11.59331],[78.45413,11.53844],[78.47221,11.51539],[78.46358,11.49385],[78.43644,11.49473],[78.42641,11.46903],[78.45746,11.4364],[78.42801,11.38356],[78.48641,11.40311],[78.48641,11.4031]]]}},{"type":"Feature","properties":{"DISTRICT":"Perambalur","ST_NM":"Tamil Nadu","ST_CEN_CD":33,"DT_CEN_CD":14,"censuscode":615},"geometry":{"type":"Polygon","coordinates":[[[78.84493,11.5196],[78.87173,11.51291],[78.96509,11.40108],[79.10806,11.40114],[79.16989,11.37748],[79.15266,11.36412],[79.15702,11.33803],[79.13195,11.33293],[79.14236,11.28843],[79.11507,11.29024],[79.12373,11.24825],[79.10105,11.23002],[79.09633,11.1984],[79.06794,11.20424],[79.07902,11.182],[79.05739,11.13317],[79.06969,11.1059],[79.02136,11.06086],[79.00507,11.05904],[78.97513,11.09266],[78.88925,11.10164],[78.87337,11.08298],[78.80882,11.07967],[78.81082,11.1118],[78.76208,11.12156],[78.73733,11.10748],[78.74531,11.08164],[78.71242,11.05355],[78.67702,11.15607],[78.65371,11.16332],[78.67904,11.19271],[78.70138,11.19238],[78.71244,11.2481],[78.75142,11.28437],[78.73284,11.32103],[78.66583,11.31565],[78.63282,11.33155],[78.68916,11.37611],[78.65995,11.37763],[78.65166,11.41956],[78.71639,11.45358],[78.75208,11.43839],[78.79866,11.38323],[78.82226,11.42513],[78.79089,11.45173],[78.81117,11.50386],[78.8377,11.51424],[78.84493,11.5196]]]}},{"type":"Feature","properties":{"DISTRICT":"Pudukkottai","ST_NM":"Tamil Nadu","ST_CEN_CD":33,"DT_CEN_CD":20,"censuscode":621},"geometry":{"type":"MultiPolygon","coordinates":[[[[78.73673,10.6702],[78.74893,10.64087],[78.78982,10.64668],[78.80043,10.67864],[78.81015,10.67123],[78.82084,10.69315],[78.87289,10.68763],[78.87143,10.70593],[78.90848,10.67095],[78.93818,10.68601],[78.93728,10.67117],[78.96624,10.6527],[78.99994,10.7224],[79.00959,10.69821],[79.03298,10.69624],[79.01813,10.67448],[79.0697,10.67229],[79.0709,10.63617],[79.10527,10.6141],[79.12794,10.63333],[79.14354,10.58594],[79.19142,10.57773],[79.18542,10.53683],[79.15156,10.52855],[79.13029,10.49407],[79.19539,10.46191],[79.15949,10.44611],[79.153,10.46241],[79.15511,10.44878],[79.12906,10.43271],[79.15493,10.3989],[79.1497,10.34271],[79.11924,10.32971],[79.13521,10.32408],[79.1198,10.30116],[79.13336,10.26437],[79.11722,10.23683],[79.18148,10.21788],[79.18493,10.19949],[79.1529,10.19709],[79.15351,10.16184],[79.19703,10.16305],[79.20562,10.13952],[79.22886,10.14028],[79.22693,10.0926],[79.26347,10.03581],[79.16697,9.94291],[79.12084,9.88057],[79.11406,9.84624],[79.04618,9.85993],[78.99052,9.94533],[79.0137,9.98294],[78.93012,10.02174],[78.92462,10.04776],[78.94446,10.05889],[78.93502,10.07158],[78.96243,10.09457],[78.97096,10.08154],[78.98649,10.08828],[78.96812,10.12542],[78.94743,10.10599],[78.90932,10.12923],[78.90134,10.15463],[78.84669,10.12487],[78.81733,10.16443],[78.82351,10.19597],[78.8107,10.21138],[78.77129,10.19776],[78.76786,10.16419],[78.73124,10.15926],[78.70818,10.1736],[78.68277,10.1465],[78.64695,10.25792],[78.58092,10.28461],[78.57269,10.25606],[78.54132,10.2552],[78.52019,10.23345],[78.51711,10.18985],[78.47255,10.20335],[78.48922,10.23241],[78.48321,10.25458],[78.45056,10.245],[78.45866,10.26679],[78.51478,10.26519],[78.52241,10.3259],[78.49706,10.36105],[78.52681,10.38084],[78.52131,10.42989],[78.56407,10.42678],[78.58947,10.46449],[78.57079,10.48743],[78.58069,10.52158],[78.55387,10.51393],[78.53929,10.52922],[78.52954,10.48561],[78.49843,10.48422],[78.48284,10.53931],[78.46468,10.54213],[78.45077,10.60499],[78.48412,10.63737],[78.52842,10.62726],[78.51888,10.66527],[78.55266,10.68578],[78.56953,10.67884],[78.56739,10.65988],[78.59564,10.65658],[78.63722,10.70677],[78.65949,10.703],[78.66334,10.65367],[78.69662,10.70117],[78.68907,10.73155],[78.74246,10.70793],[78.73708,10.6757],[78.73673,10.6702]]],[[[79.24101,10.49664],[79.22257,10.47928],[79.21952,10.49273],[79.23832,10.49825],[79.24101,10.49664]]],[[[79.21303,10.52479],[79.20657,10.51695],[79.20621,10.53172],[79.215,10.52511],[79.21303,10.52479]]]]}},{"type":"Feature","properties":{"DISTRICT":"Ramanathapuram","ST_NM":"Tamil Nadu","ST_CEN_CD":33,"DT_CEN_CD":25,"censuscode":626},"geometry":{"type":"Polygon","coordinates":[[[78.72222,9.74756],[78.77562,9.76893],[78.78021,9.79511],[78.82258,9.77352],[78.81652,9.73996],[78.82976,9.72149],[78.85798,9.75436],[78.88879,9.75623],[78.90061,9.78358],[78.88394,9.79901],[78.87755,9.8728],[78.90429,9.88003],[78.92389,9.92126],[78.95707,9.92108],[78.99052,9.94533],[79.04618,9.85993],[79.11406,9.84624],[78.98756,9.70727],[78.92526,9.58638],[78.91546,9.49964],[78.89536,9.4716],[78.94226,9.40236],[79.0518,9.29997],[79.18828,9.28093],[79.09379,9.25988],[78.9855,9.27514],[78.90489,9.24824],[78.86762,9.25503],[78.72498,9.20876],[78.72083,9.18733],[78.65771,9.18747],[78.64993,9.15487],[78.57529,9.12821],[78.4773,9.13059],[78.39128,9.09386],[78.27614,9.14099],[78.29909,9.20331],[78.27262,9.20198],[78.28281,9.27515],[78.33209,9.26147],[78.34954,9.2792],[78.37809,9.27667],[78.36236,9.29586],[78.37659,9.3181],[78.29659,9.38869],[78.24491,9.37688],[78.21986,9.44418],[78.30332,9.44057],[78.301,9.45887],[78.31762,9.46563],[78.35578,9.46037],[78.33441,9.47054],[78.32702,9.51814],[78.38424,9.51605],[78.36854,9.57155],[78.44189,9.61677],[78.50338,9.60799],[78.49663,9.59817],[78.51672,9.58212],[78.5419,9.58469],[78.66161,9.51858],[78.65378,9.54329],[78.68151,9.56029],[78.67859,9.59821],[78.74528,9.57682],[78.82024,9.5933],[78.80938,9.59754],[78.82346,9.61532],[78.79432,9.62458],[78.78546,9.65079],[78.79745,9.70552],[78.77649,9.71865],[78.72457,9.70928],[78.70111,9.74767],[78.72189,9.74732],[78.72222,9.74756]]]}},{"type":"Feature","properties":{"DISTRICT":"Salem","ST_NM":"Tamil Nadu","ST_CEN_CD":33,"DT_CEN_CD":7,"censuscode":608},"geometry":{"type":"Polygon","coordinates":[[[78.62698,11.86355],[78.69476,11.84555],[78.69026,11.79861],[78.64102,11.75991],[78.64737,11.65567],[78.67887,11.63971],[78.69005,11.68297],[78.78188,11.69863],[78.80435,11.68496],[78.80629,11.6592],[78.77642,11.63511],[78.7904,11.62185],[78.77941,11.60359],[78.82865,11.57628],[78.81598,11.54569],[78.84493,11.5196],[78.81117,11.50386],[78.79982,11.47952],[78.79089,11.45173],[78.82226,11.42513],[78.79866,11.38323],[78.75208,11.43839],[78.71639,11.45358],[78.65166,11.41956],[78.66535,11.37201],[78.64332,11.34236],[78.58458,11.32905],[78.57827,11.31452],[78.55624,11.31478],[78.55213,11.35725],[78.50597,11.37826],[78.50999,11.39242],[78.48653,11.40878],[78.42801,11.38356],[78.45746,11.4364],[78.42641,11.46903],[78.43644,11.49473],[78.46358,11.49385],[78.47221,11.51539],[78.45413,11.53844],[78.45215,11.59331],[78.38328,11.57272],[78.37519,11.58416],[78.33159,11.53004],[78.31333,11.53658],[78.3291,11.55524],[78.30928,11.56122],[78.32102,11.58083],[78.30533,11.58515],[78.27328,11.57521],[78.26627,11.56504],[78.27984,11.56168],[78.26693,11.55639],[78.20746,11.5607],[78.15945,11.53522],[78.08383,11.55153],[78.07854,11.5209],[78.05806,11.51153],[78.03376,11.52686],[77.98182,11.52624],[77.97229,11.46565],[77.92672,11.4586],[77.9014,11.41787],[77.8736,11.40863],[77.82362,11.43994],[77.83027,11.46446],[77.79549,11.44528],[77.79549,11.46294],[77.76975,11.47876],[77.75927,11.44886],[77.73921,11.44107],[77.69626,11.45844],[77.73364,11.5108],[77.72651,11.53409],[77.74719,11.56406],[77.73942,11.60188],[77.77641,11.69308],[77.74439,11.65296],[77.70319,11.63081],[77.69192,11.64502],[77.69258,11.7164],[77.72259,11.79197],[77.68395,11.81701],[77.64987,11.81412],[77.66303,11.87501],[77.68513,11.87441],[77.67594,11.94922],[77.84685,11.89298],[77.86653,11.91304],[77.97378,11.89254],[78.13386,11.95953],[78.23534,11.975],[78.25272,11.94671],[78.23909,11.91234],[78.25634,11.93499],[78.27322,11.93433],[78.26299,11.90977],[78.29289,11.92712],[78.28216,11.89477],[78.32747,11.92503],[78.31063,11.87644],[78.36037,11.90374],[78.36779,11.8765],[78.31402,11.77916],[78.32925,11.77192],[78.41695,11.87568],[78.4409,11.86465],[78.45415,11.82386],[78.54251,11.80044],[78.59608,11.81856],[78.60848,11.84566],[78.62698,11.86355]]]}},{"type":"Feature","properties":{"DISTRICT":"Sivaganga","ST_NM":"Tamil Nadu","ST_CEN_CD":33,"DT_CEN_CD":21,"censuscode":622},"geometry":{"type":"Polygon","coordinates":[[[78.49133,10.38854],[78.50752,10.38665],[78.49728,10.35222],[78.52241,10.3259],[78.51478,10.26519],[78.45866,10.26679],[78.45056,10.245],[78.48608,10.25169],[78.47255,10.20335],[78.48875,10.18925],[78.51711,10.18985],[78.52019,10.23345],[78.54132,10.2552],[78.57269,10.25606],[78.58092,10.28461],[78.64695,10.25792],[78.68277,10.1465],[78.70818,10.1736],[78.73124,10.15926],[78.76786,10.16419],[78.77129,10.19776],[78.8107,10.21138],[78.82351,10.19597],[78.81733,10.16443],[78.84669,10.12487],[78.90134,10.15463],[78.90932,10.12923],[78.94743,10.10599],[78.96812,10.12542],[78.98649,10.08828],[78.97096,10.08154],[78.96243,10.09457],[78.93502,10.07158],[78.94446,10.05889],[78.92462,10.04776],[78.93012,10.02174],[79.01455,9.97922],[79.00148,9.95377],[78.95707,9.92108],[78.92389,9.92126],[78.90429,9.88003],[78.87755,9.8728],[78.88394,9.79901],[78.90061,9.78358],[78.88879,9.75623],[78.85798,9.75436],[78.82976,9.72149],[78.81652,9.73996],[78.82258,9.77352],[78.78021,9.79511],[78.77562,9.76893],[78.76183,9.77172],[78.74424,9.74674],[78.70205,9.75181],[78.72457,9.70928],[78.77649,9.71865],[78.79745,9.70552],[78.78546,9.65079],[78.79432,9.62458],[78.82346,9.61532],[78.80938,9.59754],[78.82024,9.5933],[78.74528,9.57682],[78.67859,9.59821],[78.68151,9.56029],[78.65378,9.54329],[78.66161,9.51858],[78.5419,9.58469],[78.51672,9.58212],[78.49663,9.59817],[78.50338,9.60799],[78.46424,9.62149],[78.41855,9.59595],[78.41561,9.61787],[78.3895,9.631],[78.39308,9.64911],[78.33554,9.66759],[78.34358,9.68172],[78.32041,9.70444],[78.32613,9.74205],[78.29619,9.69135],[78.30251,9.67631],[78.28491,9.67751],[78.26866,9.69391],[78.27603,9.73904],[78.21511,9.77815],[78.17253,9.74776],[78.13929,9.75769],[78.14338,9.80592],[78.17104,9.79776],[78.16329,9.77396],[78.17695,9.77071],[78.19318,9.80682],[78.16927,9.82895],[78.13228,9.81284],[78.12675,9.8541],[78.15408,9.85038],[78.16132,9.87505],[78.20389,9.87469],[78.24769,9.85827],[78.2402,9.84614],[78.25991,9.83397],[78.26881,9.84856],[78.25358,9.8723],[78.31345,9.8651],[78.31952,9.92303],[78.37331,9.93263],[78.37763,9.9626],[78.3944,9.95266],[78.45817,9.96781],[78.46213,10.01053],[78.42915,10.05208],[78.46132,10.06957],[78.45775,10.10026],[78.47171,10.11501],[78.40392,10.13686],[78.41493,10.15903],[78.39623,10.17773],[78.41273,10.21253],[78.39498,10.2416],[78.42374,10.26829],[78.38636,10.26963],[78.38058,10.30905],[78.40477,10.34431],[78.39299,10.35402],[78.44941,10.37416],[78.44644,10.40697],[78.49109,10.39422],[78.49133,10.38854]]]}},{"type":"Feature","properties":{"DISTRICT":"Thanjavur","ST_NM":"Tamil Nadu","ST_CEN_CD":33,"DT_CEN_CD":19,"censuscode":620},"geometry":{"type":"Polygon","coordinates":[[[79.52558,11.17887],[79.5739,11.14501],[79.53768,11.10207],[79.5487,11.10291],[79.55071,11.07512],[79.5154,11.04001],[79.53448,11.02478],[79.52708,11.00677],[79.54876,11.00046],[79.50986,10.9836],[79.51971,10.94381],[79.48525,10.918],[79.50799,10.90121],[79.48668,10.86885],[79.45651,10.86203],[79.3715,10.89252],[79.30408,10.93707],[79.27379,10.89384],[79.30839,10.81813],[79.37811,10.80219],[79.34474,10.78058],[79.36348,10.75219],[79.30145,10.74069],[79.3174,10.6601],[79.35669,10.64687],[79.3497,10.58501],[79.40259,10.57561],[79.40779,10.5499],[79.45083,10.5562],[79.42433,10.53449],[79.46897,10.50955],[79.45499,10.49321],[79.48369,10.48746],[79.47046,10.45784],[79.4802,10.44161],[79.45277,10.43406],[79.47991,10.39823],[79.46182,10.37451],[79.4859,10.38061],[79.50817,10.35344],[79.47759,10.34996],[79.47341,10.31887],[79.40162,10.32479],[79.34902,10.30204],[79.35317,10.29035],[79.32779,10.2854],[79.27561,10.23821],[79.27799,10.21395],[79.22886,10.14028],[79.20562,10.13952],[79.20399,10.16007],[79.15351,10.16184],[79.1529,10.19709],[79.18493,10.19949],[79.18148,10.21788],[79.14434,10.21908],[79.14574,10.23645],[79.12165,10.23455],[79.11657,10.25136],[79.13336,10.26437],[79.1198,10.30116],[79.13521,10.32408],[79.11924,10.32971],[79.1497,10.34271],[79.15493,10.3989],[79.12906,10.43271],[79.15511,10.44878],[79.153,10.46241],[79.15949,10.44611],[79.19539,10.46191],[79.13029,10.49407],[79.15156,10.52855],[79.18542,10.53683],[79.19142,10.57773],[79.14354,10.58594],[79.12794,10.63333],[79.10527,10.6141],[79.0709,10.63617],[79.0697,10.67229],[79.01813,10.67448],[79.03298,10.69624],[79.00959,10.69821],[78.99994,10.7224],[78.96624,10.6527],[78.93728,10.67117],[78.93818,10.68601],[78.90848,10.67095],[78.86833,10.71386],[78.88047,10.77831],[78.86764,10.82535],[78.77825,10.83163],[78.91984,10.86436],[78.96029,10.89205],[79.05061,10.88519],[79.08389,10.92303],[79.1455,10.93846],[79.21387,10.93847],[79.29473,11.01361],[79.40758,11.07314],[79.46142,11.15434],[79.52348,11.18075],[79.52558,11.17887]],[[79.23617,10.49897],[79.21952,10.49273],[79.22257,10.47928],[79.24065,10.48303],[79.23832,10.49825],[79.23617,10.49897]],[[79.20621,10.53172],[79.20657,10.51695],[79.21496,10.53107],[79.20621,10.53172]]]}},{"type":"Feature","properties":{"DISTRICT":"The Nilgiris","ST_NM":"Tamil Nadu","ST_CEN_CD":33,"DT_CEN_CD":10,"censuscode":611},"geometry":{"type":"Polygon","coordinates":[[[76.84683,11.58238],[76.90933,11.57598],[76.91794,11.56276],[76.94055,11.57592],[77.00737,11.54359],[77.01602,11.52247],[76.99687,11.50869],[76.99379,11.47826],[77.014,11.43667],[76.98425,11.43772],[76.98401,11.4001],[76.93387,11.37434],[76.95254,11.36173],[76.90869,11.34752],[76.89219,11.36462],[76.88751,11.34848],[76.85115,11.33845],[76.8559,11.29184],[76.81,11.29501],[76.78966,11.27686],[76.77331,11.28758],[76.76858,11.26112],[76.7394,11.24467],[76.70999,11.26188],[76.70679,11.23904],[76.63269,11.19322],[76.49677,11.21005],[76.46177,11.1874],[76.44699,11.20171],[76.4553,11.23763],[76.52263,11.26926],[76.54929,11.2997],[76.53759,11.31078],[76.54718,11.35892],[76.51835,11.35389],[76.51894,11.36841],[76.45698,11.38856],[76.41655,11.42187],[76.41873,11.44064],[76.39885,11.43497],[76.3417,11.46559],[76.32889,11.45157],[76.28581,11.48131],[76.24774,11.46634],[76.24997,11.53548],[76.2331,11.57109],[76.27845,11.59963],[76.30554,11.57111],[76.33627,11.5954],[76.3579,11.58962],[76.38789,11.62936],[76.43279,11.63031],[76.44357,11.64474],[76.43138,11.66633],[76.45938,11.66219],[76.51234,11.7052],[76.54874,11.67775],[76.56857,11.61743],[76.75541,11.61823],[76.84549,11.59192],[76.84683,11.58238]]]}},{"type":"Feature","properties":{"DISTRICT":"Theni","ST_NM":"Tamil Nadu","ST_CEN_CD":33,"DT_CEN_CD":23,"censuscode":624},"geometry":{"type":"Polygon","coordinates":[[[77.71103,10.02023],[77.69323,9.96774],[77.67439,9.95946],[77.67614,9.92482],[77.62262,9.8634],[77.61861,9.80701],[77.46433,9.57884],[77.47714,9.5492],[77.42896,9.54614],[77.38706,9.51797],[77.35417,9.55948],[77.36737,9.5973],[77.3569,9.60429],[77.34083,9.57238],[77.32021,9.60218],[77.27084,9.57399],[77.23854,9.58169],[77.21149,9.61304],[77.16729,9.61476],[77.20699,9.69505],[77.20517,9.72438],[77.22349,9.73059],[77.22493,9.78888],[77.24915,9.79753],[77.22392,9.82347],[77.23862,9.85799],[77.21395,9.87491],[77.21923,9.90328],[77.27618,9.97283],[77.25548,10.0092],[77.26266,10.02933],[77.20498,10.0901],[77.20877,10.11522],[77.24476,10.12917],[77.28351,10.116],[77.30416,10.13498],[77.32492,10.12509],[77.36187,10.14694],[77.37192,10.13638],[77.39447,10.1587],[77.46471,10.12751],[77.46812,10.14311],[77.54604,10.18027],[77.54768,10.20296],[77.56852,10.17952],[77.62283,10.21519],[77.66508,10.18866],[77.70293,10.21377],[77.72947,10.13136],[77.6735,10.14421],[77.66699,10.1215],[77.70058,10.10269],[77.71217,10.03116],[77.71103,10.02023]]]}},{"type":"Feature","properties":{"DISTRICT":"Thiruvallur","ST_NM":"Tamil Nadu","ST_CEN_CD":33,"DT_CEN_CD":1,"censuscode":602},"geometry":{"type":"MultiPolygon","coordinates":[[[[80.30879,13.46826],[80.31093,13.43232],[80.28901,13.44026],[80.28087,13.42798],[80.28889,13.40283],[80.32512,13.38317],[80.32933,13.43847],[80.34165,13.27024],[80.30349,13.14125],[80.22768,13.12646],[80.2169,13.10915],[80.21387,13.02721],[80.14835,13.03026],[80.12482,13.06017],[80.11287,13.1321],[80.0428,13.13794],[80.0147,13.13151],[80.01349,13.10741],[79.98327,13.08169],[79.99178,13.03142],[79.97912,13.03649],[79.98938,13.05687],[79.94633,13.0334],[79.9041,13.05077],[79.90524,13.01491],[79.92241,13.01917],[79.9409,12.99473],[79.89759,12.99471],[79.9169,12.97706],[79.89568,12.94644],[79.85367,12.95012],[79.82504,12.96331],[79.8101,13.01681],[79.78551,13.02213],[79.78681,13.05252],[79.72089,13.05367],[79.74055,13.07428],[79.73228,13.0952],[79.70166,13.09973],[79.73456,13.11631],[79.7358,13.16442],[79.70028,13.15603],[79.70028,13.18744],[79.67099,13.18145],[79.65505,13.2083],[79.63613,13.14749],[79.59405,13.1454],[79.59516,13.12224],[79.4824,13.13806],[79.45328,13.09219],[79.43129,13.11805],[79.45281,13.12602],[79.41856,13.14848],[79.40227,13.10595],[79.42166,13.09803],[79.41693,13.08297],[79.34718,13.06052],[79.30634,13.08406],[79.28576,13.11972],[79.29719,13.13479],[79.32027,13.10893],[79.32904,13.13137],[79.36693,13.14185],[79.36004,13.17504],[79.37351,13.16809],[79.39065,13.19449],[79.43293,13.1966],[79.43393,13.22065],[79.45782,13.22894],[79.44839,13.24194],[79.42312,13.22425],[79.43723,13.29337],[79.38668,13.31492],[79.42943,13.33392],[79.54806,13.3233],[79.56109,13.27943],[79.5927,13.25778],[79.61357,13.28017],[79.63323,13.27143],[79.68102,13.29448],[79.69687,13.2693],[79.68591,13.24212],[79.70864,13.24656],[79.70138,13.2201],[79.73547,13.2346],[79.75711,13.20775],[79.79763,13.23636],[79.73385,13.28491],[79.75873,13.29272],[79.76661,13.31549],[79.79242,13.29486],[79.81289,13.31712],[79.86383,13.31634],[79.92333,13.35668],[79.9382,13.34896],[79.96623,13.38713],[79.94505,13.41731],[79.97582,13.4309],[79.98596,13.48045],[80.01841,13.50074],[80.0486,13.49752],[80.04527,13.51485],[80.00264,13.52299],[80.00658,13.54249],[80.05793,13.53499],[80.08194,13.55062],[80.08047,13.49111],[80.12625,13.50726],[80.21562,13.48748],[80.24181,13.46797],[80.26969,13.56315],[80.30688,13.46952],[80.30879,13.46826]]],[[[80.31928,13.41393],[80.31343,13.42406],[80.32104,13.41628],[80.31928,13.41393]]],[[[80.30522,13.42151],[80.3093,13.40991],[80.30333,13.4223],[80.30522,13.42151]]]]}},{"type":"Feature","properties":{"DISTRICT":"Thiruvarur","ST_NM":"Tamil Nadu","ST_CEN_CD":33,"DT_CEN_CD":18,"censuscode":619},"geometry":{"type":"Polygon","coordinates":[[[79.70312,11.01327],[79.74683,10.99669],[79.76264,10.95865],[79.7207,10.96705],[79.72143,10.9504],[79.73832,10.95056],[79.72135,10.93409],[79.74236,10.90938],[79.70918,10.91069],[79.69783,10.93055],[79.67273,10.91549],[79.6461,10.85765],[79.6616,10.83997],[79.6389,10.8188],[79.64928,10.79483],[79.67131,10.79435],[79.66047,10.81631],[79.72953,10.82622],[79.73378,10.80431],[79.70664,10.78011],[79.69683,10.7242],[79.6625,10.71471],[79.68539,10.68757],[79.65628,10.64833],[79.67721,10.63362],[79.66642,10.6055],[79.69879,10.58719],[79.67263,10.56462],[79.71743,10.55351],[79.7292,10.53421],[79.69716,10.50903],[79.70304,10.48614],[79.6831,10.48091],[79.69618,10.45214],[79.63143,10.43546],[79.63863,10.35469],[79.67674,10.32514],[79.63789,10.33808],[79.61157,10.31919],[79.72296,10.28928],[79.74753,10.30006],[79.76936,10.27288],[79.54541,10.30733],[79.55629,10.32986],[79.61309,10.33076],[79.60012,10.34782],[79.52698,10.35499],[79.53787,10.34143],[79.52793,10.31713],[79.47341,10.31887],[79.47759,10.34996],[79.50817,10.35344],[79.4859,10.38061],[79.46182,10.37451],[79.47991,10.39823],[79.45277,10.43406],[79.4802,10.44161],[79.47046,10.45784],[79.48369,10.48746],[79.45499,10.49321],[79.46897,10.50955],[79.42433,10.53449],[79.45083,10.5562],[79.40779,10.5499],[79.40259,10.57561],[79.3497,10.58501],[79.35669,10.64687],[79.3174,10.6601],[79.29977,10.73507],[79.36348,10.75219],[79.34474,10.78058],[79.37811,10.80219],[79.31108,10.81621],[79.29251,10.83904],[79.29304,10.87144],[79.27442,10.87302],[79.30408,10.93707],[79.3715,10.89252],[79.467,10.86191],[79.50797,10.89542],[79.48525,10.918],[79.51971,10.94381],[79.51492,10.9677],[79.52733,10.95758],[79.57914,10.98094],[79.63366,10.97741],[79.6505,11.01306],[79.70174,11.01357],[79.70312,11.01327]]]}},{"type":"Feature","properties":{"DISTRICT":"Thoothukkudi","ST_NM":"Tamil Nadu","ST_CEN_CD":33,"DT_CEN_CD":26,"censuscode":627},"geometry":{"type":"MultiPolygon","coordinates":[[[[78.17017,9.36798],[78.17571,9.33719],[78.21083,9.32522],[78.21483,9.30272],[78.28393,9.28631],[78.27262,9.20198],[78.29909,9.20331],[78.27614,9.14099],[78.39128,9.09386],[78.27479,9.01076],[78.21342,9.04796],[78.21634,9.02861],[78.24492,9.02834],[78.26783,9.00084],[78.2125,8.96158],[78.17212,8.88038],[78.16536,8.75837],[78.19821,8.76519],[78.19933,8.7879],[78.20592,8.76691],[78.19388,8.7449],[78.16988,8.74347],[78.14104,8.69295],[78.12632,8.63522],[78.14182,8.59081],[78.12476,8.53612],[78.13109,8.48709],[78.06716,8.41629],[78.06733,8.37126],[77.97589,8.33533],[77.89238,8.32398],[77.88636,8.34859],[77.86349,8.34042],[77.8432,8.36334],[77.85641,8.37176],[77.83608,8.38178],[77.85899,8.38529],[77.86083,8.39913],[77.8344,8.43087],[77.84085,8.48316],[77.80877,8.53088],[77.82136,8.54125],[77.81304,8.56883],[77.79736,8.56312],[77.80415,8.5751],[77.78343,8.58169],[77.78904,8.62267],[77.80605,8.61317],[77.81994,8.63123],[77.81999,8.64868],[77.80652,8.64991],[77.82641,8.67163],[77.81261,8.68027],[77.82776,8.7318],[77.81787,8.77104],[77.85358,8.80134],[77.81117,8.87149],[77.76281,8.8876],[77.75706,8.92746],[77.69481,8.92855],[77.6844,8.97388],[77.72143,8.96439],[77.73182,8.98361],[77.72374,9.00036],[77.68829,9.00781],[77.71301,9.0437],[77.7057,9.07181],[77.74601,9.07632],[77.74144,9.10341],[77.68996,9.10036],[77.67358,9.1255],[77.70185,9.13554],[77.69198,9.15203],[77.70765,9.18621],[77.7382,9.18515],[77.74622,9.16061],[77.80632,9.17598],[77.84247,9.16688],[77.86123,9.19497],[77.84817,9.24215],[77.85835,9.24691],[77.88215,9.2428],[77.88141,9.20618],[77.9218,9.20161],[77.95638,9.22936],[77.95743,9.24955],[78.01138,9.27281],[78.01283,9.30457],[78.05278,9.30423],[78.03601,9.33118],[78.05992,9.3609],[78.14981,9.37106],[78.17017,9.36798]]]]}},{"type":"Feature","properties":{"DISTRICT":"Tiruchirappalli","ST_NM":"Tamil Nadu","ST_CEN_CD":33,"DT_CEN_CD":13,"censuscode":614},"geometry":{"type":"Polygon","coordinates":[[[78.66535,11.37201],[78.68916,11.37611],[78.63282,11.33155],[78.66583,11.31565],[78.73284,11.32103],[78.75142,11.28437],[78.71244,11.2481],[78.70138,11.19238],[78.67904,11.19271],[78.65313,11.167],[78.67702,11.15607],[78.71242,11.05355],[78.74531,11.08164],[78.73733,11.10748],[78.76208,11.12156],[78.81082,11.1118],[78.80882,11.07967],[78.87337,11.08298],[78.88925,11.10164],[78.97513,11.09266],[79.009,11.05682],[79.01481,11.00829],[78.98783,11.0001],[78.97789,10.96585],[78.93917,10.95829],[78.99987,10.92015],[79.00742,10.88937],[78.96029,10.89205],[78.91984,10.86436],[78.77825,10.83163],[78.86764,10.82535],[78.88047,10.77831],[78.86527,10.73418],[78.87289,10.68763],[78.82084,10.69315],[78.78982,10.64668],[78.74893,10.64087],[78.74246,10.70793],[78.69504,10.73219],[78.69508,10.69654],[78.66334,10.65367],[78.65949,10.703],[78.63722,10.70677],[78.59564,10.65658],[78.56739,10.65988],[78.56953,10.67884],[78.55266,10.68578],[78.51888,10.66527],[78.52842,10.62726],[78.47393,10.63051],[78.44964,10.60087],[78.46468,10.54213],[78.48284,10.53931],[78.50456,10.48258],[78.5372,10.49473],[78.53929,10.52922],[78.55387,10.51393],[78.58237,10.52066],[78.57079,10.48743],[78.58931,10.47349],[78.58469,10.44033],[78.56525,10.44213],[78.55642,10.42523],[78.52472,10.43595],[78.51787,10.40578],[78.53028,10.39417],[78.51699,10.37042],[78.50752,10.38665],[78.44644,10.40697],[78.44941,10.37416],[78.39299,10.35402],[78.40477,10.34431],[78.3914,10.31574],[78.36489,10.29287],[78.3341,10.2999],[78.33474,10.33079],[78.27811,10.38091],[78.31497,10.43829],[78.22425,10.46288],[78.17178,10.50183],[78.19782,10.54686],[78.23953,10.55375],[78.25833,10.57419],[78.28292,10.74434],[78.29416,10.70234],[78.37774,10.72515],[78.41614,10.67249],[78.47401,10.70384],[78.5141,10.69223],[78.56733,10.7367],[78.56975,10.77528],[78.54598,10.79723],[78.5541,10.81178],[78.57668,10.80824],[78.58711,10.82919],[78.54907,10.87564],[78.46929,10.88523],[78.4775,10.90798],[78.39301,10.96118],[78.199,10.95904],[78.16674,11.00369],[78.19534,11.02119],[78.19737,11.04351],[78.16579,11.04754],[78.20363,11.0717],[78.22793,11.05225],[78.2297,11.09311],[78.24049,11.09227],[78.26469,11.06701],[78.28386,11.07624],[78.32401,11.05629],[78.32887,11.03013],[78.34478,11.02448],[78.36262,11.06251],[78.326,11.09756],[78.34665,11.13634],[78.38231,11.13842],[78.38139,11.18674],[78.42106,11.21034],[78.46634,11.3108],[78.44774,11.34211],[78.46053,11.339],[78.48641,11.4031],[78.54918,11.3611],[78.55624,11.31478],[78.64332,11.34236],[78.66535,11.37201]]]}},{"type":"Feature","properties":{"DISTRICT":"Tirunelveli","ST_NM":"Tamil Nadu","ST_CEN_CD":33,"DT_CEN_CD":27,"censuscode":628},"geometry":{"type":"Polygon","coordinates":[[[77.84817,9.24215],[77.86123,9.19497],[77.84247,9.16688],[77.80632,9.17598],[77.74622,9.16061],[77.7382,9.18515],[77.70765,9.18621],[77.69198,9.15203],[77.70185,9.13554],[77.67612,9.1355],[77.67887,9.10487],[77.74144,9.10341],[77.74601,9.07632],[77.7057,9.07181],[77.71301,9.0437],[77.68829,9.00781],[77.72374,9.00036],[77.72143,8.96439],[77.693,8.97926],[77.68184,8.96602],[77.70516,8.92073],[77.76258,8.92303],[77.76281,8.8876],[77.81117,8.87149],[77.85358,8.80134],[77.81787,8.77104],[77.82776,8.7318],[77.81261,8.68027],[77.82641,8.67163],[77.80652,8.64991],[77.81999,8.64868],[77.81994,8.63123],[77.80605,8.61317],[77.78904,8.62267],[77.78343,8.58169],[77.80415,8.5751],[77.79736,8.56312],[77.81304,8.56883],[77.82136,8.54125],[77.80877,8.53088],[77.84085,8.48316],[77.8344,8.43087],[77.86083,8.39913],[77.85899,8.38529],[77.83608,8.38178],[77.85641,8.37176],[77.8432,8.36334],[77.86349,8.34042],[77.88636,8.34859],[77.90474,8.32132],[77.97589,8.33533],[77.88481,8.26739],[77.80983,8.24322],[77.78544,8.22348],[77.78548,8.20114],[77.74238,8.1717],[77.5911,8.1418],[77.5404,8.16689],[77.55295,8.19293],[77.54606,8.24294],[77.57759,8.24876],[77.53238,8.3184],[77.53951,8.38762],[77.49277,8.38033],[77.44229,8.5037],[77.37791,8.518],[77.36315,8.54149],[77.27035,8.57938],[77.20869,8.66317],[77.17333,8.7458],[77.19459,8.74333],[77.20101,8.76946],[77.22032,8.76928],[77.2639,8.85166],[77.25771,8.87664],[77.22392,8.90169],[77.22234,8.92592],[77.19795,8.9242],[77.1976,8.9555],[77.14926,9.02024],[77.17084,9.04502],[77.19924,9.04505],[77.2129,9.09703],[77.26884,9.15184],[77.25351,9.18797],[77.28371,9.2177],[77.2835,9.2998],[77.30019,9.30987],[77.30076,9.33645],[77.32804,9.33695],[77.34061,9.4173],[77.38931,9.39078],[77.43413,9.39107],[77.45209,9.36989],[77.44096,9.35421],[77.46768,9.34704],[77.46012,9.33128],[77.52243,9.33497],[77.531,9.37582],[77.55316,9.37089],[77.57475,9.34278],[77.59178,9.34382],[77.58824,9.30757],[77.60449,9.29973],[77.65688,9.28218],[77.71256,9.28947],[77.7594,9.26619],[77.77544,9.23494],[77.79066,9.25698],[77.77576,9.27675],[77.79741,9.27254],[77.809,9.2459],[77.84032,9.2441],[77.84817,9.24215]]]}},{"type":"Feature","properties":{"DISTRICT":"Tiruppur","ST_NM":"Tamil Nadu","ST_CEN_CD":33,"DT_CEN_CD":32,"censuscode":633},"geometry":{"type":"Polygon","coordinates":[[[77.22728,11.34388],[77.23413,11.31352],[77.20173,11.29689],[77.24142,11.30114],[77.24105,11.32204],[77.25279,11.30804],[77.28373,11.33975],[77.28547,11.28843],[77.33169,11.25474],[77.3471,11.28652],[77.33206,11.31419],[77.3647,11.31526],[77.36957,11.33998],[77.39952,11.31143],[77.45836,11.30411],[77.46359,11.24596],[77.51059,11.19756],[77.51025,11.18085],[77.47229,11.17946],[77.46637,11.16031],[77.47926,11.13802],[77.49353,11.1429],[77.4998,11.11443],[77.51845,11.1049],[77.63089,11.12048],[77.77845,11.05124],[77.78653,11.01366],[77.74981,10.97461],[77.76915,10.95497],[77.75957,10.90651],[77.77227,10.87048],[77.78958,10.88134],[77.83437,10.83254],[77.86095,10.84575],[77.86714,10.79762],[77.89122,10.78179],[77.86858,10.7708],[77.80091,10.80483],[77.77632,10.789],[77.76861,10.76552],[77.82453,10.7503],[77.82425,10.71485],[77.80918,10.679],[77.76786,10.67862],[77.72978,10.62988],[77.70136,10.65846],[77.70861,10.70737],[77.68953,10.73343],[77.66454,10.71467],[77.65594,10.67358],[77.58519,10.68215],[77.53992,10.60679],[77.50971,10.60544],[77.50146,10.64213],[77.48166,10.64897],[77.40178,10.6112],[77.36776,10.5433],[77.37808,10.52482],[77.40508,10.52211],[77.40065,10.49827],[77.38037,10.49094],[77.385,10.44926],[77.33357,10.45521],[77.32086,10.43409],[77.31372,10.36205],[77.33608,10.35334],[77.3262,10.31915],[77.34782,10.26261],[77.32553,10.27189],[77.28895,10.22973],[77.26057,10.22971],[77.2645,10.26286],[77.22821,10.31482],[77.23582,10.34934],[77.17643,10.35517],[77.0952,10.3084],[77.07888,10.38082],[77.0545,10.41733],[77.08197,10.51531],[77.08083,10.56985],[77.15147,10.58297],[77.17415,10.63021],[77.13714,10.70551],[77.15316,10.78969],[77.21493,10.8027],[77.20882,10.78881],[77.24068,10.77455],[77.28021,10.7873],[77.27739,10.80152],[77.29887,10.81348],[77.28884,10.84887],[77.25404,10.86196],[77.24872,10.89597],[77.17212,10.92969],[77.15349,10.98854],[77.17449,11.03586],[77.15881,11.0607],[77.25818,11.10801],[77.23807,11.1367],[77.21914,11.12339],[77.18218,11.14764],[77.17389,11.137],[77.14225,11.20768],[77.16473,11.27185],[77.1109,11.29166],[77.14403,11.3029],[77.14449,11.33406],[77.18059,11.31247],[77.17644,11.33869],[77.23079,11.34855],[77.22728,11.34388]]]}},{"type":"Feature","properties":{"DISTRICT":"Tiruvannamalai","ST_NM":"Tamil Nadu","ST_CEN_CD":33,"DT_CEN_CD":5,"censuscode":606},"geometry":{"type":"Polygon","coordinates":[[[79.5604,12.84959],[79.63994,12.81631],[79.63797,12.78759],[79.65654,12.7638],[79.67861,12.79091],[79.74654,12.74278],[79.71562,12.72667],[79.73905,12.71583],[79.7452,12.69361],[79.64849,12.66771],[79.63372,12.63105],[79.65018,12.60121],[79.72854,12.58346],[79.70731,12.57114],[79.75676,12.51812],[79.72416,12.49482],[79.74697,12.48282],[79.7358,12.42777],[79.71734,12.43587],[79.70562,12.41333],[79.69068,12.41764],[79.69644,12.39822],[79.66356,12.38261],[79.64477,12.34518],[79.62042,12.3508],[79.61592,12.37463],[79.59875,12.34938],[79.53222,12.3684],[79.50208,12.34591],[79.4931,12.37229],[79.44989,12.37794],[79.44235,12.40679],[79.41106,12.4089],[79.4021,12.43454],[79.24791,12.44543],[79.22665,12.40078],[79.24816,12.38906],[79.22693,12.36689],[79.24007,12.3461],[79.20077,12.33971],[79.23485,12.3158],[79.29,12.3177],[79.28005,12.29081],[79.2472,12.27659],[79.24806,12.23932],[79.2273,12.22055],[79.23777,12.21364],[79.217,12.21004],[79.2352,12.18263],[79.21276,12.1907],[79.21415,12.16591],[79.27946,12.12323],[79.2611,12.08129],[79.23537,12.06179],[79.20068,12.06907],[79.17449,12.03085],[79.14348,12.04157],[79.12775,12.0199],[79.08006,12.03195],[79.09909,12.06513],[79.08683,12.08014],[79.05165,12.03592],[79.0245,12.04663],[79.03125,12.0637],[78.99732,12.06745],[78.99526,12.04982],[78.96069,12.06665],[78.91772,12.01407],[78.80679,12.01715],[78.76064,12.00932],[78.73837,11.98167],[78.70104,11.98351],[78.74729,12.12527],[78.74057,12.13386],[78.6639,12.10238],[78.65934,12.12337],[78.63316,12.1293],[78.64942,12.15737],[78.63462,12.1759],[78.6445,12.20394],[78.65907,12.19637],[78.67259,12.21752],[78.65223,12.25775],[78.71026,12.30104],[78.7315,12.37008],[78.77074,12.42375],[78.77886,12.48321],[78.80063,12.4985],[78.89832,12.68749],[78.9267,12.67567],[78.95253,12.68436],[78.97765,12.66437],[78.99551,12.70304],[79.01407,12.69909],[79.01612,12.65677],[79.07518,12.7518],[79.16267,12.75098],[79.16606,12.76991],[79.17599,12.74391],[79.20606,12.74028],[79.20941,12.784],[79.24143,12.79585],[79.25503,12.82198],[79.26563,12.78882],[79.28845,12.78007],[79.2883,12.75582],[79.34494,12.72813],[79.34612,12.69312],[79.38059,12.73254],[79.39675,12.72546],[79.38236,12.70785],[79.39608,12.68891],[79.35574,12.66666],[79.35519,12.64458],[79.3841,12.62725],[79.46208,12.68374],[79.47729,12.73084],[79.45727,12.73629],[79.45683,12.75465],[79.47675,12.77608],[79.46338,12.80011],[79.47704,12.79717],[79.45725,12.81031],[79.45835,12.83593],[79.47399,12.87147],[79.51465,12.85378],[79.53981,12.86002],[79.5604,12.84959]]]}},{"type":"Feature","properties":{"DISTRICT":"Vellore","ST_NM":"Tamil Nadu","ST_CEN_CD":33,"DT_CEN_CD":4,"censuscode":605},"geometry":{"type":"Polygon","coordinates":[[[79.78551,13.02213],[79.66087,12.94824],[79.66205,12.92961],[79.57298,12.89944],[79.5604,12.84959],[79.47399,12.87147],[79.45835,12.83593],[79.45725,12.81031],[79.47704,12.79717],[79.46338,12.80011],[79.47675,12.77608],[79.45683,12.75465],[79.45727,12.73629],[79.47729,12.73084],[79.46208,12.68374],[79.3841,12.62725],[79.35519,12.64458],[79.35574,12.66666],[79.39608,12.68891],[79.38236,12.70785],[79.39675,12.72546],[79.38059,12.73254],[79.34612,12.69312],[79.34494,12.72813],[79.2883,12.75582],[79.28845,12.78007],[79.26563,12.78882],[79.25503,12.82198],[79.24143,12.79585],[79.20941,12.784],[79.20606,12.74028],[79.17599,12.74391],[79.16606,12.76991],[79.16267,12.75098],[79.07518,12.7518],[79.01612,12.65677],[79.01407,12.69909],[78.99551,12.70304],[78.97765,12.66437],[78.95253,12.68436],[78.9267,12.67567],[78.89832,12.68749],[78.80063,12.4985],[78.77886,12.48321],[78.77074,12.42375],[78.7315,12.37008],[78.71026,12.30104],[78.65223,12.25775],[78.6367,12.26158],[78.64343,12.2819],[78.607,12.26285],[78.61126,12.30768],[78.58972,12.31199],[78.61811,12.34598],[78.5702,12.38537],[78.49719,12.40927],[78.49009,12.3866],[78.43639,12.39305],[78.45484,12.42897],[78.41721,12.48595],[78.40916,12.62416],[78.47136,12.62811],[78.46933,12.67291],[78.50028,12.67406],[78.50505,12.71415],[78.52219,12.7125],[78.49593,12.74542],[78.53813,12.71199],[78.53613,12.69047],[78.55947,12.69643],[78.55723,12.75467],[78.59364,12.78159],[78.63722,12.92992],[78.65828,12.92981],[78.62505,12.98954],[78.6625,13.02861],[78.70525,13.01518],[78.71387,13.06691],[78.75755,13.05627],[78.81966,13.08888],[78.87004,13.08214],[78.88771,13.09725],[78.89373,13.03096],[78.93652,13.02992],[78.90525,13.04628],[78.92616,13.07896],[78.99145,13.08783],[79.06532,13.04953],[79.08118,13.02574],[79.11654,13.03588],[79.16498,13.01908],[79.18538,13.03109],[79.18163,13.06478],[79.2011,13.09639],[79.23047,13.11574],[79.23044,13.14732],[79.24889,13.13857],[79.25939,13.1599],[79.28351,13.14994],[79.30136,13.08962],[79.34718,13.06052],[79.41693,13.08297],[79.42166,13.09803],[79.40227,13.10595],[79.41856,13.14848],[79.45281,13.12602],[79.43129,13.11805],[79.45328,13.09219],[79.4824,13.13806],[79.59516,13.12224],[79.59405,13.1454],[79.63613,13.14749],[79.65505,13.2083],[79.67099,13.18145],[79.70028,13.18744],[79.70028,13.15603],[79.7358,13.16442],[79.73456,13.11631],[79.70166,13.09973],[79.73228,13.0952],[79.74055,13.07428],[79.72089,13.05367],[79.78681,13.05252],[79.78557,13.02215],[79.78551,13.02213]]]}},{"type":"Feature","properties":{"DISTRICT":"Viluppuram","ST_NM":"Tamil Nadu","ST_CEN_CD":33,"DT_CEN_CD":6,"censuscode":607},"geometry":{"type":"Polygon","coordinates":[[[79.33842,12.44459],[79.4021,12.43454],[79.41106,12.4089],[79.44235,12.40679],[79.44989,12.37794],[79.4931,12.37229],[79.50208,12.34591],[79.53222,12.3684],[79.59875,12.34938],[79.61592,12.37463],[79.62042,12.3508],[79.68526,12.3162],[79.70259,12.33449],[79.75255,12.32441],[79.79919,12.33625],[79.87074,12.24435],[79.90011,12.22927],[79.92549,12.2299],[79.9261,12.2465],[79.97348,12.23474],[80.00479,12.25592],[79.87503,12.04331],[79.85004,12.0502],[79.8409,12.01325],[79.85786,12.00458],[79.8405,11.95459],[79.81476,11.97878],[79.80264,11.95286],[79.78684,11.96085],[79.75197,11.92157],[79.74859,11.96157],[79.73065,11.98174],[79.75737,11.98139],[79.76458,12.00048],[79.74957,12.00861],[79.72075,11.99163],[79.69382,12.0334],[79.66212,12.01132],[79.65904,11.98732],[79.71396,11.9863],[79.71648,11.96645],[79.69315,11.95075],[79.71284,11.93097],[79.7096,11.9456],[79.72102,11.94301],[79.73999,11.9059],[79.73049,11.88935],[79.70661,11.89273],[79.71762,11.91683],[79.69787,11.91898],[79.69492,11.89355],[79.67542,11.89157],[79.70274,11.83122],[79.68562,11.83235],[79.67536,11.80626],[79.64285,11.79771],[79.59301,11.83907],[79.4557,11.87],[79.45323,11.84753],[79.47091,11.84679],[79.48452,11.80697],[79.44322,11.8078],[79.43154,11.77592],[79.44679,11.76146],[79.46608,11.76685],[79.46061,11.73852],[79.42916,11.73028],[79.44508,11.66398],[79.38291,11.67869],[79.31077,11.63311],[79.24987,11.65011],[79.23591,11.62741],[79.21127,11.63413],[79.18495,11.58576],[79.1406,11.5882],[79.08591,11.63275],[79.07039,11.6294],[79.07855,11.59737],[79.05514,11.58568],[79.01807,11.60435],[79.00001,11.57323],[78.92348,11.56465],[78.90514,11.50233],[78.83894,11.52231],[78.81598,11.54569],[78.82865,11.57628],[78.77941,11.60359],[78.7904,11.62185],[78.77642,11.63511],[78.80629,11.6592],[78.80435,11.68496],[78.78188,11.69863],[78.69005,11.68297],[78.67887,11.63971],[78.64737,11.65567],[78.64102,11.75991],[78.69026,11.79861],[78.69476,11.84555],[78.62698,11.86355],[78.63405,11.88121],[78.70639,11.89039],[78.72446,11.91535],[78.7054,11.93376],[78.71752,11.97979],[78.73837,11.98167],[78.76064,12.00932],[78.84161,12.00875],[78.8798,12.02467],[78.91772,12.01407],[78.96069,12.06665],[78.99526,12.04982],[78.99732,12.06745],[79.03125,12.0637],[79.0245,12.04663],[79.05165,12.03592],[79.08683,12.08014],[79.09909,12.06513],[79.08006,12.03195],[79.12775,12.0199],[79.14348,12.04157],[79.17449,12.03085],[79.20068,12.06907],[79.23537,12.06179],[79.2611,12.08129],[79.27946,12.12323],[79.21415,12.16591],[79.21276,12.1907],[79.2352,12.18263],[79.217,12.21004],[79.23777,12.21364],[79.2273,12.22055],[79.24806,12.23932],[79.2472,12.27659],[79.28005,12.29081],[79.29,12.3177],[79.23485,12.3158],[79.20074,12.34223],[79.24007,12.3461],[79.22693,12.36689],[79.24874,12.37833],[79.22665,12.40078],[79.238,12.44034],[79.32695,12.44939],[79.33842,12.44459]],[[79.62767,12.03044],[79.62007,11.92443],[79.63303,11.90086],[79.67249,11.91475],[79.66866,11.93714],[79.64347,11.94472],[79.63658,11.99643],[79.65429,12.02379],[79.63544,12.02901],[79.62767,12.03044]],[[79.62282,11.89012],[79.59977,11.8798],[79.60242,11.85651],[79.62903,11.86723],[79.62681,11.85239],[79.65579,11.85164],[79.66291,11.8668],[79.63135,11.88808],[79.62282,11.89012]],[[79.68004,11.97231],[79.6553,11.9536],[79.67572,11.94793],[79.68894,11.97189],[79.68004,11.97231]],[[79.64661,11.84243],[79.6463,11.8162],[79.67002,11.81491],[79.64878,11.84361],[79.64661,11.84243]],[[79.79311,12.01727],[79.80707,12.02418],[79.79088,12.01851],[79.79311,12.01727]]]}},{"type":"Feature","properties":{"DISTRICT":"Virudunagar","ST_NM":"Tamil Nadu","ST_CEN_CD":33,"DT_CEN_CD":24,"censuscode":625},"geometry":{"type":"MultiPolygon","coordinates":[[[[78.12773,9.76952],[78.17253,9.74776],[78.21511,9.77815],[78.27603,9.73904],[78.26866,9.69391],[78.28491,9.67751],[78.30251,9.67631],[78.29619,9.69135],[78.32613,9.74205],[78.32041,9.70444],[78.34358,9.68172],[78.33888,9.66269],[78.38303,9.65506],[78.3895,9.631],[78.41561,9.61787],[78.41263,9.58727],[78.36854,9.57155],[78.38424,9.51605],[78.32702,9.51814],[78.33441,9.47054],[78.35578,9.46037],[78.31762,9.46563],[78.301,9.45887],[78.30332,9.44057],[78.21986,9.44418],[78.21554,9.43297],[78.24422,9.40507],[78.24491,9.37688],[78.29659,9.38869],[78.33752,9.36576],[78.37659,9.3181],[78.36236,9.29586],[78.37809,9.27667],[78.34954,9.2792],[78.33209,9.26147],[78.22545,9.29597],[78.21083,9.32522],[78.17571,9.33719],[78.17017,9.36798],[78.05992,9.3609],[78.03601,9.33118],[78.05278,9.30423],[78.01283,9.30457],[78.01138,9.27281],[77.95743,9.24955],[77.95638,9.22936],[77.91215,9.19868],[77.88141,9.20618],[77.88215,9.2428],[77.809,9.2459],[77.79741,9.27254],[77.77576,9.27675],[77.79066,9.25698],[77.77544,9.23494],[77.7594,9.26619],[77.71256,9.28947],[77.65688,9.28218],[77.60449,9.29973],[77.58824,9.30757],[77.59178,9.34382],[77.57475,9.34278],[77.55316,9.37089],[77.531,9.37582],[77.52243,9.33497],[77.46012,9.33128],[77.46768,9.34704],[77.44096,9.35421],[77.45209,9.36989],[77.43413,9.39107],[77.38931,9.39078],[77.34061,9.4173],[77.36186,9.45445],[77.3951,9.46004],[77.41269,9.50589],[77.40311,9.52607],[77.42896,9.54614],[77.47714,9.5492],[77.52752,9.64788],[77.54414,9.65972],[77.55115,9.6446],[77.61131,9.69784],[77.64425,9.70535],[77.65226,9.68179],[77.68161,9.67691],[77.71108,9.70376],[77.7629,9.68365],[77.77622,9.64037],[77.84376,9.63547],[77.84759,9.65022],[77.89148,9.64184],[77.90216,9.62466],[77.9539,9.64815],[77.97537,9.6303],[78.0034,9.64892],[78.01552,9.63919],[78.04106,9.67638],[78.08376,9.66217],[78.08941,9.68218],[78.06337,9.7409],[78.10193,9.75489],[78.09237,9.77936],[78.12201,9.7754],[78.12773,9.76952]]],[[[79.32715,9.29651],[79.31601,9.27859],[79.33619,9.24901],[79.4243,9.16679],[79.32597,9.23431],[79.2624,9.26111],[79.21983,9.2583],[79.20556,9.27801],[79.22419,9.29333],[79.27071,9.29349],[79.31546,9.32466],[79.33363,9.30299],[79.32715,9.29651]]],[[[78.9393,9.18738],[78.9045,9.17811],[78.93723,9.18871],[78.9393,9.18738]]],[[[79.08729,9.19283],[79.06229,9.20236],[79.08804,9.19557],[79.08729,9.19283]]],[[[79.46711,9.12511],[79.45724,9.13107],[79.46892,9.12765],[79.46711,9.12511]]],[[[79.13346,9.21025],[79.12216,9.21705],[79.13482,9.21073],[79.13346,9.21025]]],[[[78.4967,9.08471],[78.48808,9.09312],[78.49684,9.08829],[78.4967,9.08471]]],[[[78.82913,9.171],[78.81835,9.16242],[78.82845,9.17144],[78.82913,9.171]]],[[[79.4369,9.14663],[79.42938,9.15324],[79.4378,9.14687],[79.4369,9.14663]]]]}}]}
