{"type":"FeatureCollection","properties":{"source":"DataMeet Community Maps Project - Districts/Census_2011","state":"Telangana","stateSlug":"telangana"},"features":[{"type":"Feature","properties":{"DISTRICT":"Adilabad","ST_NM":"Telangana","ST_CEN_CD":28,"DT_CEN_CD":1,"censuscode":532},"geometry":{"type":"Polygon","coordinates":[[[78.84972,19.7601],[78.8689,19.69797],[78.86423,19.65757],[78.92141,19.66904],[78.97453,19.65062],[78.96844,19.61875],[78.98612,19.58658],[78.96014,19.55335],[78.99848,19.56359],[79.02402,19.54157],[79.10864,19.52967],[79.11054,19.51448],[79.1461,19.50291],[79.18369,19.46259],[79.22888,19.46974],[79.21278,19.49356],[79.24258,19.52867],[79.2498,19.61429],[79.31084,19.592],[79.32029,19.56742],[79.37512,19.57318],[79.41976,19.53554],[79.44745,19.5356],[79.47666,19.49962],[79.51968,19.52027],[79.52125,19.54412],[79.54896,19.55071],[79.55881,19.52228],[79.60442,19.50608],[79.62776,19.56735],[79.76075,19.60467],[79.81766,19.5763],[79.8348,19.53954],[79.87684,19.5076],[79.91771,19.49505],[79.9798,19.40395],[79.97042,19.30962],[79.92695,19.22957],[79.95004,19.17388],[79.86989,19.1191],[79.8638,19.04559],[79.92295,19.05081],[79.93993,19.03319],[79.94028,18.84885],[79.86983,18.83631],[79.84825,18.88239],[79.83093,18.84061],[79.85393,18.80122],[79.81026,18.72603],[79.7626,18.69561],[79.69097,18.68407],[79.65551,18.73076],[79.55945,18.7866],[79.51927,18.79296],[79.41256,18.86978],[79.38912,18.87114],[79.36169,18.83306],[79.31962,18.82297],[79.28756,18.83218],[79.24466,18.8729],[79.19125,18.87615],[79.11168,18.95385],[79.06985,19.0343],[78.99076,19.07108],[78.9449,19.0669],[78.90249,19.0309],[78.83599,19.05823],[78.75934,19.01426],[78.68714,19.02736],[78.63643,18.98095],[78.58232,18.98698],[78.53378,18.94357],[78.49891,18.96555],[78.44332,18.96041],[78.39348,18.99189],[78.28938,18.94249],[78.2651,18.99192],[78.20657,18.99992],[78.06508,18.93116],[78.0291,18.8779],[77.97262,18.87677],[77.94828,18.84377],[77.90328,18.86933],[77.8856,18.90986],[77.84443,18.9126],[77.85769,18.95354],[77.81657,18.95066],[77.82102,18.98354],[77.77114,18.98254],[77.7633,19.06031],[77.801,19.05237],[77.80959,19.10434],[77.8325,19.08597],[77.85205,19.09113],[77.83495,19.13663],[77.86232,19.18171],[77.85044,19.19789],[77.87131,19.25612],[77.90969,19.26809],[77.86581,19.2849],[77.86475,19.30292],[77.95296,19.34209],[78.04998,19.27185],[78.05538,19.24279],[78.08656,19.25583],[78.15416,19.2312],[78.17451,19.2375],[78.1909,19.25051],[78.20164,19.33279],[78.18405,19.35402],[78.18661,19.4127],[78.31356,19.4574],[78.28369,19.55902],[78.31579,19.5726],[78.31561,19.60495],[78.27427,19.6638],[78.29038,19.69031],[78.32066,19.69122],[78.34994,19.71424],[78.37242,19.78167],[78.36516,19.80629],[78.3406,19.81916],[78.34363,19.83968],[78.29868,19.84999],[78.31478,19.91311],[78.33973,19.91049],[78.32757,19.89537],[78.34088,19.88362],[78.38885,19.8797],[78.40238,19.83694],[78.48104,19.81701],[78.49881,19.79385],[78.53119,19.82235],[78.6087,19.81827],[78.70109,19.79061],[78.72168,19.76776],[78.7785,19.78036],[78.81296,19.75905],[78.84368,19.76316],[78.84972,19.7601]]]}},{"type":"Feature","properties":{"DISTRICT":"Hyderabad","ST_NM":"Telangana","ST_CEN_CD":28,"DT_CEN_CD":5,"censuscode":536},"geometry":{"type":"Polygon","coordinates":[[[78.51164,17.45434],[78.54018,17.46267],[78.52216,17.39895],[78.52939,17.37072],[78.51534,17.32968],[78.47627,17.30143],[78.4504,17.32398],[78.45019,17.34581],[78.40124,17.35661],[78.38977,17.39911],[78.42096,17.4337],[78.44974,17.4013],[78.44878,17.42761],[78.47879,17.47307],[78.49887,17.47061],[78.51164,17.45434]]]}},{"type":"Feature","properties":{"DISTRICT":"Karimnagar","ST_NM":"Telangana","ST_CEN_CD":28,"DT_CEN_CD":3,"censuscode":534},"geometry":{"type":"Polygon","coordinates":[[[79.90092,18.83464],[79.93896,18.78835],[80.01941,18.77081],[80.11376,18.68185],[80.16533,18.70031],[80.19621,18.68002],[80.20917,18.70186],[80.27485,18.72244],[80.30367,18.6902],[80.34411,18.5953],[80.26935,18.58831],[80.22939,18.55261],[80.21889,18.39023],[80.17518,18.34136],[80.14725,18.3733],[80.14349,18.41812],[80.09855,18.43161],[80.07672,18.38709],[80.03094,18.40084],[80.03051,18.44267],[80.07913,18.42792],[80.11658,18.45708],[80.05272,18.48199],[80.08609,18.51815],[80.04072,18.51622],[80.02503,18.46881],[79.99293,18.49041],[79.97015,18.47726],[79.95477,18.50892],[79.88575,18.51062],[79.92556,18.45929],[79.92281,18.42426],[79.88096,18.44458],[79.83305,18.50056],[79.81251,18.489],[79.82269,18.41741],[79.72032,18.49519],[79.59708,18.47035],[79.57975,18.42547],[79.58669,18.35148],[79.57256,18.30024],[79.62272,18.18625],[79.60976,18.14477],[79.58688,18.1448],[79.59402,18.12408],[79.57698,18.12597],[79.56351,18.1056],[79.47861,18.11451],[79.46135,18.07816],[79.37856,18.02126],[79.29158,18.01726],[79.25716,18.00035],[79.25472,17.9793],[79.19331,17.99457],[79.15095,17.98591],[79.14883,18.00383],[79.10255,18.01891],[79.13558,18.08019],[79.03682,18.0969],[79.04283,18.1265],[79.01575,18.14275],[79.01567,18.19712],[78.96554,18.21654],[78.96084,18.25458],[78.89781,18.23912],[78.77971,18.26476],[78.74555,18.21841],[78.65059,18.25086],[78.60246,18.24987],[78.57757,18.22473],[78.52258,18.285],[78.55108,18.33835],[78.53409,18.38569],[78.56617,18.3908],[78.52642,18.47733],[78.56399,18.54254],[78.59449,18.54706],[78.604,18.57814],[78.65846,18.59993],[78.67919,18.62535],[78.65219,18.65982],[78.64222,18.7278],[78.58489,18.73818],[78.56094,18.76368],[78.56818,18.78529],[78.5459,18.87608],[78.52245,18.91525],[78.58232,18.98698],[78.63643,18.98095],[78.68714,19.02736],[78.75934,19.01426],[78.83599,19.05823],[78.90249,19.0309],[78.9449,19.0669],[78.99076,19.07108],[79.06985,19.0343],[79.11168,18.95385],[79.19125,18.87615],[79.24466,18.8729],[79.28756,18.83218],[79.31962,18.82297],[79.36169,18.83306],[79.38912,18.87114],[79.41256,18.86978],[79.51927,18.79296],[79.55945,18.7866],[79.65551,18.73076],[79.69097,18.68407],[79.7626,18.69561],[79.81026,18.72603],[79.85393,18.80122],[79.83093,18.84061],[79.84241,18.87853],[79.86179,18.87205],[79.86983,18.83631],[79.89783,18.83325],[79.90092,18.83464]]]}},{"type":"Feature","properties":{"DISTRICT":"Khammam","ST_NM":"Telangana","ST_CEN_CD":28,"DT_CEN_CD":10,"censuscode":541},"geometry":{"type":"Polygon","coordinates":[[[80.9818,18.17367],[80.95211,18.08757],[80.97415,18.05012],[81.01267,17.84544],[81.04604,17.79347],[81.08201,17.79358],[81.16796,17.85992],[81.27185,17.81798],[81.41779,17.81257],[81.42795,17.82831],[81.47539,17.8327],[81.49441,17.81045],[81.57732,17.83579],[81.61973,17.82335],[81.67162,17.88487],[81.69685,17.89277],[81.71175,17.86917],[81.76686,17.90141],[81.80301,17.85235],[81.73204,17.82337],[81.69343,17.77875],[81.6317,17.77091],[81.58527,17.73421],[81.57984,17.69606],[81.51166,17.59816],[81.53248,17.57806],[81.50823,17.53993],[81.50225,17.45737],[81.44251,17.38353],[81.39408,17.36369],[81.33352,17.39906],[81.27602,17.32846],[81.19035,17.33055],[81.17944,17.30482],[81.18944,17.26306],[81.17166,17.24105],[81.07105,17.21247],[81.05538,17.22215],[81.03501,17.19502],[80.99398,17.1877],[80.93944,17.2132],[80.91412,17.20942],[80.92213,17.1542],[80.8791,17.1545],[80.86386,17.11964],[80.86772,17.0592],[80.84136,17.03406],[80.7345,17.07273],[80.64832,17.06312],[80.66537,17.09573],[80.56878,17.14576],[80.50469,17.11555],[80.49081,17.05804],[80.46148,17.04478],[80.45485,17.02479],[80.42911,17.03258],[80.40361,17.08515],[80.38268,17.07068],[80.39647,17.015],[80.36683,16.97835],[80.49655,16.92545],[80.5,16.95615],[80.52943,16.94443],[80.54048,16.95819],[80.59296,16.93467],[80.59559,16.88219],[80.57378,16.87727],[80.56345,16.83308],[80.61303,16.7962],[80.57172,16.77124],[80.46522,16.79823],[80.46139,16.82344],[80.40843,16.85775],[80.38167,16.81913],[80.36733,16.86283],[80.32786,16.87877],[80.2975,16.9844],[80.27065,17.01812],[80.20967,17.02054],[80.20264,17.04984],[80.19048,17.05224],[80.14224,16.9927],[80.09601,16.9947],[80.09259,16.97049],[80.05417,16.97254],[80.05776,17.02642],[79.87781,17.17854],[79.88034,17.2092],[79.89958,17.21842],[79.89079,17.26287],[79.82604,17.27624],[79.79286,17.31977],[79.81935,17.33661],[79.87223,17.33338],[79.89639,17.37193],[79.93149,17.37517],[79.94023,17.39453],[79.96978,17.40463],[79.98669,17.40069],[79.99999,17.36293],[80.05452,17.3472],[80.08069,17.36747],[80.11142,17.36417],[80.13657,17.39213],[80.16215,17.37848],[80.16946,17.45497],[80.12876,17.4466],[80.12807,17.48211],[80.09006,17.51373],[80.08722,17.57557],[80.05419,17.59603],[80.09012,17.65948],[80.04639,17.70683],[80.16425,17.75305],[80.17313,17.71203],[80.23884,17.75207],[80.25183,17.73937],[80.25394,17.8278],[80.28373,17.90911],[80.27744,17.96811],[80.30988,17.97341],[80.39526,18.08193],[80.46007,18.06012],[80.48009,18.12202],[80.46815,18.13472],[80.50031,18.13919],[80.53766,18.09909],[80.56573,18.10278],[80.59834,18.08241],[80.61811,18.11263],[80.63918,18.11086],[80.6445,18.12527],[80.62836,18.13506],[80.65654,18.13414],[80.65048,18.15465],[80.66644,18.17107],[80.53821,18.26123],[80.50455,18.26637],[80.4777,18.30068],[80.47555,18.38554],[80.45788,18.40464],[80.46532,18.44744],[80.38107,18.47364],[80.37671,18.53354],[80.40242,18.57179],[80.38903,18.59844],[80.45771,18.63122],[80.51825,18.62064],[80.64036,18.52415],[80.6585,18.4777],[80.70666,18.44156],[80.69879,18.42493],[80.73435,18.41463],[80.72408,18.38861],[80.7525,18.30803],[80.79622,18.25579],[80.7412,18.22478],[80.74252,18.17779],[80.80594,18.17247],[80.83757,18.24022],[80.8671,18.23215],[80.87551,18.21346],[80.85621,18.20385],[80.87008,18.13901],[80.98179,18.17457],[80.9818,18.17367]],[[80.68745,18.11756],[80.69902,18.12648],[80.68427,18.14623],[80.67953,18.1082],[80.68745,18.11756]]]}},{"type":"Feature","properties":{"DISTRICT":"Mahbubnagar","ST_NM":"Telangana","ST_CEN_CD":28,"DT_CEN_CD":7,"censuscode":538},"geometry":{"type":"Polygon","coordinates":[[[78.70168,16.933],[78.75034,16.90985],[78.72799,16.87128],[78.73614,16.86025],[78.75124,16.85436],[78.77804,16.88057],[78.77814,16.84394],[78.80441,16.82295],[78.7972,16.77929],[78.78873,16.75292],[78.75874,16.73787],[78.75748,16.70669],[78.71863,16.68087],[78.71738,16.6486],[78.67399,16.64846],[78.71811,16.58132],[78.68521,16.55349],[78.67346,16.56928],[78.66641,16.5419],[78.63951,16.55023],[78.61414,16.52315],[78.71804,16.5377],[78.79451,16.51634],[78.84476,16.5474],[78.91291,16.55036],[78.9322,16.51746],[79.0172,16.48984],[79.21931,16.36975],[79.23574,16.34381],[79.22667,16.24678],[79.18453,16.22424],[79.14103,16.24339],[79.03863,16.25258],[78.93307,16.20907],[78.91301,16.18861],[78.9295,16.12872],[78.91811,16.11208],[78.88025,16.11696],[78.87046,16.1598],[78.84532,16.1634],[78.84405,16.09415],[78.78255,16.03037],[78.72105,16.03332],[78.62416,16.1053],[78.56621,16.06274],[78.42776,16.08896],[78.32287,16.03518],[78.2632,16.03723],[78.24455,15.93511],[78.18652,15.90645],[78.17119,15.85504],[78.13227,15.85493],[78.11601,15.83318],[78.06998,15.85047],[78.04248,15.90786],[78.02313,15.90091],[78.00804,15.86501],[77.89355,15.90148],[77.80489,15.87079],[77.72161,15.89189],[77.6643,15.88177],[77.6116,15.91685],[77.51441,15.92584],[77.51498,16.00711],[77.49554,16.03544],[77.50775,16.07799],[77.49767,16.08851],[77.5142,16.10826],[77.49141,16.12045],[77.4883,16.16318],[77.49998,16.21757],[77.51545,16.22791],[77.4934,16.22889],[77.49217,16.25433],[77.50587,16.27231],[77.5385,16.26718],[77.56976,16.30227],[77.59513,16.29144],[77.5964,16.34205],[77.49902,16.38014],[77.41608,16.36694],[77.34708,16.38387],[77.28865,16.40704],[77.23899,16.47197],[77.29595,16.4776],[77.30059,16.49541],[77.37042,16.48815],[77.38322,16.51475],[77.41955,16.52189],[77.41985,16.54803],[77.39556,16.56916],[77.46847,16.58825],[77.45807,16.61778],[77.47365,16.65087],[77.43711,16.64157],[77.42069,16.66668],[77.46592,16.67627],[77.47172,16.70069],[77.47102,16.7158],[77.42751,16.71834],[77.44161,16.78695],[77.47531,16.78292],[77.45742,16.91262],[77.4718,16.92072],[77.4824,16.99376],[77.50347,17.01084],[77.46423,17.09619],[77.48565,17.13378],[77.47914,17.17456],[77.53955,17.16613],[77.55212,17.14015],[77.58019,17.13011],[77.58933,17.15041],[77.62326,17.15298],[77.61748,17.16706],[77.64935,17.18197],[77.70426,17.17396],[77.69696,17.19814],[77.71921,17.20826],[77.74156,17.18056],[77.73886,17.23012],[77.79324,17.23063],[77.76671,17.20212],[77.78808,17.15356],[77.75486,17.06187],[77.78821,17.04287],[77.76305,17.0111],[77.75829,16.96957],[77.73077,16.94295],[77.74456,16.9127],[77.73797,16.88076],[77.75843,16.87239],[77.81413,16.88946],[77.82147,16.86496],[77.84156,16.85676],[77.90983,16.86126],[77.92406,16.84743],[77.95592,16.86751],[77.97776,16.84985],[77.99077,16.87361],[77.96911,16.86919],[77.96982,16.88925],[78.01471,16.90597],[78.01419,16.95009],[77.98863,16.95993],[78.00303,16.97803],[77.97919,17.00831],[77.93655,17.02832],[77.92292,17.06235],[77.95058,17.07378],[77.93589,17.08575],[77.9906,17.1031],[78.02791,17.17283],[78.06775,17.19873],[78.08557,17.19512],[78.09503,17.17089],[78.08544,17.12536],[78.10246,17.1014],[78.13222,17.1124],[78.1828,17.09993],[78.18001,17.1334],[78.19313,17.14605],[78.17188,17.15599],[78.17343,17.17101],[78.22677,17.20609],[78.26213,17.20597],[78.28246,17.2282],[78.29879,17.21226],[78.30993,17.14628],[78.36719,17.08523],[78.35041,17.07467],[78.46092,16.98178],[78.51078,17.01328],[78.58517,16.95184],[78.64994,16.95544],[78.68711,16.93074],[78.70168,16.933]]]}},{"type":"Feature","properties":{"DISTRICT":"Medak","ST_NM":"Telangana","ST_CEN_CD":28,"DT_CEN_CD":4,"censuscode":535},"geometry":{"type":"Polygon","coordinates":[[[78.56858,18.22981],[78.60246,18.24987],[78.65059,18.25086],[78.74555,18.21841],[78.77971,18.26476],[78.89781,18.23912],[78.96084,18.25458],[78.96554,18.21654],[79.01567,18.19712],[79.01575,18.14275],[79.04283,18.1265],[79.03682,18.0969],[79.13558,18.08019],[79.11245,18.05308],[79.11565,18.02662],[79.07651,18.02018],[79.05061,18.03341],[79.00003,17.99966],[78.96761,18.03446],[78.95042,17.99443],[78.92977,17.9934],[78.90788,17.9595],[78.8809,17.96327],[78.82843,17.87902],[78.87229,17.86653],[78.85919,17.75188],[78.82705,17.7426],[78.81168,17.70673],[78.78674,17.70846],[78.77828,17.67651],[78.75445,17.68334],[78.72005,17.66675],[78.66392,17.69582],[78.62534,17.66761],[78.59889,17.70079],[78.55963,17.68689],[78.52667,17.69961],[78.50177,17.68394],[78.45082,17.71235],[78.43026,17.70095],[78.42027,17.66962],[78.39567,17.67296],[78.38204,17.63287],[78.36042,17.62335],[78.37575,17.60365],[78.34896,17.54371],[78.35455,17.52352],[78.29699,17.4915],[78.30312,17.45561],[78.263,17.41895],[78.21866,17.43979],[78.21391,17.48641],[78.18855,17.49005],[78.19432,17.47972],[78.15796,17.46465],[78.14289,17.48711],[78.08535,17.49709],[78.08187,17.52438],[78.05907,17.50882],[78.05439,17.45976],[77.99173,17.50724],[77.96527,17.48375],[77.97492,17.51869],[77.93838,17.53891],[77.9229,17.57403],[77.87428,17.58095],[77.8559,17.64333],[77.82799,17.64612],[77.81605,17.62628],[77.78412,17.63904],[77.74767,17.62475],[77.77422,17.60202],[77.76137,17.5593],[77.69051,17.52733],[77.68744,17.50708],[77.5957,17.53559],[77.59378,17.56563],[77.55226,17.5523],[77.53124,17.57602],[77.50538,17.54368],[77.49373,17.56902],[77.44353,17.58414],[77.45392,17.69384],[77.56584,17.7497],[77.56976,17.76668],[77.50812,17.78506],[77.51453,17.8039],[77.52969,17.82926],[77.55349,17.82051],[77.57652,17.87524],[77.60052,17.8729],[77.58895,17.91063],[77.62044,17.9053],[77.62757,17.96012],[77.64786,17.94878],[77.65728,17.97174],[77.65003,17.99555],[77.61044,18.02028],[77.59599,18.01244],[77.54937,18.05592],[77.60119,18.08646],[77.60146,18.15391],[77.5679,18.20253],[77.58859,18.21871],[77.57614,18.24248],[77.60268,18.27482],[77.64728,18.2858],[77.72473,18.26036],[77.74479,18.20642],[77.77261,18.19058],[77.85497,18.20726],[77.87155,18.19115],[77.90575,18.19411],[77.90491,18.14755],[77.93816,18.15198],[77.91153,18.12354],[77.93149,18.11733],[77.92838,18.10539],[77.89787,18.0904],[77.94198,18.11256],[78.00395,18.11379],[78.09434,18.07661],[78.10887,18.09783],[78.11742,18.07933],[78.14098,18.07653],[78.16977,18.10151],[78.17275,18.1789],[78.20305,18.21929],[78.21806,18.1787],[78.27294,18.14426],[78.32664,18.20012],[78.3886,18.12463],[78.44149,18.16648],[78.45601,18.13284],[78.49046,18.1328],[78.50407,18.17157],[78.56846,18.18822],[78.5694,18.22129],[78.56858,18.22981]]]}},{"type":"Feature","properties":{"DISTRICT":"Nalgonda","ST_NM":"Telangana","ST_CEN_CD":28,"DT_CEN_CD":8,"censuscode":539},"geometry":{"type":"Polygon","coordinates":[[[79.79286,17.31977],[79.82604,17.27624],[79.89079,17.26287],[79.89958,17.21842],[79.88034,17.2092],[79.87781,17.17854],[80.06222,17.01729],[80.04537,16.94374],[80.00002,16.87058],[80.0415,16.85986],[80.05026,16.83353],[80.07813,16.82115],[80.0564,16.75279],[79.96665,16.64971],[79.91053,16.64543],[79.87019,16.70563],[79.81856,16.69783],[79.78312,16.73674],[79.65618,16.66914],[79.60799,16.67032],[79.56203,16.64162],[79.50516,16.63746],[79.43452,16.58943],[79.27384,16.56817],[79.233,16.51494],[79.24399,16.46536],[79.22685,16.44499],[79.21931,16.36975],[79.0172,16.48984],[78.9322,16.51746],[78.91291,16.55036],[78.84476,16.5474],[78.79451,16.51634],[78.71804,16.5377],[78.61414,16.52315],[78.63951,16.55023],[78.66641,16.5419],[78.67346,16.56928],[78.68521,16.55349],[78.71811,16.58132],[78.67399,16.64846],[78.71738,16.6486],[78.71863,16.68087],[78.75748,16.70669],[78.75874,16.73787],[78.78873,16.75292],[78.7972,16.77929],[78.80441,16.82295],[78.77814,16.84394],[78.78453,16.86809],[78.77804,16.88057],[78.75124,16.85436],[78.73614,16.86025],[78.72799,16.87128],[78.75034,16.90985],[78.70168,16.933],[78.70697,16.96249],[78.78983,16.97338],[78.83068,17.01785],[78.78853,17.03856],[78.83848,17.04267],[78.85564,17.0792],[78.82459,17.10618],[78.84162,17.11057],[78.83935,17.12502],[78.78605,17.15159],[78.79114,17.19334],[78.76931,17.21924],[78.81396,17.20905],[78.82706,17.23643],[78.75555,17.27197],[78.74731,17.29683],[78.76955,17.31127],[78.74692,17.32577],[78.77001,17.34859],[78.74059,17.35944],[78.76038,17.44412],[78.71329,17.43917],[78.72682,17.47746],[78.71123,17.48864],[78.69013,17.59666],[78.72005,17.66675],[78.75445,17.68334],[78.77828,17.67651],[78.78674,17.70846],[78.81168,17.70673],[78.82705,17.7426],[78.85919,17.75188],[78.86957,17.8091],[78.98867,17.78848],[79.02473,17.70903],[79.05199,17.72248],[79.12419,17.66754],[79.16169,17.57857],[79.20719,17.62454],[79.22655,17.56382],[79.25729,17.56153],[79.27513,17.57861],[79.31843,17.52925],[79.39713,17.50025],[79.46833,17.51568],[79.51866,17.49516],[79.53847,17.52383],[79.58643,17.49698],[79.62924,17.49156],[79.65454,17.50441],[79.65453,17.47156],[79.72138,17.43278],[79.7586,17.43079],[79.78706,17.3876],[79.76733,17.37509],[79.79124,17.32159],[79.79286,17.31977]]]}},{"type":"Feature","properties":{"DISTRICT":"Nizamabad","ST_NM":"Telangana","ST_CEN_CD":28,"DT_CEN_CD":2,"censuscode":533},"geometry":{"type":"Polygon","coordinates":[[[78.53378,18.94357],[78.52335,18.90926],[78.5459,18.87608],[78.56818,18.78529],[78.56094,18.76368],[78.58489,18.73818],[78.64222,18.7278],[78.65219,18.65982],[78.67919,18.62535],[78.65846,18.59993],[78.604,18.57814],[78.59449,18.54706],[78.56399,18.54254],[78.52642,18.47733],[78.56617,18.3908],[78.53409,18.38569],[78.55108,18.33835],[78.52258,18.285],[78.56016,18.25428],[78.56846,18.18822],[78.50407,18.17157],[78.49046,18.1328],[78.45601,18.13284],[78.44149,18.16648],[78.3886,18.12463],[78.32259,18.20057],[78.28305,18.149],[78.26171,18.14728],[78.21806,18.1787],[78.20305,18.21929],[78.17275,18.1789],[78.17717,18.11462],[78.14098,18.07653],[78.11742,18.07933],[78.11356,18.09797],[78.07877,18.07942],[78.00395,18.11379],[77.94198,18.11256],[77.89787,18.0904],[77.92838,18.10539],[77.93149,18.11733],[77.91153,18.12354],[77.93816,18.15198],[77.90491,18.14755],[77.90575,18.19411],[77.87155,18.19115],[77.85497,18.20726],[77.77261,18.19058],[77.74479,18.20642],[77.72473,18.26036],[77.6902,18.26198],[77.66819,18.28326],[77.60268,18.27482],[77.5535,18.29319],[77.57048,18.31978],[77.52295,18.35099],[77.5587,18.41953],[77.52938,18.42899],[77.53191,18.4421],[77.58877,18.44712],[77.54967,18.46499],[77.57415,18.46849],[77.58004,18.48539],[77.60465,18.47586],[77.58981,18.50452],[77.60502,18.52353],[77.60083,18.54909],[77.65247,18.5542],[77.66125,18.52884],[77.74034,18.55648],[77.75194,18.60693],[77.7319,18.66572],[77.76149,18.70856],[77.79033,18.68566],[77.84141,18.80888],[77.91167,18.83098],[77.94672,18.82381],[77.97262,18.87677],[78.0291,18.8779],[78.06508,18.93116],[78.20657,18.99992],[78.2651,18.99192],[78.28938,18.94249],[78.39348,18.99189],[78.44332,18.96041],[78.49891,18.96555],[78.53104,18.94484],[78.53378,18.94357]]]}},{"type":"Feature","properties":{"DISTRICT":"Rangareddy","ST_NM":"Telangana","ST_CEN_CD":28,"DT_CEN_CD":6,"censuscode":537},"geometry":{"type":"Polygon","coordinates":[[[78.72005,17.66675],[78.68773,17.57799],[78.71336,17.52441],[78.71123,17.48864],[78.72682,17.47746],[78.71329,17.43917],[78.76038,17.44412],[78.74059,17.35944],[78.77001,17.34859],[78.74692,17.32577],[78.76955,17.31127],[78.74731,17.29683],[78.76293,17.26437],[78.82706,17.23643],[78.81396,17.20905],[78.76931,17.21924],[78.79114,17.19334],[78.78605,17.15159],[78.83935,17.12502],[78.84162,17.11057],[78.82459,17.10618],[78.85564,17.0792],[78.83848,17.04267],[78.78853,17.03856],[78.83068,17.01785],[78.78983,16.97338],[78.71781,16.96845],[78.70168,16.933],[78.64994,16.95544],[78.58517,16.95184],[78.51078,17.01328],[78.46092,16.98178],[78.35041,17.07467],[78.36719,17.08523],[78.30993,17.14628],[78.29879,17.21226],[78.28246,17.2282],[78.26213,17.20597],[78.22677,17.20609],[78.17343,17.17101],[78.17188,17.15599],[78.19313,17.14605],[78.18001,17.1334],[78.1828,17.09993],[78.13222,17.1124],[78.10246,17.1014],[78.08544,17.12536],[78.09855,17.15125],[78.08557,17.19512],[78.05544,17.1959],[78.02791,17.17283],[77.9906,17.1031],[77.93589,17.08575],[77.95058,17.07378],[77.92292,17.06235],[77.9404,17.02357],[77.99707,16.98938],[77.98863,16.95993],[78.01419,16.95009],[78.01471,16.90597],[77.96982,16.88925],[77.96911,16.86919],[77.99077,16.87361],[77.97776,16.84985],[77.95592,16.86751],[77.92406,16.84743],[77.90983,16.86126],[77.84156,16.85676],[77.82147,16.86496],[77.81413,16.88946],[77.79542,16.87462],[77.73797,16.88076],[77.74456,16.9127],[77.73077,16.94295],[77.75829,16.96957],[77.76305,17.0111],[77.78821,17.04287],[77.75486,17.06187],[77.78808,17.15356],[77.76671,17.20212],[77.79324,17.23063],[77.73886,17.23012],[77.74156,17.18056],[77.71921,17.20826],[77.69696,17.19814],[77.70426,17.17396],[77.64935,17.18197],[77.61748,17.16706],[77.62326,17.15298],[77.58933,17.15041],[77.58019,17.13011],[77.55212,17.14015],[77.53955,17.16613],[77.47914,17.17456],[77.48565,17.13378],[77.46656,17.10741],[77.38004,17.14108],[77.36364,17.16476],[77.40252,17.21189],[77.38402,17.22286],[77.41867,17.23301],[77.45831,17.27899],[77.43777,17.29132],[77.45887,17.34092],[77.45534,17.37346],[77.48314,17.37261],[77.48643,17.35748],[77.52473,17.36511],[77.53942,17.40712],[77.51454,17.41552],[77.51399,17.43022],[77.53736,17.44392],[77.57655,17.43254],[77.57717,17.45719],[77.61468,17.44727],[77.61501,17.47296],[77.64455,17.47905],[77.65689,17.50627],[77.65222,17.48423],[77.68822,17.47595],[77.69051,17.52733],[77.76137,17.5593],[77.77422,17.60202],[77.74767,17.62475],[77.78412,17.63904],[77.79799,17.62494],[77.82799,17.64612],[77.8559,17.64333],[77.87428,17.58095],[77.9229,17.57403],[77.93838,17.53891],[77.97492,17.51869],[77.96527,17.48375],[77.99173,17.50724],[78.05439,17.45976],[78.05907,17.50882],[78.08187,17.52438],[78.08535,17.49709],[78.14289,17.48711],[78.15796,17.46465],[78.19432,17.47972],[78.18855,17.49005],[78.21391,17.48641],[78.21866,17.43979],[78.263,17.41895],[78.30312,17.45561],[78.29699,17.4915],[78.35455,17.52352],[78.34896,17.54371],[78.37575,17.60365],[78.36042,17.62335],[78.38204,17.63287],[78.39567,17.67296],[78.42027,17.66962],[78.43026,17.70095],[78.45082,17.71235],[78.50177,17.68394],[78.52667,17.69961],[78.55963,17.68689],[78.59889,17.70079],[78.62534,17.66761],[78.66392,17.69582],[78.70344,17.68431],[78.72005,17.66675]],[[78.51164,17.45434],[78.47879,17.47307],[78.44878,17.42761],[78.44974,17.4013],[78.42096,17.4337],[78.39253,17.41223],[78.40124,17.35661],[78.45019,17.34581],[78.4504,17.32398],[78.47627,17.30143],[78.51534,17.32968],[78.52939,17.37072],[78.52216,17.39895],[78.54018,17.46267],[78.51589,17.45266],[78.51164,17.45434]]]}},{"type":"Feature","properties":{"DISTRICT":"Warangal","ST_NM":"Telangana","ST_CEN_CD":28,"DT_CEN_CD":9,"censuscode":540},"geometry":{"type":"MultiPolygon","coordinates":[[[[80.38903,18.59844],[80.40242,18.57179],[80.37671,18.53354],[80.38107,18.47364],[80.46532,18.44744],[80.45788,18.40464],[80.47555,18.38554],[80.4777,18.30068],[80.50455,18.26637],[80.53821,18.26123],[80.66644,18.17107],[80.65048,18.15465],[80.65654,18.13414],[80.62836,18.13506],[80.6445,18.12527],[80.63918,18.11086],[80.61811,18.11263],[80.59834,18.08241],[80.56573,18.10278],[80.53766,18.09909],[80.50031,18.13919],[80.46815,18.13472],[80.48009,18.12202],[80.46007,18.06012],[80.39526,18.08193],[80.30988,17.97341],[80.27744,17.96811],[80.28373,17.90911],[80.25394,17.8278],[80.25183,17.73937],[80.23884,17.75207],[80.17313,17.71203],[80.16425,17.75305],[80.04639,17.70683],[80.09012,17.65948],[80.05419,17.59603],[80.08722,17.57557],[80.09006,17.51373],[80.12807,17.48211],[80.12876,17.4466],[80.16946,17.45497],[80.16215,17.37848],[80.13657,17.39213],[80.11142,17.36417],[80.08069,17.36747],[80.05452,17.3472],[79.99999,17.36293],[79.98669,17.40069],[79.96978,17.40463],[79.94023,17.39453],[79.93149,17.37517],[79.89639,17.37193],[79.87223,17.33338],[79.81935,17.33661],[79.79286,17.31977],[79.76733,17.37509],[79.78706,17.3876],[79.7586,17.43079],[79.72138,17.43278],[79.65453,17.47156],[79.65454,17.50441],[79.62924,17.49156],[79.58643,17.49698],[79.53847,17.52383],[79.51866,17.49516],[79.46833,17.51568],[79.39713,17.50025],[79.31843,17.52925],[79.27513,17.57861],[79.25729,17.56153],[79.22655,17.56382],[79.20719,17.62454],[79.16169,17.57857],[79.12419,17.66754],[79.09664,17.67863],[79.07476,17.71213],[79.05199,17.72248],[79.02473,17.70903],[78.98867,17.78848],[78.86957,17.8091],[78.87229,17.86653],[78.8303,17.8739],[78.8809,17.96327],[78.90788,17.9595],[78.92977,17.9934],[78.95042,17.99443],[78.96761,18.03446],[79.00003,17.99966],[79.05061,18.03341],[79.14883,18.00383],[79.15095,17.98591],[79.19331,17.99457],[79.25472,17.9793],[79.25716,18.00035],[79.29158,18.01726],[79.37856,18.02126],[79.46135,18.07816],[79.47861,18.11451],[79.51315,18.10126],[79.59402,18.12408],[79.58688,18.1448],[79.60976,18.14477],[79.62358,18.18238],[79.57365,18.2883],[79.58669,18.35148],[79.57975,18.42547],[79.59708,18.47035],[79.72032,18.49519],[79.82269,18.41741],[79.81251,18.489],[79.83305,18.50056],[79.88096,18.44458],[79.92281,18.42426],[79.92556,18.45929],[79.88575,18.51062],[79.95477,18.50892],[79.97015,18.47726],[79.99293,18.49041],[80.02503,18.46881],[80.04072,18.51622],[80.08609,18.51815],[80.05272,18.48199],[80.11658,18.45708],[80.07913,18.42792],[80.03051,18.44267],[80.03094,18.40084],[80.07672,18.38709],[80.09855,18.43161],[80.14349,18.41812],[80.14725,18.3733],[80.17518,18.34136],[80.21889,18.39023],[80.22939,18.55261],[80.26935,18.58831],[80.34929,18.59123],[80.37798,18.60787],[80.38903,18.59844]]],[[[80.68745,18.11756],[80.67448,18.11302],[80.68427,18.14623],[80.69902,18.12648],[80.68745,18.11756]]]]}}]}
