{"type":"FeatureCollection","properties":{"source":"DataMeet Community Maps Project - Districts/Census_2011","state":"Tripura","stateSlug":"tripura"},"features":[{"type":"Feature","properties":{"DISTRICT":"Dhalai","ST_NM":"Tripura","ST_CEN_CD":16,"DT_CEN_CD":3,"censuscode":291},"geometry":{"type":"Polygon","coordinates":[[[91.91314,24.1404],[91.96851,24.07182],[92.07328,24.0971],[92.06753,24.03075],[92.09282,23.99964],[92.09197,23.93866],[92.13577,23.91913],[92.15759,23.84769],[92.15852,23.75855],[92.1745,23.748],[92.10676,23.67649],[92.0898,23.67642],[92.0772,23.64549],[92.01241,23.66309],[91.98389,23.7307],[91.95643,23.72804],[91.96162,23.69798],[91.94068,23.68795],[91.94043,23.66428],[91.97871,23.48219],[91.94676,23.47066],[91.94245,23.43569],[91.89255,23.43353],[91.86668,23.40756],[91.80468,23.52426],[91.77769,23.65531],[91.77286,23.71859],[91.78702,23.74213],[91.77404,23.77079],[91.7824,23.8068],[91.76659,23.82302],[91.78232,23.81923],[91.78617,23.88263],[91.75485,23.95611],[91.75196,24.07284],[91.76782,24.14894],[91.74977,24.24483],[91.82238,24.21448],[91.84801,24.2252],[91.85045,24.19902],[91.88992,24.14063],[91.90736,24.13693],[91.91314,24.1404]]]}},{"type":"Feature","properties":{"DISTRICT":"North Tripura","ST_NM":"Tripura","ST_CEN_CD":16,"DT_CEN_CD":4,"censuscode":292},"geometry":{"type":"Polygon","coordinates":[[[92.23342,24.50171],[92.23122,24.45864],[92.25658,24.43451],[92.2725,24.37755],[92.21282,24.24764],[92.29647,24.24992],[92.33656,24.14494],[92.31377,24.03293],[92.32865,23.98785],[92.31103,23.95882],[92.33018,23.91967],[92.32147,23.86806],[92.29149,23.86976],[92.27346,23.84002],[92.28628,23.81511],[92.25891,23.81338],[92.26848,23.72439],[92.24403,23.71003],[92.22443,23.65288],[92.20844,23.70486],[92.18136,23.70811],[92.1745,23.748],[92.15852,23.75855],[92.15759,23.84769],[92.13577,23.91913],[92.09197,23.93866],[92.09282,23.99964],[92.06753,24.03075],[92.07328,24.0971],[91.96851,24.07182],[91.91314,24.1404],[91.94401,24.2577],[91.92793,24.33908],[91.96232,24.35795],[91.99857,24.32797],[91.97459,24.38276],[92.00588,24.39303],[92.05804,24.3753],[92.12417,24.38218],[92.13925,24.4217],[92.1718,24.42156],[92.15881,24.52466],[92.22771,24.49862],[92.23342,24.50171]]]}},{"type":"Feature","properties":{"DISTRICT":"South Tripura","ST_NM":"Tripura","ST_CEN_CD":16,"DT_CEN_CD":2,"censuscode":290},"geometry":{"type":"Polygon","coordinates":[[[91.77876,23.69074],[91.80468,23.52426],[91.86668,23.40756],[91.84287,23.39732],[91.77776,23.27637],[91.81898,23.10319],[91.83533,23.09578],[91.8109,23.06945],[91.77898,23.0699],[91.78069,23.03342],[91.774,23.04099],[91.72691,22.99435],[91.6596,22.98047],[91.61687,22.94442],[91.60506,22.97008],[91.5792,22.97],[91.55824,22.98176],[91.55884,23.00218],[91.5459,22.99775],[91.5517,23.03916],[91.53724,23.03969],[91.5337,23.0897],[91.50788,23.12734],[91.51779,23.14422],[91.49405,23.15587],[91.50755,23.18641],[91.47729,23.19376],[91.48283,23.21891],[91.45839,23.22007],[91.47069,23.23254],[91.45715,23.25826],[91.42488,23.26053],[91.41616,23.28223],[91.41666,23.26119],[91.40207,23.26314],[91.38478,23.18326],[91.4216,23.07149],[91.39307,23.06223],[91.35644,23.09552],[91.32791,23.16445],[91.32906,23.25287],[91.31515,23.27333],[91.37144,23.29839],[91.38967,23.35178],[91.42087,23.37157],[91.38376,23.4015],[91.37645,23.44253],[91.39053,23.47605],[91.37755,23.5146],[91.40028,23.522],[91.39718,23.58042],[91.50643,23.6994],[91.52354,23.69686],[91.5363,23.72167],[91.56479,23.73026],[91.57042,23.75635],[91.70877,23.7632],[91.74164,23.72326],[91.72743,23.69599],[91.74743,23.66978],[91.7745,23.68456],[91.77876,23.69074]]]}},{"type":"Feature","properties":{"DISTRICT":"West Tripura","ST_NM":"Tripura","ST_CEN_CD":16,"DT_CEN_CD":1,"censuscode":289},"geometry":{"type":"Polygon","coordinates":[[[91.7609,24.13869],[91.75485,23.95611],[91.78617,23.88263],[91.78232,23.81923],[91.76659,23.82302],[91.7824,23.8068],[91.77876,23.69074],[91.74743,23.66978],[91.72743,23.69599],[91.74164,23.72326],[91.70877,23.7632],[91.57042,23.75635],[91.56479,23.73026],[91.5363,23.72167],[91.52354,23.69686],[91.50643,23.6994],[91.39718,23.58042],[91.40028,23.522],[91.37755,23.5146],[91.39053,23.47605],[91.37645,23.44253],[91.38376,23.4015],[91.42087,23.37157],[91.38967,23.35178],[91.37144,23.29839],[91.31515,23.27333],[91.30293,23.29282],[91.31611,23.3138],[91.29453,23.32028],[91.317,23.36002],[91.29969,23.35049],[91.24973,23.48973],[91.20813,23.51353],[91.2133,23.55006],[91.16322,23.6014],[91.16151,23.6635],[91.2031,23.64549],[91.20758,23.68219],[91.15777,23.68938],[91.15484,23.72935],[91.16737,23.7487],[91.22756,23.74532],[91.22835,23.78687],[91.25398,23.83767],[91.23321,23.88569],[91.24705,23.91264],[91.23826,23.92484],[91.27664,23.92836],[91.27041,23.95784],[91.30731,23.9895],[91.3854,23.97594],[91.37946,23.99837],[91.40416,24.05394],[91.384,24.07264],[91.38766,24.10897],[91.56388,24.07529],[91.6298,24.09663],[91.66386,24.18907],[91.65444,24.21944],[91.67137,24.23311],[91.69456,24.1668],[91.75577,24.14219],[91.7609,24.13869]]]}}]}
