{"type":"FeatureCollection","properties":{"source":"DataMeet Community Maps Project - Districts/Census_2011","state":"Uttarakhand","stateSlug":"uttarakhand"},"features":[{"type":"Feature","properties":{"DISTRICT":"Almora","ST_NM":"Uttarakhand","ST_CEN_CD":5,"DT_CEN_CD":9,"censuscode":64},"geometry":{"type":"Polygon","coordinates":[[[79.89642,29.70153],[79.9564,29.67899],[80.00969,29.54844],[80.05258,29.53996],[80.07261,29.51625],[79.9608,29.47526],[79.89752,29.48622],[79.83727,29.42609],[79.78714,29.44938],[79.7342,29.43445],[79.73212,29.46128],[79.691,29.47334],[79.67838,29.52705],[79.61519,29.55426],[79.55817,29.53813],[79.53004,29.54557],[79.51483,29.50851],[79.47912,29.49414],[79.3411,29.60882],[79.28954,29.58507],[79.22317,29.52125],[79.15505,29.53487],[79.14332,29.55058],[79.11211,29.54756],[79.08048,29.57783],[79.03673,29.58549],[79.06176,29.58715],[79.07088,29.61831],[79.09227,29.62398],[79.0799,29.6382],[79.09888,29.67136],[79.11184,29.66539],[79.10787,29.69648],[79.12319,29.71803],[79.11134,29.73483],[79.12961,29.78042],[79.12335,29.80825],[79.10332,29.84528],[79.07011,29.86109],[79.08893,29.88827],[79.16433,29.91597],[79.18006,29.9087],[79.19629,29.94464],[79.22936,29.94737],[79.22836,29.9776],[79.28732,29.95155],[79.28604,29.92679],[79.32642,29.92922],[79.33992,29.97084],[79.37489,29.92704],[79.43015,29.93673],[79.47021,29.98259],[79.51205,29.93266],[79.49511,29.8885],[79.50841,29.87161],[79.57079,29.84213],[79.62234,29.84189],[79.64751,29.81614],[79.69084,29.82602],[79.72112,29.80676],[79.68909,29.77018],[79.71725,29.75119],[79.71205,29.73534],[79.73126,29.72879],[79.74844,29.68981],[79.80811,29.68751],[79.82926,29.7053],[79.87123,29.68465],[79.89639,29.70151],[79.89642,29.70153]]]}},{"type":"Feature","properties":{"DISTRICT":"Bageshwar","ST_NM":"Uttarakhand","ST_CEN_CD":5,"DT_CEN_CD":8,"censuscode":63},"geometry":{"type":"Polygon","coordinates":[[[79.89642,29.70153],[79.87123,29.68465],[79.82926,29.7053],[79.80811,29.68751],[79.74844,29.68981],[79.73126,29.72879],[79.71205,29.73534],[79.71725,29.75119],[79.68909,29.77018],[79.72112,29.80676],[79.69084,29.82602],[79.64751,29.81614],[79.62234,29.84189],[79.57079,29.84213],[79.50841,29.87161],[79.49511,29.8885],[79.51205,29.93266],[79.47021,29.98262],[79.48738,30.02364],[79.54379,29.99505],[79.61148,30.01874],[79.69757,30.00226],[79.77637,30.00264],[79.80697,30.01708],[79.82926,30.05519],[79.78796,30.07688],[79.76436,30.13575],[79.82043,30.22253],[79.7996,30.28265],[79.8409,30.28761],[79.87323,30.26797],[80.02311,30.31403],[80.06952,30.2787],[80.08385,30.23202],[80.11913,30.22408],[80.07197,30.01865],[80.093,29.97123],[80.14398,29.94028],[80.16028,29.90503],[80.11362,29.90348],[80.09115,29.88694],[80.06786,29.90167],[80.01706,29.88885],[80.01256,29.85232],[79.97676,29.84971],[80.02066,29.82924],[80.03956,29.79183],[79.9892,29.76205],[79.93382,29.76701],[79.93072,29.78913],[79.90713,29.79792],[79.87117,29.76841],[79.82512,29.7822],[79.83331,29.74991],[79.87032,29.73892],[79.89361,29.70603],[79.89642,29.70153]]]}},{"type":"Feature","properties":{"DISTRICT":"Chamoli","ST_NM":"Uttarakhand","ST_CEN_CD":5,"DT_CEN_CD":2,"censuscode":57},"geometry":{"type":"Polygon","coordinates":[[[80.10162,30.78628],[80.08937,30.76304],[80.10385,30.72234],[80.03171,30.73259],[79.98067,30.70524],[80.03463,30.63478],[80.04238,30.60136],[79.99675,30.53798],[80.03807,30.40342],[79.99709,30.36149],[79.99352,30.31427],[79.97548,30.2937],[79.93444,30.29596],[79.87323,30.26797],[79.8409,30.28761],[79.7996,30.28265],[79.82043,30.22253],[79.76436,30.13575],[79.78796,30.07688],[79.82926,30.05519],[79.81426,30.02171],[79.77637,30.00264],[79.61148,30.01874],[79.54379,29.99505],[79.48738,30.02364],[79.46836,29.97652],[79.43015,29.93673],[79.37489,29.92704],[79.33458,29.97214],[79.32642,29.92922],[79.28604,29.92679],[79.28732,29.95155],[79.22224,29.98388],[79.21623,30.02712],[79.18872,30.04057],[79.19617,30.08226],[79.13647,30.12169],[79.14442,30.16319],[79.07982,30.22345],[79.11525,30.28967],[79.16937,30.29672],[79.14678,30.30246],[79.1604,30.32887],[79.10659,30.37887],[79.16339,30.38438],[79.17654,30.42157],[79.16804,30.4463],[79.22378,30.49136],[79.24954,30.55848],[79.29736,30.56235],[79.30775,30.5931],[79.34015,30.59826],[79.35722,30.62757],[79.3517,30.65149],[79.30823,30.67461],[79.30017,30.7166],[79.27897,30.72611],[79.29073,30.75184],[79.22605,30.81381],[79.2773,30.87865],[79.27066,30.9056],[79.28488,30.93521],[79.26441,30.9545],[79.32943,30.97082],[79.3134,31.01768],[79.41495,31.07494],[79.42829,31.03213],[79.51651,31.03371],[79.53468,30.98977],[79.55288,30.98583],[79.54813,30.96775],[79.6047,30.93739],[79.66461,30.9651],[79.66682,30.97888],[79.72935,30.98016],[79.75337,31.00062],[79.82023,30.97228],[79.86731,30.97474],[79.88991,30.92492],[79.93019,30.88668],[80.0592,30.83844],[80.09809,30.78971],[80.10162,30.78628]]]}},{"type":"Feature","properties":{"DISTRICT":"Champawat","ST_NM":"Uttarakhand","ST_CEN_CD":5,"DT_CEN_CD":10,"censuscode":65},"geometry":{"type":"Polygon","coordinates":[[[80.24659,29.4426],[80.24891,29.40807],[80.27756,29.39408],[80.27534,29.36494],[80.3195,29.30487],[80.29757,29.23502],[80.30225,29.19842],[80.25284,29.21713],[80.27415,29.14507],[80.24032,29.11881],[80.19016,29.13319],[80.16311,29.11437],[80.1515,29.12728],[80.08161,29.12251],[80.07124,29.07322],[80.05681,29.08589],[80.02693,29.07295],[80.00735,29.08951],[79.97177,29.05197],[79.95904,29.07139],[79.97821,29.11673],[79.91631,29.12502],[79.87936,29.15792],[79.92385,29.22015],[79.89784,29.25275],[79.81409,29.28071],[79.81814,29.30773],[79.79889,29.33483],[79.82085,29.34147],[79.8582,29.31354],[79.87122,29.34451],[79.90165,29.35342],[79.89189,29.36814],[79.85798,29.36994],[79.83432,29.40056],[79.85697,29.42978],[79.85128,29.45204],[79.89752,29.48622],[79.9608,29.47526],[80.10073,29.52654],[80.14616,29.47251],[80.23704,29.44512],[80.24659,29.4426]]]}},{"type":"Feature","properties":{"DISTRICT":"Dehradun","ST_NM":"Uttarakhand","ST_CEN_CD":5,"DT_CEN_CD":5,"censuscode":60},"geometry":{"type":"Polygon","coordinates":[[[78.01562,30.61266],[78.01256,30.57891],[77.98336,30.54994],[77.98802,30.5116],[77.94946,30.51807],[77.9406,30.50617],[77.98724,30.4657],[78.10248,30.48044],[78.22938,30.43712],[78.24092,30.41797],[78.14959,30.37574],[78.14301,30.33636],[78.17702,30.30618],[78.27675,30.29987],[78.2992,30.24351],[78.23752,30.18031],[78.2597,30.1653],[78.25595,30.14241],[78.3114,30.10955],[78.22915,30.01707],[78.23212,29.98732],[78.19386,29.94452],[78.18023,29.94255],[78.188,29.98173],[78.16852,29.94917],[78.13434,30.00043],[78.0738,30.04308],[78.07187,30.07483],[77.95955,30.24151],[77.72391,30.33372],[77.64741,30.40595],[77.5762,30.39961],[77.59428,30.42542],[77.69238,30.44679],[77.81266,30.50639],[77.82417,30.52818],[77.81681,30.55881],[77.77541,30.55806],[77.7431,30.59349],[77.76803,30.59584],[77.77025,30.61542],[77.79565,30.61444],[77.782,30.6466],[77.79277,30.65888],[77.74717,30.68101],[77.75489,30.70584],[77.70542,30.74354],[77.70217,30.76394],[77.75842,30.8251],[77.7455,30.84605],[77.75863,30.87649],[77.80347,30.85379],[77.81688,30.93523],[77.97094,30.97511],[78.01872,30.92623],[78.02237,30.91198],[77.97964,30.8953],[77.9885,30.84888],[78.0891,30.71858],[78.06845,30.66694],[78.03911,30.64284],[78.01356,30.64656],[78.01649,30.61473],[78.01562,30.61266]]]}},{"type":"Feature","properties":{"DISTRICT":"Garhwal","ST_NM":"Uttarakhand","ST_CEN_CD":5,"DT_CEN_CD":6,"censuscode":61},"geometry":{"type":"Polygon","coordinates":[[[79.07992,30.22039],[79.14442,30.16319],[79.13647,30.12169],[79.19617,30.08226],[79.18872,30.04057],[79.21623,30.02712],[79.23376,29.95836],[79.20722,29.93792],[79.19629,29.94464],[79.18006,29.9087],[79.16433,29.91597],[79.08309,29.88472],[79.07011,29.86109],[79.10332,29.84528],[79.12961,29.78042],[79.11475,29.76699],[79.11184,29.66539],[79.08656,29.65695],[79.09227,29.62398],[79.07088,29.61831],[79.06176,29.58715],[79.00888,29.58349],[79.00001,29.54889],[78.9637,29.53662],[78.939,29.4717],[78.90836,29.45018],[78.70569,29.50296],[78.58886,29.5747],[78.53019,29.63332],[78.50016,29.7356],[78.33978,29.79311],[78.32132,29.85249],[78.27241,29.89059],[78.27458,29.9174],[78.19386,29.94452],[78.23212,29.98732],[78.22915,30.01707],[78.33668,30.13345],[78.37192,30.11928],[78.41351,30.13557],[78.43788,30.11049],[78.43947,30.07901],[78.48269,30.05683],[78.50024,30.07746],[78.51076,30.05599],[78.53319,30.07506],[78.59024,30.0534],[78.60417,30.06631],[78.58586,30.07556],[78.59627,30.15101],[78.61352,30.15083],[78.62302,30.18302],[78.6808,30.21899],[78.6902,30.24203],[78.72077,30.24157],[78.75375,30.21575],[78.7882,30.23127],[78.80686,30.22207],[78.88467,30.26259],[78.90676,30.24672],[79.00002,30.30166],[79.04388,30.31112],[79.09193,30.29905],[79.03839,30.24202],[79.04446,30.21825],[79.07408,30.22165],[79.07992,30.22039]]]}},{"type":"Feature","properties":{"DISTRICT":"Hardwar","ST_NM":"Uttarakhand","ST_CEN_CD":5,"DT_CEN_CD":13,"censuscode":68},"geometry":{"type":"Polygon","coordinates":[[[78.19386,29.94452],[78.27458,29.9174],[78.27241,29.89059],[78.31836,29.85669],[78.34433,29.79049],[78.24378,29.69841],[78.23365,29.71195],[78.20591,29.7044],[78.17823,29.67388],[78.15143,29.67045],[78.09419,29.59616],[78.05602,29.58745],[78.04459,29.54606],[78.00001,29.54025],[77.99582,29.58246],[77.95933,29.58485],[77.96395,29.61048],[77.98892,29.60846],[77.98915,29.63649],[77.98436,29.67014],[77.95759,29.6817],[77.95305,29.70909],[77.88604,29.69648],[77.83339,29.66353],[77.80125,29.68044],[77.80704,29.69503],[77.77102,29.70802],[77.77693,29.78009],[77.74239,29.84776],[77.71434,29.86649],[77.74546,29.90818],[77.73013,29.92968],[77.75749,29.96233],[77.74263,29.98219],[77.78489,30.02103],[77.77023,30.04299],[77.7992,30.09473],[77.82584,30.08438],[77.85136,30.10701],[77.94941,30.24548],[78.07187,30.07483],[78.07145,30.04646],[78.0952,30.01707],[78.13434,30.00043],[78.16852,29.94917],[78.188,29.98173],[78.18428,29.94236],[78.19386,29.94452]]]}},{"type":"Feature","properties":{"DISTRICT":"Nainital","ST_NM":"Uttarakhand","ST_CEN_CD":5,"DT_CEN_CD":11,"censuscode":66},"geometry":{"type":"Polygon","coordinates":[[[79.85197,29.43436],[79.83432,29.40056],[79.85798,29.36994],[79.89189,29.36814],[79.90165,29.35342],[79.87122,29.34451],[79.8582,29.31354],[79.82085,29.34147],[79.79889,29.33483],[79.81814,29.30773],[79.81588,29.27533],[79.85977,29.27317],[79.90221,29.24929],[79.92524,29.20876],[79.88004,29.15612],[79.91631,29.12502],[79.98024,29.11277],[79.96129,29.08977],[79.96943,29.04956],[79.91405,29.03249],[79.87812,28.97857],[79.85817,29.01284],[79.81461,28.98667],[79.79727,29.01066],[79.80455,29.02332],[79.76582,29.03766],[79.7477,29.02526],[79.70972,29.03299],[79.65129,29.07659],[79.6307,29.0529],[79.41412,29.05253],[79.25039,29.18236],[79.24762,29.2081],[79.27469,29.23984],[79.13287,29.27542],[79.11012,29.25669],[79.08951,29.27362],[79.07409,29.25356],[79.04312,29.25842],[79.01036,29.31704],[78.97761,29.30841],[78.92306,29.34177],[78.84098,29.36219],[78.88243,29.38637],[78.91275,29.4407],[78.9353,29.45018],[78.90836,29.45018],[78.939,29.4717],[78.9637,29.53662],[79.00001,29.54889],[79.00888,29.58349],[79.08048,29.57783],[79.11211,29.54756],[79.14332,29.55058],[79.15505,29.53487],[79.22317,29.52125],[79.33567,29.60891],[79.37911,29.58745],[79.47912,29.49414],[79.51483,29.50851],[79.53004,29.54557],[79.55817,29.53813],[79.61519,29.55426],[79.67838,29.52705],[79.691,29.47334],[79.73212,29.46128],[79.7342,29.43445],[79.76376,29.43405],[79.77678,29.44979],[79.84874,29.43071],[79.85197,29.43436]]]}},{"type":"Feature","properties":{"DISTRICT":"Pithoragarh","ST_NM":"Uttarakhand","ST_CEN_CD":5,"DT_CEN_CD":7,"censuscode":62},"geometry":{"type":"Polygon","coordinates":[[[80.24659,29.4426],[80.14616,29.47251],[80.10658,29.52426],[80.07184,29.52077],[80.00969,29.54844],[79.9564,29.67899],[79.89719,29.7003],[79.87867,29.73239],[79.83331,29.74991],[79.82199,29.77245],[79.87117,29.76841],[79.90713,29.79792],[79.93072,29.78913],[79.93382,29.76701],[79.9892,29.76205],[80.03956,29.79183],[80.02066,29.82924],[79.97676,29.84971],[80.01256,29.85232],[80.01706,29.88885],[80.06786,29.90167],[80.09115,29.88694],[80.11362,29.90348],[80.16028,29.90503],[80.14398,29.94028],[80.093,29.97123],[80.07197,30.01865],[80.11913,30.22408],[80.08385,30.23202],[80.06952,30.2787],[80.0295,30.31232],[79.99092,30.31792],[79.99709,30.36149],[80.03807,30.40342],[79.99675,30.53798],[80.04238,30.60136],[80.03463,30.63478],[79.98067,30.70524],[80.03171,30.73259],[80.10385,30.72234],[80.08937,30.76304],[80.09876,30.78388],[80.12809,30.77526],[80.16293,30.80785],[80.18257,30.80159],[80.20547,30.75822],[80.23784,30.75965],[80.25226,30.73506],[80.23467,30.69163],[80.19536,30.66423],[80.22378,30.63945],[80.21329,30.61748],[80.23044,30.57337],[80.25492,30.55973],[80.32031,30.56184],[80.38294,30.5212],[80.41522,30.52551],[80.43817,30.49999],[80.50433,30.48348],[80.54106,30.44866],[80.58102,30.48296],[80.59884,30.48159],[80.75202,30.39252],[80.82571,30.31436],[81.02535,30.25721],[81.04286,30.20552],[80.93668,30.17659],[80.92037,30.18604],[80.91786,30.21531],[80.90283,30.21604],[80.8679,30.17194],[80.87478,30.1305],[80.76927,30.05534],[80.74431,30.00207],[80.72109,29.99942],[80.68156,29.96065],[80.60034,29.95355],[80.57251,29.92307],[80.55519,29.85372],[80.49466,29.79481],[80.44179,29.80552],[80.41005,29.78973],[80.37017,29.72748],[80.42378,29.6407],[80.41378,29.59778],[80.39756,29.57067],[80.35142,29.55053],[80.35348,29.51655],[80.316,29.48067],[80.30271,29.48587],[80.29204,29.46937],[80.30293,29.45038],[80.24702,29.44579],[80.24659,29.4426]]]}},{"type":"Feature","properties":{"DISTRICT":"Rudraprayag","ST_NM":"Uttarakhand","ST_CEN_CD":5,"DT_CEN_CD":3,"censuscode":58},"geometry":{"type":"Polygon","coordinates":[[[79.27897,30.72611],[79.30017,30.7166],[79.30823,30.67461],[79.3517,30.65149],[79.35722,30.62757],[79.34015,30.59826],[79.30775,30.5931],[79.29736,30.56235],[79.24954,30.55848],[79.22378,30.49136],[79.16804,30.4463],[79.17654,30.42157],[79.16339,30.38438],[79.10659,30.37887],[79.15859,30.33178],[79.14678,30.30246],[79.16875,30.2948],[79.11525,30.28967],[79.07992,30.22039],[79.04698,30.21746],[79.03639,30.23321],[79.09193,30.29905],[79.04388,30.31112],[78.90385,30.24777],[78.86067,30.29915],[78.86761,30.32398],[78.83989,30.35688],[78.83723,30.39271],[78.81626,30.40151],[78.84746,30.4373],[78.84915,30.45925],[78.8241,30.48531],[78.86727,30.50801],[78.85938,30.55119],[78.90929,30.62647],[78.92628,30.7144],[79.01823,30.75315],[79.03319,30.80667],[79.12705,30.77101],[79.1399,30.74978],[79.16716,30.75696],[79.20005,30.73518],[79.27497,30.72483],[79.27897,30.72611]]]}},{"type":"Feature","properties":{"DISTRICT":"Tehri Garhwal","ST_NM":"Uttarakhand","ST_CEN_CD":5,"DT_CEN_CD":4,"censuscode":59},"geometry":{"type":"Polygon","coordinates":[[[79.03319,30.80667],[79.01823,30.75315],[78.92628,30.7144],[78.90929,30.62647],[78.85938,30.55119],[78.86727,30.50801],[78.8241,30.48531],[78.84915,30.45925],[78.84746,30.4373],[78.81626,30.40151],[78.83723,30.39271],[78.83989,30.35688],[78.86761,30.32398],[78.86067,30.29915],[78.89639,30.25663],[78.75666,30.21547],[78.72077,30.24157],[78.68426,30.23989],[78.6808,30.21899],[78.62302,30.18302],[78.61352,30.15083],[78.59627,30.15101],[78.58586,30.07556],[78.60417,30.06631],[78.59024,30.0534],[78.53319,30.07506],[78.51076,30.05599],[78.50024,30.07746],[78.48435,30.05655],[78.45545,30.06854],[78.40636,30.1383],[78.37192,30.11928],[78.33668,30.13345],[78.31213,30.11261],[78.25595,30.14241],[78.2597,30.1653],[78.23821,30.18674],[78.29928,30.24162],[78.27872,30.27014],[78.2832,30.295],[78.24312,30.30944],[78.17702,30.30618],[78.13952,30.35072],[78.14959,30.37574],[78.24137,30.4275],[78.10248,30.48044],[77.98724,30.4657],[77.93987,30.50846],[77.98802,30.5116],[77.98336,30.54994],[78.01256,30.57891],[78.01562,30.61266],[78.04842,30.59749],[78.07399,30.60685],[78.07768,30.62631],[78.12371,30.63773],[78.15549,30.63464],[78.16766,30.59079],[78.20846,30.57779],[78.24992,30.60951],[78.28243,30.60991],[78.30328,30.58683],[78.29036,30.55078],[78.31354,30.55867],[78.30977,30.5721],[78.33948,30.56239],[78.41328,30.46856],[78.45637,30.54241],[78.44017,30.57784],[78.45169,30.6152],[78.48722,30.62794],[78.51365,30.59454],[78.49822,30.53406],[78.54457,30.52947],[78.54901,30.57098],[78.59738,30.63022],[78.59183,30.68758],[78.66345,30.69153],[78.72296,30.73262],[78.75401,30.71202],[78.84956,30.73899],[78.8611,30.81824],[78.85118,30.8453],[78.87918,30.87744],[78.92414,30.87826],[78.95265,30.85521],[79.00001,30.86234],[79.01809,30.82012],[79.03319,30.80667]]]}},{"type":"Feature","properties":{"DISTRICT":"Udham Singh Nagar","ST_NM":"Uttarakhand","ST_CEN_CD":5,"DT_CEN_CD":12,"censuscode":67},"geometry":{"type":"Polygon","coordinates":[[[78.84098,29.36219],[78.92306,29.34177],[78.97761,29.30841],[79.01036,29.31704],[79.04312,29.25842],[79.07409,29.25356],[79.08951,29.27362],[79.11012,29.25669],[79.13287,29.27542],[79.27469,29.23984],[79.24762,29.2081],[79.25039,29.18236],[79.41924,29.05145],[79.6307,29.0529],[79.65129,29.07659],[79.70972,29.03299],[79.7477,29.02526],[79.76582,29.03766],[79.80455,29.02332],[79.79727,29.01066],[79.81461,28.98667],[79.85817,29.01284],[79.87812,28.97857],[79.91405,29.03249],[79.96558,29.04599],[80,29.06872],[80.00434,29.08883],[80.02693,29.07295],[80.05681,29.08589],[80.07124,29.07322],[80.08161,29.12251],[80.1515,29.12728],[80.16311,29.11437],[80.1302,29.03456],[80.14085,29.00634],[80.10261,28.98136],[80.0666,28.91872],[80.07035,28.82923],[80.03754,28.7938],[80.0523,28.77707],[80.04657,28.75718],[79.99999,28.71097],[79.94124,28.72045],[79.90072,28.77971],[79.91311,28.79606],[79.85234,28.80259],[79.85804,28.81523],[79.88746,28.81227],[79.86591,28.83821],[79.83631,28.83871],[79.82771,28.80618],[79.79513,28.79934],[79.8205,28.85674],[79.78635,28.88574],[79.72404,28.87459],[79.678,28.84223],[79.62537,28.86263],[79.56267,28.83978],[79.56576,28.87242],[79.54825,28.88644],[79.51899,28.85719],[79.42291,28.84976],[79.40738,28.87933],[79.41324,28.92615],[79.38883,28.93093],[79.37152,28.96437],[79.3637,28.94632],[79.3107,28.947],[79.21588,29.02302],[79.1701,29.01679],[79.17727,29.04516],[79.14886,29.06326],[79.15591,29.10053],[79.14278,29.12328],[79.03894,29.16621],[79.03835,29.14379],[79.02292,29.15115],[79.02068,29.13015],[79.04288,29.12415],[79.0289,29.11179],[79.01246,29.11048],[78.97427,29.16075],[78.95629,29.14353],[78.9123,29.14457],[78.91112,29.19655],[78.86465,29.25529],[78.81188,29.25185],[78.72589,29.31138],[78.76952,29.34378],[78.79459,29.34046],[78.80093,29.32329],[78.82117,29.3769],[78.83611,29.36245],[78.84098,29.36219]]]}},{"type":"Feature","properties":{"DISTRICT":"Uttarkashi","ST_NM":"Uttarakhand","ST_CEN_CD":5,"DT_CEN_CD":1,"censuscode":56},"geometry":{"type":"Polygon","coordinates":[[[79.21047,31.34846],[79.26369,31.29141],[79.24943,31.2488],[79.28832,31.22547],[79.31499,31.14392],[79.39454,31.11499],[79.40763,31.07442],[79.36107,31.03462],[79.3134,31.01768],[79.33085,30.99714],[79.32291,30.96322],[79.29635,30.97086],[79.26441,30.9545],[79.28488,30.93521],[79.27066,30.9056],[79.2773,30.87865],[79.22555,30.81969],[79.29073,30.75184],[79.28089,30.72673],[79.20005,30.73518],[79.16716,30.75696],[79.13472,30.7519],[79.12705,30.77101],[79.03319,30.80667],[79.00001,30.86234],[78.95265,30.85521],[78.92414,30.87826],[78.87918,30.87744],[78.85118,30.8453],[78.8611,30.81824],[78.84956,30.73899],[78.75401,30.71202],[78.72296,30.73262],[78.66345,30.69153],[78.59183,30.68758],[78.59738,30.63022],[78.54901,30.57098],[78.54457,30.52947],[78.49822,30.53406],[78.51365,30.59454],[78.48722,30.62794],[78.45169,30.6152],[78.44017,30.57784],[78.45637,30.54241],[78.41328,30.46856],[78.33948,30.56239],[78.30977,30.5721],[78.31354,30.55867],[78.29036,30.55078],[78.30328,30.58683],[78.27768,30.6122],[78.20846,30.57779],[78.16766,30.59079],[78.15549,30.63464],[78.08758,30.63022],[78.04842,30.59749],[78.01562,30.61266],[78.01356,30.64656],[78.03911,30.64284],[78.06845,30.66694],[78.0891,30.71858],[77.9885,30.84888],[77.98047,30.89717],[78.02237,30.91198],[77.98887,30.96386],[77.93663,30.97174],[77.77736,30.91546],[77.75977,30.91763],[77.74749,30.94487],[77.7682,30.9722],[77.83142,30.94887],[77.81071,30.96514],[77.82441,31.00055],[77.8397,31.00346],[77.81507,31.05748],[77.85736,31.07667],[77.90217,31.15009],[77.96951,31.17414],[78.02899,31.15023],[78.04475,31.18061],[78.10259,31.18608],[78.16279,31.22684],[78.20253,31.21744],[78.24761,31.23022],[78.28412,31.26657],[78.30852,31.26122],[78.31351,31.28343],[78.38443,31.28306],[78.41265,31.2429],[78.43461,31.25498],[78.45928,31.23928],[78.48518,31.19879],[78.55223,31.20171],[78.58176,31.22875],[78.61056,31.23138],[78.64964,31.21686],[78.66285,31.18961],[78.81027,31.19992],[78.83388,31.14204],[78.88649,31.10209],[79.01176,31.11008],[78.98716,31.17716],[78.92526,31.22875],[78.94578,31.3328],[79.0053,31.35675],[79.07263,31.46723],[79.1447,31.43366],[79.20992,31.34981],[79.21047,31.34846]]]}}]}
