{"type":"FeatureCollection","properties":{"source":"DataMeet Community Maps Project - Districts/Census_2011","state":"West Bengal","stateSlug":"west-bengal"},"features":[{"type":"Feature","properties":{"DISTRICT":"Bankura","ST_NM":"West Bengal","ST_CEN_CD":19,"DT_CEN_CD":13,"censuscode":339},"geometry":{"type":"Polygon","coordinates":[[[87.71411,23.01057],[87.69054,23.02434],[87.6988,22.99596],[87.6457,22.98752],[87.65465,22.94243],[87.61979,22.89188],[87.53409,22.93006],[87.46412,22.91173],[87.35992,22.95249],[87.32078,22.94338],[87.27104,22.90374],[87.17334,22.89254],[87.12913,22.84341],[87.06271,22.84909],[87.05409,22.82375],[87.08756,22.73812],[87.01593,22.69417],[87.01622,22.6506],[86.96508,22.67545],[86.95092,22.66971],[86.95668,22.63782],[86.92717,22.62656],[86.80638,22.70817],[86.6103,22.80623],[86.62012,22.82564],[86.70458,22.87214],[86.69245,22.92967],[86.72759,22.99542],[86.72366,23.03718],[86.74507,23.09439],[86.71145,23.11966],[86.73539,23.16814],[86.74793,23.16587],[86.75376,23.19837],[86.78458,23.20815],[86.76371,23.24018],[86.78057,23.33846],[86.82714,23.36344],[86.82479,23.38061],[86.847,23.39593],[86.85869,23.43506],[86.8201,23.43653],[86.82034,23.46654],[86.85686,23.46304],[86.87491,23.49717],[86.89711,23.49293],[86.87759,23.55647],[86.85682,23.56926],[86.88232,23.57591],[86.89949,23.64004],[87.01757,23.63433],[87.1248,23.57578],[87.21434,23.55561],[87.27968,23.49754],[87.44713,23.40539],[87.6029,23.25815],[87.65628,23.23833],[87.65042,23.19795],[87.69121,23.14492],[87.68488,23.12427],[87.72796,23.1145],[87.73189,23.12765],[87.76631,23.07571],[87.72205,23.01898],[87.71411,23.01057]]]}},{"type":"Feature","properties":{"DISTRICT":"Barddhaman","ST_NM":"West Bengal","ST_CEN_CD":19,"DT_CEN_CD":9,"censuscode":335},"geometry":{"type":"Polygon","coordinates":[[[88.19771,23.76477],[88.19648,23.73381],[88.23623,23.71056],[88.16812,23.71046],[88.13836,23.65195],[88.1685,23.62033],[88.21818,23.60501],[88.26558,23.61574],[88.28977,23.5757],[88.31662,23.58844],[88.32502,23.57453],[88.27939,23.55905],[88.27889,23.53693],[88.35014,23.54732],[88.38968,23.50405],[88.36568,23.47774],[88.37007,23.45778],[88.34242,23.45438],[88.35309,23.42788],[88.33293,23.41219],[88.35533,23.41106],[88.35958,23.39567],[88.33294,23.36609],[88.34762,23.34638],[88.32968,23.31562],[88.35159,23.29117],[88.33557,23.28193],[88.35321,23.28078],[88.36446,23.25642],[88.35794,23.2376],[88.41849,23.20792],[88.37232,23.179],[88.35568,23.11708],[88.34826,23.13208],[88.27361,23.13041],[88.23195,23.16022],[88.17247,23.15688],[88.15045,23.07733],[88.09226,23.04388],[88.05367,23.04629],[88.04017,23.01],[88.05237,22.98772],[88.00934,22.97891],[88.01291,22.96274],[87.98452,22.9679],[87.89701,22.93386],[87.89343,22.95997],[87.86783,22.94017],[87.84211,22.9368],[87.82396,22.95463],[87.78063,22.93554],[87.77607,22.96745],[87.74217,22.96605],[87.71411,23.01057],[87.76572,23.07152],[87.74901,23.10778],[87.73189,23.12765],[87.72796,23.1145],[87.68488,23.12427],[87.69121,23.14492],[87.65042,23.19795],[87.65628,23.23833],[87.6029,23.25815],[87.44713,23.40539],[87.27968,23.49754],[87.21434,23.55561],[87.1248,23.57578],[87.01757,23.63433],[86.91655,23.6294],[86.79649,23.70044],[86.82532,23.76294],[86.79845,23.83315],[86.82634,23.81312],[86.87677,23.84596],[86.88779,23.8163],[86.88082,23.86414],[86.91242,23.88126],[86.94187,23.84667],[86.97239,23.86708],[87.0398,23.83866],[87.15604,23.74772],[87.2707,23.74895],[87.29388,23.72281],[87.35507,23.72035],[87.41716,23.68431],[87.41538,23.65298],[87.45351,23.61036],[87.50558,23.60032],[87.53116,23.61898],[87.58637,23.59461],[87.71149,23.61897],[87.73572,23.58694],[87.78542,23.58168],[87.80786,23.55968],[87.83982,23.56591],[87.86362,23.5468],[87.89086,23.55938],[87.9084,23.54011],[87.96388,23.63022],[87.93712,23.64509],[87.93945,23.65972],[87.9131,23.66306],[87.91176,23.71171],[87.95516,23.74823],[87.94171,23.76789],[87.95959,23.78393],[87.97329,23.84361],[88.00726,23.84522],[88.03136,23.79404],[88.05935,23.77883],[88.03669,23.75882],[88.06201,23.72045],[88.08286,23.7209],[88.09422,23.75102],[88.12745,23.74901],[88.14492,23.72976],[88.19423,23.76367],[88.19771,23.76477]]]}},{"type":"Feature","properties":{"DISTRICT":"Birbhum","ST_NM":"West Bengal","ST_CEN_CD":19,"DT_CEN_CD":8,"censuscode":334},"geometry":{"type":"Polygon","coordinates":[[[87.89239,24.5639],[87.89262,24.5414],[87.93483,24.53573],[87.95086,24.51626],[87.94455,24.49025],[87.97461,24.47004],[87.97449,24.3753],[87.95703,24.35493],[87.99654,24.31208],[88.01527,24.31406],[88.02767,24.26032],[88.0238,24.24312],[87.9961,24.24268],[88.00846,24.21895],[87.98665,24.19421],[87.92652,24.19409],[87.93731,24.17737],[87.89862,24.15188],[87.91567,24.13902],[87.89758,24.1144],[87.91025,24.0988],[87.89683,24.05799],[87.86523,24.02619],[87.87584,24.01647],[87.85791,23.96808],[87.87247,23.93326],[87.8696,23.91713],[87.84794,23.9122],[87.85513,23.88635],[87.87839,23.85218],[87.89214,23.85726],[87.89529,23.83596],[87.92672,23.84006],[87.96617,23.8033],[87.94171,23.76789],[87.95516,23.74823],[87.91176,23.71171],[87.9131,23.66306],[87.93945,23.65972],[87.93712,23.64509],[87.96388,23.63022],[87.9084,23.54011],[87.89086,23.55938],[87.86362,23.5468],[87.83982,23.56591],[87.80786,23.55968],[87.78542,23.58168],[87.73572,23.58694],[87.71149,23.61897],[87.58637,23.59461],[87.53116,23.61898],[87.50558,23.60032],[87.45351,23.61036],[87.41538,23.65298],[87.41716,23.68431],[87.35507,23.72035],[87.29388,23.72281],[87.2707,23.74895],[87.15604,23.74772],[87.12023,23.77113],[87.08985,23.80714],[87.15402,23.79629],[87.17172,23.82147],[87.13565,23.85275],[87.13626,23.86878],[87.20092,23.85611],[87.19383,23.8427],[87.24146,23.85493],[87.22378,23.83268],[87.23435,23.8249],[87.26041,23.84119],[87.25347,23.90881],[87.27012,23.87667],[87.29779,23.89197],[87.29706,23.95745],[87.26681,23.96789],[87.2733,23.98634],[87.2661,24.00459],[87.24589,24.0074],[87.24331,24.04286],[87.3376,24.03268],[87.32063,24.00612],[87.33308,23.9977],[87.36185,24.01089],[87.46307,23.98316],[87.43895,24.01004],[87.48785,24.01536],[87.51562,24.04153],[87.49634,24.05369],[87.49485,24.07488],[87.51089,24.08373],[87.49406,24.08983],[87.49873,24.11682],[87.54425,24.08945],[87.5812,24.08691],[87.57429,24.10837],[87.61264,24.13054],[87.57448,24.15722],[87.6211,24.16623],[87.69456,24.15143],[87.69755,24.18772],[87.64279,24.2131],[87.64079,24.24401],[87.6864,24.24793],[87.70768,24.2614],[87.71536,24.29351],[87.76129,24.30502],[87.7976,24.39777],[87.81504,24.40795],[87.78982,24.41586],[87.82001,24.45263],[87.81418,24.47785],[87.82796,24.49565],[87.8153,24.49334],[87.81177,24.51182],[87.80023,24.4923],[87.81146,24.5464],[87.77459,24.58291],[87.8533,24.55224],[87.88581,24.56414],[87.89239,24.5639]]]}},{"type":"Feature","properties":{"DISTRICT":"Dakshin Dinajpur","ST_NM":"West Bengal","ST_CEN_CD":19,"DT_CEN_CD":5,"censuscode":331},"geometry":{"type":"Polygon","coordinates":[[[88.18542,25.28589],[88.26669,25.42538],[88.25648,25.48706],[88.33041,25.5505],[88.38634,25.56148],[88.40153,25.58865],[88.4615,25.59348],[88.49788,25.58091],[88.49848,25.55923],[88.53724,25.53635],[88.5428,25.51026],[88.60735,25.51451],[88.66928,25.47474],[88.70488,25.47442],[88.71233,25.4967],[88.76434,25.49409],[88.76277,25.52096],[88.80186,25.52247],[88.83622,25.48004],[88.83711,25.42848],[88.81824,25.40808],[88.84554,25.3937],[88.8481,25.36363],[88.88425,25.32755],[88.90214,25.33754],[88.9375,25.30686],[89.00514,25.3],[89.01251,25.2672],[88.99078,25.27124],[88.95823,25.25015],[88.964,25.2106],[88.94044,25.20352],[88.94916,25.18025],[88.91963,25.16573],[88.90294,25.18128],[88.88209,25.17625],[88.84848,25.2101],[88.80897,25.17396],[88.77752,25.18816],[88.75711,25.17827],[88.68674,25.20999],[88.6189,25.20519],[88.56836,25.17465],[88.56235,25.19045],[88.48719,25.21361],[88.46714,25.19609],[88.44767,25.20977],[88.43775,25.19694],[88.46612,25.26934],[88.45113,25.26244],[88.44106,25.27851],[88.45176,25.30524],[88.43643,25.31545],[88.38588,25.28762],[88.31355,25.29704],[88.29032,25.31479],[88.25484,25.28788],[88.21991,25.30723],[88.19218,25.27487],[88.18542,25.28589]]]}},{"type":"Feature","properties":{"DISTRICT":"Darjiling","ST_NM":"West Bengal","ST_CEN_CD":19,"DT_CEN_CD":1,"censuscode":327},"geometry":{"type":"Polygon","coordinates":[[[88.7587,27.148],[88.87676,27.10854],[88.87881,26.9645],[88.79836,26.98959],[88.76354,26.96393],[88.7676,26.9243],[88.66906,26.92613],[88.66548,26.96051],[88.61086,26.879],[88.57736,26.88837],[88.51412,26.86188],[88.48416,26.87535],[88.49875,26.85332],[88.44834,26.83498],[88.43572,26.81167],[88.44729,26.78393],[88.42921,26.72437],[88.45244,26.70005],[88.4178,26.69854],[88.39697,26.67996],[88.41728,26.62991],[88.39524,26.6162],[88.40489,26.60157],[88.38404,26.59444],[88.34509,26.49736],[88.28783,26.47711],[88.27126,26.48574],[88.24043,26.44613],[88.22191,26.4656],[88.23281,26.47612],[88.20037,26.47189],[88.18568,26.49043],[88.23998,26.53223],[88.23787,26.55182],[88.22208,26.55711],[88.22123,26.53544],[88.17498,26.53719],[88.15209,26.51081],[88.11706,26.53006],[88.1066,26.55525],[88.13258,26.57399],[88.13208,26.60247],[88.15973,26.63569],[88.18889,26.72928],[88.1767,26.85995],[88.14427,26.88928],[88.14419,26.92771],[88.12346,26.94745],[88.13487,26.98573],[88.09303,27.00691],[88.08447,27.03556],[88.04583,27.03819],[88.02518,27.08479],[87.99265,27.1085],[88.01737,27.16296],[88.01686,27.21644],[88.06939,27.21087],[88.09339,27.14111],[88.15977,27.11134],[88.18646,27.13434],[88.23991,27.11942],[88.31186,27.12827],[88.33115,27.10458],[88.43912,27.08133],[88.53713,27.14988],[88.528,27.1779],[88.56621,27.18848],[88.62619,27.1876],[88.66357,27.16218],[88.6986,27.17847],[88.74419,27.13931],[88.7587,27.148]]]}},{"type":"Feature","properties":{"DISTRICT":"Haora","ST_NM":"West Bengal","ST_CEN_CD":19,"DT_CEN_CD":15,"censuscode":341},"geometry":{"type":"MultiPolygon","coordinates":[[[[87.99513,22.773],[87.99673,22.70517],[88.01466,22.68357],[88.05012,22.67738],[88.06516,22.71161],[88.06747,22.68489],[88.10503,22.69143],[88.11466,22.70699],[88.15219,22.67501],[88.17652,22.68725],[88.18335,22.65421],[88.18545,22.67028],[88.243,22.678],[88.26763,22.66008],[88.32333,22.66877],[88.3479,22.66333],[88.36904,22.61579],[88.32426,22.5504],[88.24723,22.56065],[88.23875,22.52134],[88.12106,22.46938],[88.14236,22.4081],[88.09893,22.37554],[88.09833,22.30234],[88.04833,22.21972],[88.01196,22.23],[87.96005,22.28022],[87.94917,22.39945],[87.92333,22.435],[87.88054,22.44358],[87.9001,22.47508],[87.88074,22.49768],[87.89258,22.51884],[87.84581,22.56117],[87.8616,22.60805],[87.884,22.60374],[87.90613,22.63045],[87.94223,22.6321],[87.92733,22.68859],[87.95186,22.76739],[87.99202,22.77823],[87.99513,22.773]]]]}},{"type":"Feature","properties":{"DISTRICT":"Hugli","ST_NM":"West Bengal","ST_CEN_CD":19,"DT_CEN_CD":12,"censuscode":338},"geometry":{"type":"Polygon","coordinates":[[[88.41167,22.94525],[88.4077,22.87644],[88.38092,22.86233],[88.37829,22.82871],[88.33462,22.77533],[88.36599,22.74065],[88.35569,22.65026],[88.32333,22.66877],[88.26763,22.66008],[88.243,22.678],[88.18545,22.67028],[88.18335,22.65421],[88.179,22.68537],[88.15219,22.67501],[88.11466,22.70699],[88.07484,22.68342],[88.06516,22.71161],[88.05012,22.67738],[88.01466,22.68357],[87.99728,22.7031],[87.99236,22.73275],[88.00483,22.74557],[87.98886,22.7796],[87.95186,22.76739],[87.92733,22.68859],[87.94065,22.62992],[87.90613,22.63045],[87.89246,22.60836],[87.85521,22.59753],[87.81649,22.61693],[87.76665,22.6927],[87.74355,22.77605],[87.72641,22.78892],[87.68017,22.78201],[87.68516,22.80256],[87.6363,22.81242],[87.61888,22.85091],[87.59217,22.84345],[87.56244,22.86492],[87.51992,22.86647],[87.53349,22.88252],[87.50752,22.91469],[87.52981,22.93082],[87.59578,22.89473],[87.63085,22.89611],[87.62695,22.91249],[87.65465,22.94243],[87.6457,22.98752],[87.6988,22.99596],[87.68977,23.02338],[87.70511,23.02614],[87.74217,22.96605],[87.77771,22.96554],[87.78063,22.93554],[87.82396,22.95463],[87.8446,22.93678],[87.89343,22.95997],[87.89701,22.93386],[87.98452,22.9679],[88.00002,22.95836],[88.00934,22.97891],[88.05237,22.98772],[88.04017,23.01],[88.05367,23.04629],[88.09226,23.04388],[88.15045,23.07733],[88.17247,23.15688],[88.23195,23.16022],[88.27361,23.13041],[88.34826,23.13208],[88.35568,23.11708],[88.37232,23.179],[88.45984,23.22768],[88.47598,23.2097],[88.4552,23.13387],[88.50261,23.12403],[88.50786,23.09399],[88.46996,23.0804],[88.45558,23.03671],[88.41906,23.01565],[88.41157,22.95444],[88.41167,22.94525]]]}},{"type":"Feature","properties":{"DISTRICT":"Jalpaiguri","ST_NM":"West Bengal","ST_CEN_CD":19,"DT_CEN_CD":2,"censuscode":328},"geometry":{"type":"Polygon","coordinates":[[[89.86232,26.70367],[89.88166,26.64939],[89.86231,26.6233],[89.88249,26.61294],[89.88275,26.58413],[89.86722,26.57778],[89.85864,26.51714],[89.87453,26.44834],[89.84986,26.41015],[89.82853,26.43265],[89.83569,26.44636],[89.86124,26.44569],[89.86606,26.46391],[89.85167,26.46816],[89.76118,26.46257],[89.74881,26.43665],[89.73095,26.44289],[89.70031,26.42088],[89.66143,26.43542],[89.62806,26.41865],[89.62169,26.39537],[89.58655,26.42857],[89.55395,26.41651],[89.56121,26.42988],[89.5328,26.46853],[89.54215,26.47535],[89.4997,26.47237],[89.45935,26.49001],[89.43924,26.46994],[89.39851,26.4643],[89.36146,26.49513],[89.27774,26.48555],[89.09788,26.52068],[89.07486,26.53859],[89.03012,26.51677],[88.97562,26.54575],[88.94375,26.50471],[88.95015,26.47697],[88.936,26.46337],[88.90795,26.47485],[88.91727,26.45207],[88.89122,26.43741],[88.87124,26.39177],[88.80361,26.37323],[88.77842,26.39532],[88.75019,26.35559],[88.76076,26.31034],[88.68771,26.26237],[88.67404,26.26687],[88.67357,26.29173],[88.7058,26.29024],[88.67998,26.31977],[88.73218,26.31523],[88.7525,26.32883],[88.74167,26.33037],[88.74735,26.35259],[88.70633,26.33671],[88.6927,26.37434],[88.70481,26.3886],[88.63286,26.43537],[88.62616,26.46994],[88.60307,26.46961],[88.59889,26.45331],[88.57274,26.45795],[88.48366,26.54185],[88.43663,26.54771],[88.39697,26.67996],[88.4178,26.69854],[88.45244,26.70005],[88.42921,26.72437],[88.44729,26.78393],[88.43572,26.81167],[88.44834,26.83498],[88.49875,26.85332],[88.48416,26.87535],[88.51412,26.86188],[88.57736,26.88837],[88.61086,26.879],[88.66548,26.96051],[88.66906,26.92613],[88.7676,26.9243],[88.76354,26.96393],[88.79836,26.98959],[88.88537,26.95074],[88.92566,26.99605],[88.96027,26.96806],[88.94642,26.94227],[88.96889,26.92399],[89.0314,26.94014],[89.05286,26.90353],[89.0967,26.89385],[89.1083,26.83621],[89.13727,26.80797],[89.17909,26.82156],[89.19594,26.80842],[89.2607,26.81654],[89.32221,26.8527],[89.33441,26.84004],[89.38322,26.8662],[89.39703,26.84086],[89.45518,26.83377],[89.46518,26.80617],[89.5647,26.81546],[89.62749,26.77683],[89.65043,26.78085],[89.66016,26.76341],[89.61908,26.72803],[89.63781,26.71916],[89.66422,26.71839],[89.67942,26.74029],[89.73194,26.72224],[89.76219,26.73636],[89.77986,26.69946],[89.81267,26.71491],[89.86041,26.70273],[89.86232,26.70367]]]}},{"type":"Feature","properties":{"DISTRICT":"Koch Bihar","ST_NM":"West Bengal","ST_CEN_CD":19,"DT_CEN_CD":3,"censuscode":329},"geometry":{"type":"MultiPolygon","coordinates":[[[[89.02623,26.51818],[89.07486,26.53859],[89.09788,26.52068],[89.27774,26.48555],[89.36146,26.49513],[89.39851,26.4643],[89.43924,26.46994],[89.45935,26.49001],[89.4997,26.47237],[89.54215,26.47535],[89.5328,26.46853],[89.56121,26.42988],[89.55395,26.41651],[89.58655,26.42857],[89.62169,26.39537],[89.62806,26.41865],[89.66143,26.43542],[89.70031,26.42088],[89.73095,26.44289],[89.74881,26.43665],[89.76118,26.46257],[89.85167,26.46816],[89.86658,26.45696],[89.83008,26.43952],[89.83229,26.3964],[89.8518,26.40268],[89.86224,26.3844],[89.83058,26.37927],[89.82505,26.35034],[89.82547,26.37056],[89.787,26.35324],[89.78584,26.33084],[89.75552,26.32143],[89.7636,26.28931],[89.72283,26.30568],[89.74239,26.27109],[89.73015,26.2584],[89.70977,26.2699],[89.73368,26.2382],[89.70214,26.21724],[89.7369,26.21229],[89.69972,26.18908],[89.71136,26.17315],[89.73899,26.175],[89.7139,26.1538],[89.68866,26.16798],[89.69876,26.17754],[89.67739,26.20226],[89.69606,26.22185],[89.64285,26.22545],[89.65189,26.19558],[89.63569,26.18886],[89.66018,26.17726],[89.62211,26.1812],[89.61526,26.1611],[89.59738,26.16081],[89.60833,26.12091],[89.63067,26.12399],[89.59813,26.10124],[89.61323,26.08914],[89.63218,26.10746],[89.65335,26.06829],[89.6256,26.05633],[89.60677,26.06603],[89.61475,26.04932],[89.58281,26.02598],[89.59126,25.97953],[89.55403,25.96663],[89.54165,26.0079],[89.47726,25.99598],[89.43195,26.01524],[89.42576,26.04284],[89.4049,26.0362],[89.39296,26.00892],[89.34478,26.01677],[89.26279,26.06617],[89.26837,26.09298],[89.22425,26.12619],[89.16148,26.13959],[89.14083,26.18541],[89.14844,26.22221],[89.10645,26.28978],[89.10655,26.30636],[89.12439,26.29205],[89.13685,26.31686],[89.08891,26.32198],[89.10181,26.34065],[89.08536,26.36371],[89.09779,26.39491],[89.03933,26.39481],[89.00919,26.41997],[88.9811,26.40709],[88.98805,26.44384],[88.96772,26.45887],[88.91534,26.40457],[88.92115,26.36298],[88.95779,26.36417],[88.96287,26.33232],[88.98566,26.3509],[89.00405,26.29509],[89.01831,26.2915],[89.02608,26.30897],[89.02977,26.28663],[89.05083,26.28093],[89.05749,26.29576],[89.06409,26.25469],[89.05022,26.24112],[88.97202,26.24123],[88.90699,26.28813],[88.87055,26.27559],[88.868,26.25326],[88.88519,26.23687],[88.84797,26.23304],[88.82145,26.25967],[88.82324,26.29628],[88.76076,26.31034],[88.75019,26.35559],[88.77842,26.39532],[88.80361,26.37323],[88.85387,26.3824],[88.91727,26.45207],[88.90795,26.47485],[88.936,26.46337],[88.95015,26.47697],[88.94375,26.50471],[88.97562,26.54575],[89.02121,26.52174],[89.02623,26.51818]],[[89.73526,26.30903],[89.7429,26.30222],[89.73754,26.311],[89.73526,26.30903]]],[[[88.79894,26.20667],[88.78887,26.13067],[88.77111,26.13131],[88.76275,26.15186],[88.77789,26.1627],[88.76269,26.17196],[88.78166,26.19464],[88.76825,26.23416],[88.79612,26.22883],[88.7988,26.20734],[88.79894,26.20667]]],[[[88.68978,26.24702],[88.69989,26.22466],[88.72191,26.23266],[88.73208,26.18837],[88.7196,26.17637],[88.67123,26.25057],[88.68901,26.24747],[88.68978,26.24702]]],[[[89.60204,25.96067],[89.61265,25.94339],[89.58396,25.93467],[89.57606,25.9513],[89.59971,25.96198],[89.60204,25.96067]]],[[[89.82701,26.32507],[89.79317,26.34217],[89.81712,26.34585],[89.8275,26.32827],[89.82701,26.32507]]],[[[88.66114,26.26498],[88.64591,26.25339],[88.6413,26.28458],[88.66151,26.26769],[88.66114,26.26498]]]]}},{"type":"Feature","properties":{"DISTRICT":"Kolkata","ST_NM":"West Bengal","ST_CEN_CD":19,"DT_CEN_CD":16,"censuscode":342},"geometry":{"type":"Polygon","coordinates":[[[88.41075,22.55997],[88.36242,22.49853],[88.29164,22.51766],[88.27425,22.55531],[88.3324,22.55567],[88.36801,22.60839],[88.3632,22.63316],[88.3941,22.62815],[88.40719,22.56581],[88.41075,22.55997]]]}},{"type":"Feature","properties":{"DISTRICT":"Maldah","ST_NM":"West Bengal","ST_CEN_CD":19,"DT_CEN_CD":6,"censuscode":332},"geometry":{"type":"Polygon","coordinates":[[[88.07608,25.48092],[88.088,25.44566],[88.11724,25.43352],[88.09964,25.41962],[88.11976,25.40482],[88.10642,25.37913],[88.1279,25.36336],[88.11404,25.32301],[88.13174,25.29142],[88.11226,25.29058],[88.10792,25.27235],[88.12628,25.26961],[88.13067,25.24315],[88.15631,25.27061],[88.15056,25.29367],[88.16613,25.29802],[88.19218,25.27487],[88.21991,25.30723],[88.25484,25.28788],[88.29032,25.31479],[88.31355,25.29704],[88.38588,25.28762],[88.43059,25.30329],[88.41912,25.31365],[88.44849,25.31038],[88.44106,25.27851],[88.45113,25.26244],[88.46612,25.26934],[88.43775,25.19694],[88.46173,25.14496],[88.43807,25.04938],[88.45171,25.03138],[88.4126,24.99474],[88.3979,24.94401],[88.37132,24.95245],[88.34687,24.94007],[88.33167,24.91509],[88.34764,24.89645],[88.33444,24.87102],[88.28093,24.89301],[88.26624,24.87825],[88.26451,24.91445],[88.23073,24.95583],[88.14241,24.9303],[88.17705,24.85977],[88.14639,24.85078],[88.13999,24.80228],[88.12776,24.82661],[88.10824,24.78078],[88.07178,24.77051],[88.06839,24.72212],[87.99998,24.6574],[87.96131,24.68863],[87.96632,24.7697],[87.90228,24.85526],[87.97174,24.8822],[87.97525,24.92443],[87.8698,25.04059],[87.77827,25.09978],[87.79328,25.22107],[87.84226,25.19986],[87.82843,25.23491],[87.86219,25.27831],[87.8561,25.29796],[87.7972,25.32282],[87.79464,25.3727],[87.77153,25.37844],[87.76496,25.40546],[87.78722,25.44505],[87.81451,25.43459],[87.83968,25.46496],[87.8693,25.46578],[87.88509,25.51633],[87.90482,25.50468],[87.93188,25.53656],[87.96143,25.53842],[87.99342,25.52432],[87.99852,25.49825],[88.00996,25.49445],[88.01323,25.51078],[88.03325,25.48655],[88.07159,25.48157],[88.07608,25.48092]]]}},{"type":"Feature","properties":{"DISTRICT":"Murshidabad","ST_NM":"West Bengal","ST_CEN_CD":19,"DT_CEN_CD":7,"censuscode":333},"geometry":{"type":"Polygon","coordinates":[[[88.01346,24.6689],[88.13319,24.51679],[88.20372,24.45812],[88.27363,24.44001],[88.34319,24.37782],[88.44586,24.37638],[88.52799,24.34201],[88.55561,24.29825],[88.58383,24.32506],[88.60585,24.30933],[88.7038,24.31133],[88.73026,24.29378],[88.73593,24.19889],[88.72123,24.2017],[88.70349,24.16756],[88.7078,24.09537],[88.65532,24.07169],[88.63296,24.02886],[88.6529,24.01253],[88.62568,23.97991],[88.58482,24.02815],[88.5509,24.03801],[88.54261,23.99519],[88.51309,23.9886],[88.52226,23.94768],[88.51074,23.9541],[88.45962,23.92425],[88.51178,23.89449],[88.50201,23.88381],[88.4823,23.90005],[88.46653,23.88607],[88.47719,23.81929],[88.45273,23.8167],[88.44818,23.85276],[88.41877,23.79981],[88.41079,23.81784],[88.38296,23.81039],[88.35566,23.82651],[88.33995,23.80666],[88.27186,23.80979],[88.23814,23.79709],[88.23971,23.75856],[88.19018,23.76602],[88.14492,23.72976],[88.12745,23.74901],[88.09422,23.75102],[88.08286,23.7209],[88.06201,23.72045],[88.03669,23.75882],[88.05935,23.77883],[88.03136,23.79404],[88.00726,23.84522],[87.97329,23.84361],[87.96617,23.8033],[87.92672,23.84006],[87.89529,23.83596],[87.89214,23.85726],[87.87839,23.85218],[87.85513,23.88635],[87.84794,23.9122],[87.8696,23.91713],[87.87247,23.93326],[87.85791,23.96808],[87.87584,24.01647],[87.86523,24.02619],[87.89455,24.054],[87.91025,24.0988],[87.89758,24.1144],[87.91567,24.13902],[87.89862,24.15188],[87.93731,24.17737],[87.92991,24.19685],[87.98665,24.19421],[88.00846,24.21895],[87.9961,24.24268],[88.0238,24.24312],[88.02767,24.26032],[88.01527,24.31406],[87.99654,24.31208],[87.95703,24.35493],[87.97449,24.3753],[87.97461,24.47004],[87.94455,24.49025],[87.95086,24.51626],[87.93483,24.53573],[87.89262,24.5414],[87.9132,24.60932],[87.87785,24.61185],[87.90671,24.61371],[87.90736,24.62703],[87.88973,24.62777],[87.91139,24.63376],[87.91852,24.65965],[87.89177,24.67517],[87.90732,24.71954],[87.88299,24.74009],[87.8726,24.73042],[87.81917,24.75435],[87.83897,24.78883],[87.84049,24.76421],[87.87064,24.77531],[87.88275,24.79896],[87.87295,24.82391],[87.90367,24.82546],[87.89426,24.85385],[87.96632,24.7697],[87.96543,24.68084],[87.99998,24.6574],[88.00971,24.66824],[88.01346,24.6689]]]}},{"type":"Feature","properties":{"DISTRICT":"Nadia","ST_NM":"West Bengal","ST_CEN_CD":19,"DT_CEN_CD":10,"censuscode":336},"geometry":{"type":"MultiPolygon","coordinates":[[[[88.73406,24.06422],[88.74302,24.03624],[88.73101,23.99618],[88.76254,24.00984],[88.77508,23.9892],[88.73877,23.97988],[88.73704,23.91611],[88.70591,23.91465],[88.70756,23.90062],[88.66245,23.86989],[88.58869,23.86979],[88.57942,23.8562],[88.60558,23.81875],[88.56315,23.78608],[88.58267,23.7673],[88.56548,23.64418],[88.59617,23.63867],[88.5846,23.60289],[88.64858,23.61018],[88.6628,23.55484],[88.73089,23.51053],[88.74643,23.48301],[88.80281,23.49376],[88.79438,23.44361],[88.76875,23.44508],[88.76086,23.42131],[88.76572,23.36411],[88.73699,23.34996],[88.74948,23.31223],[88.73038,23.31919],[88.72617,23.30147],[88.71314,23.31107],[88.70083,23.29894],[88.72714,23.27211],[88.72375,23.25516],[88.75323,23.23781],[88.71638,23.23806],[88.70777,23.21899],[88.72288,23.18448],[88.70015,23.1639],[88.70685,23.13603],[88.67826,23.09408],[88.69878,23.0649],[88.66424,22.98301],[88.66513,22.9513],[88.68026,22.94432],[88.65881,22.93703],[88.67217,22.88892],[88.65942,22.87395],[88.51054,22.94292],[88.47801,22.93437],[88.42608,22.95592],[88.41167,22.94525],[88.41906,23.01565],[88.45558,23.03671],[88.46996,23.0804],[88.49951,23.08133],[88.50803,23.10134],[88.50261,23.12403],[88.45307,23.14015],[88.47268,23.22183],[88.38714,23.21957],[88.35794,23.2376],[88.35321,23.28078],[88.33557,23.28193],[88.35159,23.29117],[88.32968,23.31562],[88.34762,23.34638],[88.33294,23.36609],[88.35958,23.39567],[88.33223,23.41705],[88.35309,23.42788],[88.34242,23.45438],[88.37007,23.45778],[88.36568,23.47774],[88.39144,23.49998],[88.35014,23.54732],[88.27889,23.53693],[88.27939,23.55905],[88.32502,23.57453],[88.31662,23.58844],[88.28977,23.5757],[88.28309,23.60459],[88.27134,23.59902],[88.26191,23.61751],[88.22394,23.60479],[88.1685,23.62033],[88.13743,23.65908],[88.16812,23.71046],[88.23387,23.70636],[88.23027,23.72086],[88.20167,23.72775],[88.19577,23.74992],[88.20342,23.76632],[88.2432,23.76207],[88.24054,23.79863],[88.33995,23.80666],[88.35566,23.82651],[88.38296,23.81039],[88.41079,23.81784],[88.41877,23.79981],[88.44818,23.85276],[88.45273,23.8167],[88.47719,23.81929],[88.46653,23.88607],[88.4823,23.90005],[88.50201,23.88381],[88.51178,23.89449],[88.45962,23.92425],[88.51074,23.9541],[88.52226,23.94768],[88.51309,23.9886],[88.54261,23.99519],[88.55415,24.04065],[88.58482,24.02815],[88.62568,23.97991],[88.6529,24.01253],[88.63296,24.02886],[88.65532,24.07169],[88.72552,24.10109],[88.72812,24.06558],[88.73406,24.06422]]],[[[88.72386,24.19923],[88.73593,24.19889],[88.74893,24.14029],[88.71412,24.12049],[88.70349,24.16756],[88.72123,24.2017],[88.72386,24.19923]]]]}},{"type":"Feature","properties":{"DISTRICT":"North 24 Parganas","ST_NM":"West Bengal","ST_CEN_CD":19,"DT_CEN_CD":11,"censuscode":337},"geometry":{"type":"MultiPolygon","coordinates":[[[[88.82434,23.24874],[88.82587,23.23514],[88.85599,23.2271],[88.91664,23.23247],[88.9223,23.21079],[88.95487,23.20499],[88.98272,23.2245],[88.99777,23.21481],[88.98502,23.18378],[88.96467,23.19236],[88.92399,23.12868],[88.87273,23.098],[88.87652,23.00709],[88.84999,23.00768],[88.87107,22.99237],[88.86457,22.95797],[88.89849,22.95331],[88.90002,22.92958],[88.9169,22.92146],[88.91235,22.88029],[88.94896,22.88032],[88.9705,22.8454],[88.96135,22.79718],[88.92213,22.76475],[88.92369,22.73691],[88.96217,22.69382],[88.93169,22.6408],[88.95771,22.61078],[88.93702,22.59422],[88.93761,22.56993],[88.86889,22.54584],[88.86706,22.52343],[88.84281,22.50787],[88.86525,22.48752],[88.85111,22.475],[88.85245,22.43283],[88.82453,22.43612],[88.81156,22.48138],[88.77167,22.51338],[88.78417,22.525],[88.76569,22.53424],[88.76639,22.56084],[88.76444,22.52778],[88.78278,22.52278],[88.73415,22.51092],[88.69067,22.52441],[88.67359,22.55002],[88.67834,22.59361],[88.6717,22.55668],[88.69019,22.52298],[88.77843,22.50609],[88.80252,22.44342],[88.84834,22.43056],[88.84611,22.38833],[88.87591,22.35492],[88.77442,22.3728],[88.77053,22.39348],[88.70672,22.43228],[88.71079,22.45348],[88.65439,22.49537],[88.65504,22.52321],[88.62912,22.57436],[88.59677,22.59575],[88.59746,22.61357],[88.5598,22.62559],[88.5255,22.54792],[88.4759,22.57526],[88.44756,22.56383],[88.42247,22.58393],[88.41075,22.55997],[88.3941,22.62815],[88.3632,22.63316],[88.35569,22.65026],[88.36599,22.74065],[88.33462,22.77533],[88.37829,22.82871],[88.38092,22.86233],[88.4077,22.87644],[88.41167,22.94525],[88.42608,22.95592],[88.47801,22.93437],[88.51054,22.94292],[88.65942,22.87395],[88.67217,22.88892],[88.65881,22.93703],[88.68026,22.94432],[88.66513,22.9513],[88.66424,22.98301],[88.69878,23.0649],[88.67826,23.09408],[88.70685,23.13603],[88.70015,23.1639],[88.72288,23.18448],[88.71236,23.23544],[88.77078,23.24222],[88.78702,23.22099],[88.81588,23.21814],[88.81197,23.25139],[88.82312,23.25099],[88.82434,23.24874]]],[[[88.84986,22.36292],[88.93693,22.29911],[88.93034,22.25941],[88.95408,22.22524],[88.91897,22.23303],[88.91387,22.2199],[88.88705,22.2363],[88.88761,22.26593],[88.84333,22.28972],[88.88724,22.26491],[88.88566,22.23621],[88.91389,22.21611],[88.90449,22.19724],[88.91861,22.16535],[88.87227,22.17137],[88.86618,22.19415],[88.88351,22.21227],[88.84101,22.21426],[88.87584,22.2528],[88.83943,22.21553],[88.88228,22.2116],[88.88108,22.20016],[88.85447,22.20621],[88.84427,22.19032],[88.8299,22.21013],[88.81949,22.19636],[88.80056,22.22584],[88.82957,22.25372],[88.80774,22.2847],[88.80586,22.33151],[88.82001,22.35972],[88.84972,22.36306],[88.84986,22.36292]]],[[[88.96115,22.18859],[88.98048,22.13286],[88.97003,22.1563],[88.95275,22.15847],[88.98547,22.13787],[88.98333,22.11889],[88.96828,22.08227],[88.95055,22.10417],[88.96611,22.07778],[88.92505,22.06526],[88.92394,22.0242],[88.93111,22],[88.94611,22],[88.93486,22.05514],[88.96364,22.05699],[88.9771,22.03839],[88.96222,22.01722],[88.9725,21.98779],[88.99223,21.97],[89.01353,21.97911],[88.99094,21.95193],[89.02135,21.92166],[89.01257,21.90199],[88.96884,21.92114],[88.97639,21.94611],[88.9661,21.92293],[88.93588,21.93649],[88.91272,21.99436],[88.90144,22.06528],[88.93072,22.0981],[88.92325,22.12294],[88.94035,22.12798],[88.93648,22.14281],[88.93832,22.12689],[88.91317,22.13003],[88.89394,22.1697],[88.91972,22.16111],[88.94264,22.19028],[88.96103,22.18887],[88.96115,22.18859]]],[[[88.93417,22.55586],[88.9611,22.54655],[88.99861,22.43029],[88.96417,22.40917],[88.95778,22.36472],[88.93528,22.39583],[88.93923,22.41855],[88.93415,22.39586],[88.95348,22.36553],[88.94195,22.30988],[88.90733,22.33579],[88.89641,22.38038],[88.93,22.39139],[88.89472,22.46611],[88.91444,22.51028],[88.89477,22.55847],[88.93385,22.55599],[88.93417,22.55586]]],[[[88.81277,22.01944],[88.9025,22.01167],[88.90727,21.92954],[88.85658,21.91906],[88.79056,21.94167],[88.78722,21.955],[88.77556,21.94333],[88.7525,21.95611],[88.75333,21.98528],[88.77445,21.98972],[88.80029,21.97045],[88.77667,21.99083],[88.75361,21.98806],[88.7725,22.01222],[88.76173,22.01491],[88.80139,22.02972],[88.81167,22.02],[88.81277,22.01944]]],[[[88.98476,22.38243],[88.98361,22.32534],[89.02347,22.29695],[88.99416,22.28555],[89.01723,22.26883],[89.01455,22.2516],[89.0324,22.2573],[89.03705,22.22671],[89.0669,22.19832],[89.06864,22.14736],[89.09626,22.15501],[89.06219,22.12843],[89.02295,22.16626],[89.01972,22.20555],[88.97252,22.20971],[88.94722,22.25556],[88.96736,22.40769],[88.98499,22.3829],[88.98476,22.38243]]],[[[88.92056,21.92583],[88.97472,21.89694],[88.97667,21.8675],[88.95556,21.85389],[88.94334,21.88472],[88.95695,21.86972],[88.94722,21.84056],[88.90694,21.87889],[88.93916,21.85],[88.92306,21.82444],[88.88805,21.81222],[88.87805,21.85389],[88.85722,21.85861],[88.85416,21.88945],[88.81962,21.9282],[88.85687,21.91071],[88.91987,21.92607],[88.92056,21.92583]]],[[[89.01782,22.05032],[89.04081,22.04887],[89.07385,22.00341],[89.05976,21.93197],[89.04217,21.93404],[89.04104,21.95105],[89.04942,21.92971],[89.03033,21.92644],[88.99955,21.94948],[89.01807,21.97553],[89.00544,21.98649],[89.0325,22.00208],[88.99244,21.97363],[88.97556,21.99139],[88.99936,22.00711],[88.97447,21.99364],[88.98493,22.05495],[89.01569,22.06293],[89.01724,22.05049],[89.01782,22.05032]]],[[[88.84475,22.18919],[88.86049,22.2033],[88.86829,22.17119],[88.8433,22.16718],[88.85589,22.14445],[88.77764,22.11122],[88.73917,22.05699],[88.70415,22.06661],[88.75767,22.14132],[88.8065,22.17801],[88.83827,22.16703],[88.82806,22.20804],[88.84428,22.18927],[88.84475,22.18919]]],[[[89.00138,22.19923],[89.02222,22.14861],[89.05048,22.13063],[89.03526,22.11047],[89.0163,22.11419],[89.03013,22.12294],[89.01465,22.11401],[89.03553,22.1093],[89.03822,22.05339],[89.02338,22.07879],[89.02605,22.05293],[89.01473,22.06444],[88.98529,22.05698],[88.97791,22.03992],[88.96236,22.06048],[88.99694,22.13803],[88.97269,22.19344],[89.00114,22.1993],[89.00138,22.19923]]],[[[88.8977,22.54886],[88.90529,22.49839],[88.89233,22.46535],[88.90278,22.41472],[88.92167,22.40139],[88.88805,22.37833],[88.89806,22.36667],[88.85612,22.42278],[88.86774,22.48787],[88.84361,22.5068],[88.86785,22.52229],[88.86896,22.54047],[88.89726,22.55015],[88.8977,22.54886]]],[[[88.71806,21.90722],[88.78056,21.85944],[88.75777,21.78111],[88.75166,21.81528],[88.72583,21.79445],[88.7075,21.81139],[88.705,21.82778],[88.72806,21.8375],[88.7025,21.82417],[88.69666,21.83806],[88.7175,21.85556],[88.69695,21.84861],[88.71778,21.90722],[88.71806,21.90722]]],[[[88.83167,21.76611],[88.86528,21.75861],[88.83917,21.70694],[88.85996,21.63723],[88.8442,21.627],[88.82861,21.65056],[88.84583,21.62],[88.8089,21.63879],[88.82278,21.665],[88.815,21.71],[88.76251,21.70137],[88.79083,21.74917],[88.83129,21.76574],[88.83167,21.76611]]],[[[88.7162,21.80738],[88.72806,21.77778],[88.75926,21.75922],[88.75277,21.73158],[88.77666,21.72111],[88.74828,21.70709],[88.73586,21.71929],[88.76276,21.69293],[88.72929,21.68676],[88.74805,21.65833],[88.71111,21.69018],[88.695,21.74389],[88.71561,21.80729],[88.7162,21.80738]]],[[[89.05921,21.7218],[89.09504,21.64396],[89.05159,21.61753],[89.02849,21.63532],[89.02473,21.69486],[89.0098,21.70487],[89.05906,21.722],[89.05921,21.7218]]],[[[88.98006,21.89312],[89.02889,21.86584],[89.02476,21.84922],[88.98924,21.86812],[89.02999,21.83453],[88.99416,21.81417],[88.9705,21.77509],[88.94279,21.7865],[88.97664,21.80509],[88.97787,21.82351],[88.95029,21.83809],[88.97913,21.86744],[88.96931,21.89019],[88.97957,21.89326],[88.98006,21.89312]]],[[[88.81681,22.26326],[88.82542,22.24091],[88.79847,22.22597],[88.83405,22.16685],[88.74979,22.19653],[88.75146,22.22799],[88.79874,22.27815],[88.81422,22.28281],[88.81633,22.2635],[88.81681,22.26326]]],[[[88.88306,21.74528],[88.94028,21.69528],[88.92083,21.63222],[88.88778,21.65806],[88.87305,21.69444],[88.88223,21.74528],[88.88306,21.74528]]],[[[88.86348,22.16731],[88.89994,22.14809],[88.92303,22.10813],[88.91663,22.0909],[88.89645,22.0908],[88.89222,22.11445],[88.89497,22.09122],[88.87225,22.08781],[88.8307,22.12708],[88.85992,22.14189],[88.84808,22.16693],[88.86301,22.16738],[88.86348,22.16731]]],[[[88.85611,21.86528],[88.87722,21.85167],[88.88223,21.79722],[88.89806,21.77861],[88.89139,21.75361],[88.92139,21.74361],[88.91333,21.72778],[88.86444,21.77917],[88.835,21.78167],[88.83722,21.84306],[88.85361,21.86528],[88.85611,21.86528]]],[[[88.98449,21.70569],[88.98791,21.65298],[89.02276,21.65403],[89.03749,21.61813],[89.02876,21.60482],[89,21.60167],[88.99236,21.64414],[88.96402,21.64574],[88.95084,21.70072],[88.98384,21.70532],[88.98449,21.70569]]],[[[88.72361,21.93194],[88.73611,21.91806],[88.79945,21.91972],[88.81416,21.90278],[88.80805,21.88444],[88.78972,21.86472],[88.79083,21.87917],[88.77611,21.86972],[88.71889,21.90917],[88.72334,21.93167],[88.72361,21.93194]]],[[[88.77194,21.65306],[88.78222,21.59611],[88.79806,21.59167],[88.75195,21.57667],[88.75824,21.60004],[88.73645,21.61189],[88.72957,21.63995],[88.77202,21.65335],[88.77194,21.65306]]],[[[88.83472,21.60722],[88.87612,21.59222],[88.90361,21.55583],[88.84278,21.55389],[88.82833,21.57694],[88.83417,21.60722],[88.83472,21.60722]]],[[[88.78917,21.87861],[88.78778,21.86361],[88.80055,21.87778],[88.82972,21.86222],[88.795,21.79139],[88.78972,21.82139],[88.76583,21.82889],[88.78889,21.87833],[88.78917,21.87861]]],[[[88.80585,22.08311],[88.82778,22.08603],[88.83621,22.06634],[88.79415,22.05566],[88.78722,22.07222],[88.78124,22.04836],[88.74809,22.05817],[88.78427,22.10717],[88.79928,22.10794],[88.80553,22.08342],[88.80585,22.08311]]],[[[88.7449,21.97984],[88.75071,21.95485],[88.77584,21.94145],[88.78645,21.95265],[88.80579,21.93648],[88.79939,21.92593],[88.73333,21.92472],[88.72373,21.97382],[88.74435,21.97997],[88.7449,21.97984]]],[[[88.92468,21.76229],[88.9689,21.7392],[88.98712,21.74507],[88.96945,21.72278],[88.98388,21.70639],[88.95024,21.70233],[88.92278,21.71971],[88.92409,21.76251],[88.92468,21.76229]]],[[[88.78416,21.73889],[88.75666,21.73341],[88.76439,21.7605],[88.74976,21.76965],[88.78211,21.82519],[88.79583,21.78722],[88.78417,21.73917],[88.78416,21.73889]]],[[[88.8179,22.12303],[88.84573,22.11942],[88.86794,22.08502],[88.83845,22.09019],[88.8675,22.0825],[88.83809,22.07308],[88.81921,22.10442],[88.82526,22.08729],[88.8059,22.08475],[88.79869,22.11093],[88.81752,22.12306],[88.8179,22.12303]]],[[[88.80666,21.70667],[88.79694,21.65528],[88.73055,21.68472],[88.80611,21.70667],[88.80666,21.70667]]],[[[88.94861,21.835],[88.97667,21.82083],[88.93972,21.79139],[88.96056,21.77278],[88.91417,21.75556],[88.93889,21.81667],[88.92445,21.83583],[88.94139,21.84722],[88.94833,21.83528],[88.94861,21.835]]],[[[88.99967,21.78547],[89.01158,21.78023],[88.99667,21.76583],[89.0154,21.72565],[89.00428,21.71607],[88.97667,21.72861],[88.98788,21.74665],[88.96871,21.74071],[88.95111,21.75778],[88.99931,21.78558],[88.99967,21.78547]]],[[[88.91583,21.82583],[88.93723,21.81667],[88.91278,21.75528],[88.89778,21.75194],[88.90694,21.79417],[88.89584,21.78806],[88.88306,21.80806],[88.91361,21.82583],[88.91583,21.82583]]],[[[88.87055,22.0783],[88.89029,22.04783],[88.85395,22.04463],[88.85923,22.02557],[88.83596,22.02545],[88.84555,22.06167],[88.83252,22.05168],[88.82,22.06417],[88.87056,22.07894],[88.87055,22.0783]]],[[[88.99721,21.71761],[89.01989,21.71456],[89.00753,21.7046],[89.02416,21.68773],[89.01784,21.66119],[88.99342,21.65139],[88.9925,21.70139],[88.97056,21.72111],[88.99673,21.71804],[88.99721,21.71761]]],[[[88.72885,21.63708],[88.73558,21.61105],[88.75719,21.59898],[88.73583,21.57167],[88.70721,21.59422],[88.72879,21.63758],[88.72885,21.63708]]],[[[88.80666,21.74917],[88.7839,21.76552],[88.82167,21.8229],[88.83028,21.76667],[88.80722,21.74917],[88.80666,21.74917]]],[[[88.92883,22.22564],[88.95419,22.2216],[88.96159,22.19721],[88.9318,22.17702],[88.90807,22.19631],[88.91879,22.23081],[88.92846,22.2258],[88.92883,22.22564]]],[[[88.96863,21.64043],[88.99139,21.64357],[88.99084,21.615],[88.95592,21.61757],[88.94207,21.64015],[88.95469,21.67691],[88.96818,21.64052],[88.96863,21.64043]]],[[[89.01274,21.76484],[89.05928,21.72592],[89.01741,21.71778],[88.99973,21.76055],[89.01202,21.7649],[89.01274,21.76484]]],[[[88.81186,22.06075],[88.83143,22.05024],[88.83221,22.02717],[88.78016,22.03783],[88.78758,22.05963],[88.81144,22.06085],[88.81186,22.06075]]],[[[88.6993,21.69767],[88.75137,21.64872],[88.72315,21.63833],[88.68704,21.68333],[88.69639,21.71333],[88.69918,21.69817],[88.6993,21.69767]]],[[[88.90141,22.04152],[88.90136,22.01832],[88.87908,22.01452],[88.85195,22.04168],[88.89021,22.04584],[88.88692,22.05778],[88.9016,22.04204],[88.90141,22.04152]]],[[[88.86195,22.39889],[88.86555,22.38556],[88.88058,22.40321],[88.89861,22.33667],[88.86083,22.37083],[88.86166,22.41056],[88.86195,22.39917],[88.86195,22.39889]]],[[[88.78139,22.50056],[88.80984,22.48119],[88.82169,22.43479],[88.83483,22.4338],[88.80397,22.44445],[88.78111,22.50056],[88.78139,22.50056]]],[[[88.81695,21.90111],[88.84084,21.88694],[88.82944,21.86472],[88.80028,21.87056],[88.81667,21.90111],[88.81695,21.90111]]],[[[89.01655,21.81123],[89.0233,21.75897],[88.99881,21.76694],[89.01272,21.78055],[88.99002,21.79075],[88.99486,21.81233],[89.01662,21.81163],[89.01655,21.81123]]],[[[88.76331,22.05171],[88.79105,22.02937],[88.76167,22.02139],[88.75143,22.05033],[88.76283,22.05187],[88.76331,22.05171]]],[[[88.75449,21.77866],[88.72833,21.77972],[88.75012,21.81416],[88.755,21.77917],[88.75449,21.77866]]],[[[88.90254,22.08283],[88.89091,22.06036],[88.87096,22.06436],[88.87021,22.0869],[88.90287,22.08313],[88.90254,22.08283]]],[[[88.7443,21.98307],[88.75871,22.00706],[88.74467,21.98315],[88.7443,21.98307]]],[[[88.85917,22.46944],[88.85611,22.45889],[88.85889,22.46972],[88.85917,22.46944]]]]}},{"type":"Feature","properties":{"DISTRICT":"Pashchim Medinipur","ST_NM":"West Bengal","ST_CEN_CD":19,"DT_CEN_CD":18,"censuscode":344},"geometry":{"type":"Polygon","coordinates":[[[87.52483,22.93021],[87.50752,22.91469],[87.53349,22.88252],[87.51992,22.86647],[87.56244,22.86492],[87.59217,22.84345],[87.61888,22.85091],[87.6363,22.81242],[87.68516,22.80256],[87.68017,22.78201],[87.72641,22.78892],[87.74355,22.77605],[87.76665,22.6927],[87.81649,22.61693],[87.85521,22.59753],[87.84581,22.56117],[87.89258,22.51884],[87.76056,22.47648],[87.69684,22.50997],[87.67386,22.46337],[87.65836,22.4613],[87.6478,22.3333],[87.72385,22.32197],[87.70122,22.22879],[87.73016,22.1921],[87.70826,22.17837],[87.70365,22.12863],[87.67226,22.10792],[87.58683,22.08504],[87.57436,22.09866],[87.55722,22.08449],[87.49712,22.09044],[87.47996,22.07921],[87.49038,22.03998],[87.4674,22.02885],[87.4637,22.00728],[87.48192,22.00085],[87.4881,21.95675],[87.51554,21.95096],[87.48257,21.93426],[87.48088,21.90116],[87.45067,21.88919],[87.45938,21.84599],[87.42828,21.79536],[87.44357,21.76922],[87.37448,21.76494],[87.35648,21.79056],[87.34108,21.78402],[87.26691,21.81863],[87.23934,21.90024],[87.2569,21.92241],[87.23939,21.95893],[87.19969,21.95811],[87.17204,21.97792],[87.16291,21.93513],[87.09821,21.91251],[87.09929,21.86503],[87.03497,21.86998],[87.00272,21.9121],[87.03906,21.99365],[87.0224,22.04566],[86.96209,22.08768],[86.83697,22.09937],[86.8021,22.13034],[86.79534,22.15811],[86.72053,22.14765],[86.72789,22.2193],[86.7721,22.2154],[86.78501,22.23576],[86.79722,22.22789],[86.78108,22.21784],[86.80513,22.2177],[86.81489,22.24204],[86.79787,22.24275],[86.79532,22.26679],[86.80462,22.24499],[86.81689,22.26792],[86.82136,22.25331],[86.82782,22.26533],[86.89063,22.25614],[86.89119,22.29808],[86.83421,22.32849],[86.84895,22.39986],[86.76901,22.42662],[86.7566,22.45436],[86.7534,22.4823],[86.80312,22.48764],[86.78917,22.54779],[86.76114,22.57777],[86.65694,22.57926],[86.63958,22.60069],[86.64197,22.65846],[86.56047,22.71113],[86.60441,22.78287],[86.60013,22.79777],[86.64182,22.79611],[86.92717,22.62656],[86.95668,22.63782],[86.95092,22.66971],[86.96508,22.67545],[87.01622,22.6506],[87.01593,22.69417],[87.08756,22.73812],[87.05409,22.82375],[87.06271,22.84909],[87.12913,22.84341],[87.17334,22.89254],[87.27104,22.90374],[87.32078,22.94338],[87.35992,22.95249],[87.46412,22.91173],[87.52204,22.93114],[87.52483,22.93021]]]}},{"type":"Feature","properties":{"DISTRICT":"Purba Medinipur","ST_NM":"West Bengal","ST_CEN_CD":19,"DT_CEN_CD":19,"censuscode":345},"geometry":{"type":"MultiPolygon","coordinates":[[[[87.86696,22.51331],[87.88625,22.50927],[87.9001,22.47508],[87.87814,22.4584],[87.88084,22.43806],[87.92973,22.40361],[87.94806,22.34639],[87.93639,22.31667],[87.93083,22.33333],[87.94,22.26028],[88.00861,22.20139],[88.03472,22.20944],[88.07528,22.18667],[88.13556,22.18472],[88.19195,22.10583],[88.15617,22.06478],[88.06223,22.01306],[87.99194,22.1025],[87.96336,22.10348],[88.00861,22.07306],[88.01777,22.04028],[88.05306,22.01028],[87.96093,21.82607],[87.82222,21.7057],[87.75471,21.68219],[87.70674,21.64458],[87.4902,21.60265],[87.48631,21.63096],[87.4629,21.65],[87.47033,21.73011],[87.44721,21.73396],[87.44138,21.78973],[87.42828,21.79536],[87.45938,21.84599],[87.45067,21.88919],[87.48088,21.90116],[87.48257,21.93426],[87.51554,21.95096],[87.4881,21.95675],[87.48192,22.00085],[87.4637,22.00728],[87.4674,22.02885],[87.49038,22.03998],[87.47757,22.07546],[87.49712,22.09044],[87.55722,22.08449],[87.57436,22.09866],[87.58683,22.08504],[87.70365,22.12863],[87.70826,22.17837],[87.73068,22.19419],[87.70122,22.22879],[87.72385,22.32197],[87.6478,22.3333],[87.65539,22.45472],[87.69684,22.50997],[87.76056,22.47648],[87.86079,22.51299],[87.86696,22.51331]]],[[[88.14139,22.02639],[88.12532,21.99521],[88.08174,21.96522],[88.06714,21.92],[88.04723,21.91167],[88.07333,21.99528],[88.14056,22.02555],[88.14139,22.02639]]],[[[87.94051,21.74297],[87.95957,21.77067],[87.9452,21.74506],[87.94051,21.74297]]],[[[88.00695,22.23837],[87.97144,22.26384],[88,22.24163],[88.00695,22.23837]]],[[[87.88405,21.7445],[87.90419,21.77153],[87.88692,21.74702],[87.88405,21.7445]]],[[[87.92694,22.42155],[87.94512,22.40667],[87.92694,22.42139],[87.92694,22.42155]]],[[[87.93806,22.39667],[87.93333,22.40972],[87.93861,22.39722],[87.93806,22.39667]]]]}},{"type":"Feature","properties":{"DISTRICT":"Puruliya","ST_NM":"West Bengal","ST_CEN_CD":19,"DT_CEN_CD":14,"censuscode":340},"geometry":{"type":"Polygon","coordinates":[[[86.89949,23.64004],[86.88232,23.57591],[86.85682,23.56926],[86.87759,23.55647],[86.89711,23.49293],[86.87491,23.49717],[86.85686,23.46304],[86.82034,23.46654],[86.8201,23.43653],[86.85869,23.43506],[86.847,23.39593],[86.82479,23.38061],[86.82714,23.36344],[86.78057,23.33846],[86.76371,23.24018],[86.78458,23.20815],[86.75376,23.19837],[86.74793,23.16587],[86.73539,23.16814],[86.71145,23.11966],[86.74507,23.09439],[86.72366,23.03718],[86.72759,22.99542],[86.69245,22.92967],[86.70458,22.87214],[86.6181,22.82359],[86.56047,22.71113],[86.54464,22.72387],[86.51537,22.71927],[86.51201,22.70475],[86.41814,22.78951],[86.43835,22.86347],[86.45239,22.86176],[86.46855,22.89956],[86.43836,22.92628],[86.47594,22.95231],[86.49002,22.93716],[86.52385,22.94721],[86.54574,22.99006],[86.51773,22.96911],[86.50286,22.99272],[86.42185,22.99756],[86.39863,22.97703],[86.37512,22.99706],[86.31785,22.99794],[86.30394,23.01598],[86.21823,22.99455],[86.21013,23.01587],[86.18141,23.01565],[86.15583,23.0435],[86.14241,23.08563],[86.0539,23.11113],[86.04286,23.14601],[85.98791,23.14827],[85.92749,23.1283],[85.86361,23.1966],[85.83851,23.19487],[85.8325,23.26525],[85.88409,23.32578],[85.87241,23.36685],[85.9018,23.3726],[85.88461,23.40998],[85.86905,23.41191],[85.87221,23.47209],[85.89743,23.47785],[85.95003,23.45654],[86.05329,23.49555],[86.01686,23.55347],[86.04347,23.58525],[86.15078,23.56963],[86.15151,23.47506],[86.1783,23.48053],[86.22687,23.45803],[86.24465,23.47172],[86.23056,23.43775],[86.24906,23.42169],[86.25253,23.43624],[86.28433,23.44321],[86.30583,23.42219],[86.32005,23.4304],[86.30599,23.44581],[86.33204,23.45965],[86.33718,23.44934],[86.37776,23.48474],[86.35953,23.49847],[86.38676,23.5863],[86.44544,23.61103],[86.45072,23.63343],[86.53439,23.63092],[86.5973,23.67306],[86.71662,23.69915],[86.7437,23.67956],[86.8012,23.69542],[86.89862,23.64298],[86.89949,23.64004]]]}},{"type":"Feature","properties":{"DISTRICT":"South 24 Parganas","ST_NM":"West Bengal","ST_CEN_CD":19,"DT_CEN_CD":17,"censuscode":343},"geometry":{"type":"MultiPolygon","coordinates":[[[[88.58275,22.61465],[88.62912,22.57436],[88.65439,22.49537],[88.71079,22.45348],[88.70672,22.43228],[88.77053,22.39348],[88.77442,22.3728],[88.82415,22.37169],[88.80586,22.33151],[88.80774,22.2837],[88.74362,22.22917],[88.74139,22.19861],[88.6395,22.2131],[88.68492,22.29428],[88.67889,22.32306],[88.69055,22.32667],[88.66612,22.33904],[88.67917,22.29389],[88.63091,22.22205],[88.67246,22.2012],[88.61929,22.10884],[88.59889,22.12972],[88.60463,22.15978],[88.58308,22.16972],[88.5775,22.19847],[88.57275,22.1891],[88.60337,22.15909],[88.59757,22.13062],[88.63666,22.04529],[88.6034,22.02356],[88.59658,22.06727],[88.59991,22.0236],[88.61444,22.01972],[88.5987,21.9747],[88.61494,21.93699],[88.60139,21.93528],[88.60667,21.91306],[88.57806,21.88972],[88.58639,21.92805],[88.5725,21.90722],[88.55028,21.92139],[88.54361,21.97],[88.56778,21.95889],[88.54625,21.97349],[88.54867,21.92228],[88.57054,21.90361],[88.54056,21.90387],[88.54793,21.88169],[88.52805,21.85306],[88.49426,21.87909],[88.52554,21.92944],[88.4937,21.96705],[88.51912,21.98824],[88.54332,21.98199],[88.55462,22.03571],[88.54142,21.98171],[88.51757,21.98873],[88.49157,21.96689],[88.52183,21.93901],[88.52066,21.9154],[88.47356,21.89534],[88.45561,21.89995],[88.4529,21.93954],[88.47021,21.9589],[88.44593,21.96596],[88.46089,22.01158],[88.44163,21.99106],[88.44533,21.96416],[88.46892,21.95797],[88.45148,21.94203],[88.45848,21.91884],[88.41973,21.90655],[88.40867,21.88533],[88.38474,21.89915],[88.40778,21.91949],[88.39881,21.95309],[88.37389,21.96528],[88.39431,21.97066],[88.37582,21.96972],[88.40636,21.91979],[88.3828,21.90068],[88.3975,21.88528],[88.39067,21.79898],[88.36401,21.79783],[88.35488,21.8228],[88.37055,21.8978],[88.34998,21.92739],[88.36916,21.89725],[88.35358,21.85715],[88.30894,21.8564],[88.3098,21.87768],[88.30059,21.86133],[88.26198,21.85869],[88.26974,21.88519],[88.2549,21.87134],[88.2606,21.85786],[88.31383,21.84661],[88.25897,21.80762],[88.28194,21.7611],[88.25166,21.80194],[88.28274,21.75758],[88.26377,21.73063],[88.27389,21.75463],[88.21722,21.76445],[88.16333,21.87944],[88.17721,21.92611],[88.15366,21.95917],[88.20778,22.0225],[88.22389,22.07528],[88.20751,22.15778],[88.16556,22.19889],[88.06973,22.21195],[88.10472,22.29528],[88.09446,22.36467],[88.14236,22.4081],[88.12106,22.46938],[88.23875,22.52134],[88.24723,22.56065],[88.28517,22.54668],[88.29164,22.51766],[88.3502,22.49855],[88.36792,22.49883],[88.42247,22.58393],[88.44756,22.56383],[88.4759,22.57526],[88.5255,22.54792],[88.5598,22.62559],[88.57112,22.6222],[88.58275,22.61465]]],[[[88.13695,21.875],[88.1725,21.81195],[88.17066,21.7424],[88.1434,21.67955],[88.15528,21.68139],[88.15473,21.65],[88.10917,21.62583],[88.04166,21.64917],[88.03667,21.675],[88.07285,21.78018],[88.13695,21.87528],[88.13695,21.875]]],[[[88.70468,22.20667],[88.76553,22.19196],[88.78917,22.16945],[88.68305,22.08083],[88.69112,22.05705],[88.73574,22.03162],[88.73968,22.0177],[88.72105,22.0053],[88.66377,22.02376],[88.63419,22.10621],[88.65286,22.16339],[88.68388,22.20724],[88.70409,22.20694],[88.70468,22.20667]]],[[[88.22736,21.762],[88.272,21.75441],[88.26207,21.73017],[88.31055,21.67556],[88.28833,21.62306],[88.28861,21.59778],[88.30611,21.58333],[88.29167,21.56305],[88.24834,21.56389],[88.24278,21.59667],[88.21639,21.61639],[88.23473,21.63538],[88.23333,21.66806],[88.19778,21.68917],[88.22038,21.70003],[88.21094,21.72644],[88.22668,21.7621],[88.22736,21.762]]],[[[88.33678,21.86032],[88.35272,21.85424],[88.35142,21.82191],[88.37968,21.78848],[88.37804,21.76944],[88.34345,21.76027],[88.345,21.72167],[88.31586,21.70905],[88.29834,21.77715],[88.31086,21.79564],[88.29389,21.80278],[88.31035,21.79349],[88.29601,21.77405],[88.26007,21.80651],[88.33617,21.86045],[88.33678,21.86032]]],[[[88.445,21.90503],[88.48211,21.88782],[88.49015,21.85638],[88.48847,21.83783],[88.44807,21.81528],[88.46146,21.78981],[88.42403,21.8124],[88.40153,21.79803],[88.39252,21.8326],[88.41901,21.9024],[88.44457,21.90516],[88.445,21.90503]]],[[[88.54457,21.81032],[88.57222,21.78778],[88.56194,21.77],[88.5725,21.73556],[88.54172,21.73768],[88.51945,21.71917],[88.50439,21.75741],[88.53529,21.79202],[88.50417,21.77083],[88.54343,21.81059],[88.54457,21.81032]]],[[[88.6786,22.0165],[88.71578,22.00064],[88.69308,21.9698],[88.68667,21.99111],[88.69232,21.95667],[88.66833,21.95389],[88.68806,21.95278],[88.67815,21.94287],[88.63346,21.95156],[88.63486,21.99595],[88.65294,22.01913],[88.67815,22.01673],[88.6786,22.0165]]],[[[88.41428,21.72859],[88.42857,21.70201],[88.41331,21.69107],[88.41116,21.65866],[88.43194,21.62736],[88.39861,21.59556],[88.37972,21.68083],[88.40388,21.71519],[88.36864,21.72734],[88.395,21.755],[88.41385,21.72906],[88.41428,21.72859]]],[[[88.55039,21.73589],[88.57111,21.73222],[88.5907,21.69063],[88.58025,21.68468],[88.56994,21.71062],[88.54301,21.72391],[88.5742,21.69403],[88.55278,21.70278],[88.56506,21.70294],[88.56917,21.66944],[88.54859,21.6364],[88.52958,21.65265],[88.51722,21.7114],[88.54981,21.73598],[88.55039,21.73589]]],[[[88.53722,21.63862],[88.5875,21.60194],[88.57555,21.57417],[88.55,21.56361],[88.53695,21.58695],[88.55666,21.60445],[88.53693,21.5884],[88.51,21.60222],[88.52438,21.6532],[88.53671,21.63889],[88.53722,21.63862]]],[[[88.62167,21.89778],[88.63333,21.86972],[88.65352,21.86771],[88.63889,21.78472],[88.59472,21.85444],[88.62055,21.89778],[88.62167,21.89778]]],[[[88.30594,21.70752],[88.3422,21.69325],[88.35807,21.6475],[88.31528,21.60806],[88.30537,21.70767],[88.30594,21.70752]]],[[[88.45808,21.78884],[88.475,21.79139],[88.46722,21.73722],[88.45592,21.71142],[88.43314,21.70448],[88.42336,21.76773],[88.44604,21.79796],[88.45745,21.78896],[88.45808,21.78884]]],[[[88.455,21.70861],[88.47069,21.67299],[88.44223,21.615],[88.41941,21.68918],[88.45445,21.70917],[88.455,21.70861]]],[[[88.20505,21.71971],[88.21659,21.70054],[88.19556,21.68194],[88.22633,21.67021],[88.23167,21.64361],[88.21195,21.60167],[88.18139,21.68611],[88.20466,21.72064],[88.20505,21.71971]]],[[[88.42407,21.81103],[88.44269,21.79965],[88.42086,21.76723],[88.42276,21.71982],[88.38266,21.7791],[88.42347,21.81108],[88.42407,21.81103]]],[[[88.56234,21.89746],[88.57639,21.88861],[88.57274,21.85836],[88.55103,21.81729],[88.53056,21.84917],[88.55016,21.88044],[88.54116,21.90256],[88.56179,21.89752],[88.56234,21.89746]]],[[[88.5025,21.59445],[88.53389,21.57806],[88.53139,21.5425],[88.50611,21.54111],[88.50305,21.56528],[88.50417,21.54445],[88.48171,21.55473],[88.48611,21.58833],[88.5025,21.59472],[88.5025,21.59445]]],[[[88.36435,21.76428],[88.36528,21.72222],[88.39806,21.71333],[88.36056,21.68639],[88.33751,21.71077],[88.34279,21.75439],[88.36387,21.76441],[88.36435,21.76428]]],[[[88.60973,21.79028],[88.63084,21.7425],[88.60889,21.70806],[88.59885,21.71552],[88.62306,21.73667],[88.58625,21.7566],[88.5912,21.78331],[88.60944,21.79],[88.60973,21.79028]]],[[[88.57702,21.69137],[88.60222,21.62056],[88.55398,21.63953],[88.57688,21.69173],[88.57702,21.69137]]],[[[88.59222,21.85],[88.61805,21.82924],[88.61417,21.79806],[88.59055,21.79778],[88.57604,21.81703],[88.5925,21.85028],[88.59222,21.85]]],[[[88.64,21.92168],[88.6675,21.91167],[88.65278,21.87333],[88.63445,21.87056],[88.62338,21.90141],[88.63889,21.92168],[88.64,21.92168]]],[[[88.30216,21.72358],[88.29728,21.7056],[88.27803,21.72817],[88.28891,21.77849],[88.30229,21.72409],[88.30216,21.72358]]],[[[88.48977,21.83468],[88.50027,21.8125],[88.48583,21.79861],[88.45314,21.80566],[88.48929,21.83517],[88.48977,21.83468]]],[[[88.0875,21.93278],[88.06714,21.92],[88.08174,21.96522],[88.12532,21.99521],[88.0875,21.93389],[88.0875,21.93278]]],[[[88.58222,21.77778],[88.58561,21.75389],[88.61977,21.73831],[88.61637,21.72763],[88.57972,21.72584],[88.569,21.76918],[88.58167,21.77778],[88.58222,21.77778]]],[[[88.38599,21.76386],[88.3867,21.74068],[88.3624,21.73233],[88.38545,21.76416],[88.38599,21.76386]]],[[[88.59194,21.69417],[88.60634,21.67998],[88.58855,21.65733],[88.58039,21.68299],[88.59194,21.69472],[88.59194,21.69417]]],[[[88.13554,21.92562],[88.14462,21.91526],[88.12945,21.89889],[88.11611,21.91832],[88.13532,21.92606],[88.13554,21.92562]]],[[[88.17778,21.60111],[88.18667,21.56],[88.16778,21.59167],[88.17721,21.60111],[88.17778,21.60111]]],[[[88.50472,21.91278],[88.49028,21.88945],[88.47694,21.89833],[88.50305,21.91278],[88.50472,21.91278]]],[[[88.27397,21.79079],[88.28333,21.76944],[88.27334,21.79085],[88.27397,21.79079]]],[[[88.63167,21.64917],[88.6404,21.67857],[88.63194,21.64917],[88.63167,21.64917]]],[[[88.16333,21.93722],[88.16527,21.91611],[88.16278,21.93722],[88.16333,21.93722]]],[[[88.71288,22.09273],[88.69289,22.07808],[88.72314,22.10111],[88.71336,22.09275],[88.71288,22.09273]]],[[[88.51996,21.85464],[88.52417,21.835],[88.51944,21.85467],[88.51996,21.85464]]],[[[88.17111,21.80861],[88.16917,21.79056],[88.17083,21.80833],[88.17111,21.80861]]],[[[88.63611,22.05056],[88.62861,22.06195],[88.63583,22.05082],[88.63611,22.05056]]],[[[88.45245,21.90634],[88.44226,21.90877],[88.45279,21.90667],[88.45245,21.90634]]],[[[88.19695,21.75778],[88.2,21.76917],[88.19778,21.75806],[88.19695,21.75778]]],[[[88.10695,21.8936],[88.1093,21.88388],[88.11278,21.91055],[88.10694,21.89417],[88.10695,21.8936]]],[[[88.72894,22.11322],[88.73627,22.12878],[88.72928,22.11362],[88.72894,22.11322]]],[[[88.72458,22.05784],[88.7043,22.06656],[88.71514,22.06236],[88.72458,22.05784]]],[[[88.1956,21.72448],[88.20138,21.73667],[88.19601,21.72468],[88.1956,21.72448]]],[[[88.58275,21.86555],[88.58469,21.87659],[88.58326,21.86597],[88.58275,21.86555]]],[[[88.77321,22.24901],[88.78717,22.25776],[88.77759,22.25224],[88.77321,22.24901]]]]}},{"type":"Feature","properties":{"DISTRICT":"Uttar Dinajpur","ST_NM":"West Bengal","ST_CEN_CD":19,"DT_CEN_CD":4,"censuscode":330},"geometry":{"type":"Polygon","coordinates":[[[88.34004,26.48699],[88.36015,26.44755],[88.36817,26.48491],[88.48716,26.45987],[88.50043,26.40717],[88.52563,26.39196],[88.51612,26.3728],[88.53309,26.37346],[88.52793,26.35733],[88.48819,26.35104],[88.46352,26.37328],[88.44188,26.33789],[88.41682,26.33233],[88.42152,26.31735],[88.36265,26.29156],[88.35409,26.22164],[88.25283,26.19251],[88.18279,26.14745],[88.16161,26.10208],[88.16282,26.07948],[88.18618,26.067],[88.17428,26.05152],[88.1819,26.02534],[88.14398,26.01286],[88.14924,25.99707],[88.09384,25.89532],[88.11925,25.85511],[88.10456,25.84311],[88.11369,25.79643],[88.14371,25.79147],[88.15009,25.77252],[88.18512,25.79449],[88.21069,25.78564],[88.27116,25.80843],[88.27164,25.77859],[88.32136,25.73595],[88.37615,25.71388],[88.41764,25.66392],[88.45627,25.66258],[88.45027,25.60237],[88.4615,25.59348],[88.40153,25.58865],[88.38634,25.56148],[88.33041,25.5505],[88.25648,25.48706],[88.26669,25.42538],[88.24344,25.40452],[88.24792,25.3796],[88.18542,25.28589],[88.15056,25.29367],[88.15631,25.27061],[88.13067,25.24315],[88.12628,25.26961],[88.10792,25.27235],[88.11226,25.29058],[88.13174,25.29142],[88.11404,25.32301],[88.1279,25.36336],[88.10642,25.37913],[88.11976,25.40482],[88.09964,25.41962],[88.11724,25.43352],[88.10378,25.42951],[88.08313,25.45327],[88.07852,25.5043],[88.04145,25.53711],[88.03281,25.55363],[88.04401,25.56424],[88.02684,25.58727],[88.06012,25.63317],[88.04139,25.63713],[88.05437,25.64421],[88.05451,25.69084],[88.02208,25.69198],[87.99376,25.72391],[87.96699,25.72491],[87.93846,25.77152],[87.90457,25.76995],[87.90286,25.81122],[87.91664,25.81496],[87.88956,25.82876],[87.91708,25.85189],[87.82909,25.87157],[87.80991,25.92078],[87.83625,25.93551],[87.84853,26.04448],[87.91935,26.09097],[87.93751,26.06896],[87.94425,26.08448],[87.97853,26.08486],[87.9608,26.10279],[87.98202,26.12162],[87.96355,26.12884],[87.97737,26.13712],[87.97051,26.15194],[87.98853,26.15915],[88.01945,26.14086],[88.04383,26.17767],[88.0762,26.1757],[88.11826,26.22617],[88.14518,26.23079],[88.15085,26.25276],[88.22063,26.28165],[88.26752,26.3378],[88.28592,26.33548],[88.2983,26.35385],[88.2804,26.37721],[88.24406,26.3753],[88.23572,26.38977],[88.27483,26.41782],[88.24316,26.45266],[88.27126,26.48574],[88.34126,26.49085],[88.34004,26.48699]]]}}]}
